{
"type": "FeatureCollection",
"crs": { "type": "name", "properties": { "name": "urn:ogc:def:crs:OGC:1.3:CRS84" } },
"features": [
{ "type": "Feature", "properties": { "code": "01052", "name": "Samaniego" }, "geometry": { "type": "Polygon", "coordinates": [ [ [ -2.650953499999957, 42.558678499000052 ], [ -2.665675589999978, 42.556982662000053 ], [ -2.686106, 42.545000999000081 ], [ -2.691447499999924, 42.542735999000058 ], [ -2.687513699999954, 42.559479732000057 ], [ -2.68587525099997, 42.582360530000074 ], [ -2.681769, 42.595394999000064 ], [ -2.667325, 42.592330999000069 ], [ -2.668776, 42.585411499000031 ], [ -2.658410499999945, 42.58637999900003 ], [ -2.654958499999964, 42.580524499000035 ], [ -2.657232, 42.572208499000055 ], [ -2.656866, 42.565921999000068 ], [ -2.655456, 42.56108449900006 ], [ -2.650953499999957, 42.558678499000052 ] ] ] } },
{ "type": "Feature", "properties": { "code": "01053", "name": "San Millán / Donemiliaga" }, "geometry": { "type": "MultiPolygon", "coordinates": [ [ [ [ -2.420909, 42.886234499000068 ], [ -2.410005611999964, 42.882838649000064 ], [ -2.403107026999976, 42.885134916000027 ], [ -2.405258, 42.894042999000078 ], [ -2.386655840999936, 42.890026447000025 ], [ -2.376892486999964, 42.890708047000032 ], [ -2.363157050999973, 42.925504987000068 ], [ -2.351062499999955, 42.942511499000034 ], [ -2.339167, 42.936116499000036 ], [ -2.340670354999929, 42.930393502000072 ], [ -2.349876092999978, 42.919587738000075 ], [ -2.351666973999954, 42.906780289000039 ], [ -2.35725464199993, 42.894329017000075 ], [ -2.368564306999929, 42.883782633000067 ], [ -2.360405697999965, 42.878693894000037 ], [ -2.357830838999973, 42.873651344000052 ], [ -2.337464, 42.871446499000058 ], [ -2.325440008999976, 42.867009037000059 ], [ -2.316252170999974, 42.872781751000048 ], [ -2.305720117999954, 42.869354163000025 ], [ -2.300007896999944, 42.860663700000032 ], [ -2.297932499999945, 42.849578999000073 ], [ -2.307927820999964, 42.845649751000053 ], [ -2.300024432999976, 42.837487488000079 ], [ -2.299904856999945, 42.833932264000055 ], [ -2.322646240999973, 42.827085858000032 ], [ -2.330691, 42.81733299900003 ], [ -2.360990220999952, 42.83302689900006 ], [ -2.370148815999926, 42.840506435000066 ], [ -2.37119927699996, 42.845649951000041 ], [ -2.367186833999938, 42.848637140000051 ], [ -2.36831628799996, 42.854902434000053 ], [ -2.360739751999972, 42.857741167000029 ], [ -2.366981499999952, 42.866603871000052 ], [ -2.380145709999965, 42.86946858400006 ], [ -2.392285056999981, 42.879589501000055 ], [ -2.39863468599998, 42.86887523300004 ], [ -2.404946130999974, 42.864638551000041 ], [ -2.409668834999934, 42.863279854000041 ], [ -2.418932499999926, 42.867049999000074 ], [ -2.420909, 42.886234499000068 ] ] ], [ [ [ -2.423617499999978, 42.892856499000061 ], [ -2.436083665999945, 42.905955952000056 ], [ -2.455065928999943, 42.904363190000026 ], [ -2.45101079799997, 42.913826252000035 ], [ -2.452351550999936, 42.936973848000036 ], [ -2.444529499999931, 42.958019999000044 ], [ -2.44194, 42.958810499000037 ], [ -2.435782, 42.958455499000081 ], [ -2.422186499999953, 42.955657999000039 ], [ -2.415201, 42.95896699900004 ], [ -2.406023, 42.959505499000045 ], [ -2.404048, 42.957079499000031 ], [ -2.399963, 42.956678499000077 ], [ -2.397726499999976, 42.953674499000044 ], [ -2.394388, 42.952246999000067 ], [ -2.389887, 42.952781999000081 ], [ -2.384836, 42.951003999000079 ], [ -2.402030412999977, 42.928274354000052 ], [ -2.404773336999938, 42.915596750000077 ], [ -2.40012089399994, 42.900658278000037 ], [ -2.406132499999956, 42.894794499000056 ], [ -2.423617499999978, 42.892856499000061 ] ] ], [ [ [ -2.481648, 42.829573999000047 ], [ -2.471798874999934, 42.827559422000036 ], [ -2.466285919999962, 42.832172319000051 ], [ -2.472432376999961, 42.838344868000036 ], [ -2.476664, 42.840179499000044 ], [ -2.471190499999977, 42.847762999000054 ], [ -2.443049100999929, 42.833563368000057 ], [ -2.450322394999944, 42.81953612600006 ], [ -2.444525, 42.794303999000078 ], [ -2.456201723999925, 42.788729441000044 ], [ -2.466288, 42.788875499000028 ], [ -2.46168948899998, 42.807579915000076 ], [ -2.465041876999976, 42.816335287000072 ], [ -2.468547206999972, 42.818467468000051 ], [ -2.472795513999927, 42.814831874000049 ], [ -2.470339506999949, 42.808301332000042 ], [ -2.47688993099996, 42.796207430000038 ], [ -2.476771499999927, 42.78558349900004 ], [ -2.491579, 42.792865499000072 ], [ -2.483875037999951, 42.800866348000056 ], [ -2.484732, 42.826438999000061 ], [ -2.481648, 42.829573999000047 ] ] ] ] } },
{ "type": "Feature", "properties": { "code": "01054", "name": "Urkabustaiz" }, "geometry": { "type": "Polygon", "coordinates": [ [ [ -2.958229, 42.994410499000026 ], [ -2.955577, 42.998898999000062 ], [ -2.943094421999945, 43.004387362000045 ], [ -2.93284754299998, 43.014579447000074 ], [ -2.918103947999953, 43.016414888000043 ], [ -2.914848, 43.020572499000025 ], [ -2.903857502999927, 43.012564045000033 ], [ -2.901039271999934, 43.005560648000028 ], [ -2.883657565999954, 42.989104117000068 ], [ -2.883481589999974, 42.975121631000036 ], [ -2.875144104999947, 42.966492620000054 ], [ -2.87799038299994, 42.941935971000078 ], [ -2.871974215999956, 42.93530953700008 ], [ -2.868160499999931, 42.922101999000063 ], [ -2.894784911999977, 42.924302483000076 ], [ -2.906438994999974, 42.932110654000041 ], [ -2.925462041999936, 42.937049002000037 ], [ -2.933299939999927, 42.929565373000059 ], [ -2.945583673999977, 42.928116791000036 ], [ -2.956155405999937, 42.929824360000055 ], [ -2.975174, 42.93825399900004 ], [ -2.968999353999948, 42.965991315000053 ], [ -2.96081537699996, 42.969450991000031 ], [ -2.955490423999947, 42.985652809000044 ], [ -2.955616025999973, 42.992211080000061 ], [ -2.958229, 42.994410499000026 ] ] ] } },
{ "type": "Feature", "properties": { "code": "01055", "name": "Valdegovía / Gaubea" }, "geometry": { "type": "Polygon", "coordinates": [ [ [ -3.016167499999938, 42.910506999000063 ], [ -3.012884, 42.908248999000079 ], [ -3.014747, 42.902271499000051 ], [ -3.013706499999955, 42.900226499000041 ], [ -3.00874349999998, 42.897643999000024 ], [ -3.006134499999973, 42.894687499000042 ], [ -3.005766499999936, 42.89125049900008 ], [ -2.999986499999977, 42.882945999000071 ], [ -2.992994499999952, 42.879028499000071 ], [ -3.002174649999972, 42.84921246600004 ], [ -3.009225499999957, 42.840991999000039 ], [ -3.014085401999978, 42.840143440000077 ], [ -3.018252875999963, 42.831696803000057 ], [ -3.019331765999937, 42.817281905000073 ], [ -3.01004319499998, 42.811114566000072 ], [ -3.016550282999958, 42.803057060000071 ], [ -3.015405, 42.791534499000079 ], [ -3.020736, 42.789680499000042 ], [ -3.043717914999945, 42.789069434000055 ], [ -3.063575322999952, 42.780240599000081 ], [ -3.057706499999938, 42.762891499000034 ], [ -3.067098870999928, 42.76086329900005 ], [ -3.080805, 42.766775499000062 ], [ -3.092707891999964, 42.77770660300007 ], [ -3.096906397999931, 42.78572678200004 ], [ -3.10908655999998, 42.790469212000062 ], [ -3.123284499999954, 42.789283999000077 ], [ -3.131767190999938, 42.790295742000069 ], [ -3.159259499999962, 42.804546499000026 ], [ -3.149695750999967, 42.812585321000029 ], [ -3.147999603999949, 42.821974304000037 ], [ -3.141043092999951, 42.834792256000071 ], [ -3.131725734999975, 42.838944795000032 ], [ -3.127944499999955, 42.849528999000029 ], [ -3.123316514999942, 42.849641335000058 ], [ -3.114501150999956, 42.85964003600003 ], [ -3.105987786999947, 42.878972335000071 ], [ -3.112398399999961, 42.882137410000041 ], [ -3.116623208999954, 42.889511929000037 ], [ -3.12436718899994, 42.891064167000025 ], [ -3.136631561999934, 42.87785963400006 ], [ -3.138750499999958, 42.871246499000051 ], [ -3.151167126999951, 42.860997111000074 ], [ -3.164151231999938, 42.856881515000055 ], [ -3.173487037999962, 42.85779930700005 ], [ -3.190938464999931, 42.868316785000047 ], [ -3.210219760999962, 42.844173978000072 ], [ -3.220876097999962, 42.838458917000025 ], [ -3.205563499999926, 42.82735449900008 ], [ -3.217000499999926, 42.826469499000041 ], [ -3.225871499999926, 42.830070499000044 ], [ -3.227688, 42.832042999000066 ], [ -3.236791, 42.837886999000034 ], [ -3.253641, 42.852771499000028 ], [ -3.269159, 42.864047999000036 ], [ -3.28264, 42.875465499000029 ], [ -3.286797499999977, 42.88509749900004 ], [ -3.277075621999927, 42.887712749000059 ], [ -3.27585469099995, 42.901788579000026 ], [ -3.249588059999951, 42.912182294000047 ], [ -3.245128572999931, 42.924466653000025 ], [ -3.235785168999939, 42.934102768000059 ], [ -3.234849176999944, 42.943584715000043 ], [ -3.22421640999994, 42.94936053400005 ], [ -3.212684711999941, 42.94498057800007 ], [ -3.180943563999961, 42.944276620000039 ], [ -3.148373591999928, 42.935345187000053 ], [ -3.149614702999941, 42.917955800000072 ], [ -3.142115563999937, 42.91366623600004 ], [ -3.133019356999966, 42.912713604000032 ], [ -3.12604687299995, 42.90467564000005 ], [ -3.109791375999976, 42.906248545000039 ], [ -3.104694, 42.910109999000042 ], [ -3.089547, 42.898948499000028 ], [ -3.070323328999962, 42.903109822000033 ], [ -3.059193649999941, 42.901956172000041 ], [ -3.033163909999928, 42.905820777000031 ], [ -3.016167499999938, 42.910506999000063 ] ] ] } },
{ "type": "Feature", "properties": { "code": "01056", "name": "Harana / Valle de Arana" }, "geometry": { "type": "Polygon", "coordinates": [ [ [ -2.281032499999981, 42.78509499900008 ], [ -2.275333499999931, 42.77894599900003 ], [ -2.275595, 42.776237499000047 ], [ -2.273303, 42.768539499000042 ], [ -2.263410233999934, 42.749845406000077 ], [ -2.273456, 42.741832499000054 ], [ -2.285480685999971, 42.742510601000049 ], [ -2.306326239999976, 42.735782898000025 ], [ -2.316869, 42.739307499000063 ], [ -2.33297969399996, 42.737932332000071 ], [ -2.340344283999968, 42.734242745000074 ], [ -2.344296041999939, 42.729593258000079 ], [ -2.340659899999935, 42.724836295000046 ], [ -2.345309849999978, 42.717137732000026 ], [ -2.368337002999965, 42.738470376000066 ], [ -2.372953872999972, 42.737813908000078 ], [ -2.377821, 42.732001999000033 ], [ -2.373757498999964, 42.740877208000029 ], [ -2.379015916999947, 42.749556235000057 ], [ -2.357805499999927, 42.76577749900008 ], [ -2.336044324999932, 42.770285523000041 ], [ -2.325894724999955, 42.778741886000034 ], [ -2.306613443999936, 42.776141904000042 ], [ -2.307658335999974, 42.782288790000052 ], [ -2.317237266999939, 42.791916012000058 ], [ -2.317534567999928, 42.795894297000075 ], [ -2.306851157999972, 42.796168310000041 ], [ -2.281032499999981, 42.78509499900008 ] ] ] } },
{ "type": "Feature", "properties": { "code": "01057", "name": "Villabuena de Álava / Eskuernaga" }, "geometry": { "type": "Polygon", "coordinates": [ [ [ -2.640678, 42.520667999000068 ], [ -2.646428, 42.520244499000057 ], [ -2.650134499999979, 42.51796949900006 ], [ -2.656500871999981, 42.520847315000026 ], [ -2.665218786999958, 42.532672400000081 ], [ -2.680021770999929, 42.537314627000057 ], [ -2.686106, 42.545000999000081 ], [ -2.665675589999978, 42.556982662000053 ], [ -2.650953499999957, 42.558678499000052 ], [ -2.646545, 42.551055999000027 ], [ -2.645790375999979, 42.54563287600007 ], [ -2.649702028999968, 42.541589918000057 ], [ -2.650801994999938, 42.533622582000078 ], [ -2.640678, 42.520667999000068 ] ] ] } },
{ "type": "Feature", "properties": { "code": "01058", "name": "Legutio" }, "geometry": { "type": "Polygon", "coordinates": [ [ [ -2.686609, 43.021856999000079 ], [ -2.666322365999974, 43.030566473000079 ], [ -2.633624499999939, 43.019909999000049 ], [ -2.628394438999976, 43.011683760000039 ], [ -2.632899136999924, 42.996317115000068 ], [ -2.610539848999963, 42.989190538000059 ], [ -2.59699349999994, 42.976206499000057 ], [ -2.601911237999957, 42.972212447000061 ], [ -2.609658208999974, 42.95451636100006 ], [ -2.61853868299994, 42.956856087000062 ], [ -2.630898739999964, 42.954652348000025 ], [ -2.632229437999968, 42.947000739000032 ], [ -2.621113946999969, 42.945628749000036 ], [ -2.622504257999935, 42.941835623000031 ], [ -2.640028379999933, 42.942399130000069 ], [ -2.649218, 42.935476650000055 ], [ -2.653710057999945, 42.93644271800008 ], [ -2.663331739999933, 42.949962072000062 ], [ -2.67008076299993, 42.950862448000066 ], [ -2.67391572799994, 42.95699249900008 ], [ -2.681466, 42.96137599900004 ], [ -2.679134655999974, 42.966876944000035 ], [ -2.685561683999936, 42.975805354000045 ], [ -2.680429939999954, 42.982881723000048 ], [ -2.67684251999998, 42.996556785000053 ], [ -2.678465225999958, 43.003371426000058 ], [ -2.685154591999947, 43.011507764000044 ], [ -2.686609, 43.021856999000079 ] ] ] } },
{ "type": "Feature", "properties": { "code": "01059", "name": "Vitoria-Gasteiz" }, "geometry": { "type": "Polygon", "coordinates": [ [ [ -2.847578499999941, 42.862895999000045 ], [ -2.847716, 42.866283499000076 ], [ -2.851763499999947, 42.868411999000045 ], [ -2.854853499999933, 42.871288499000059 ], [ -2.85157849999996, 42.87384399900003 ], [ -2.854031, 42.877891499000043 ], [ -2.853413499999931, 42.884669999000039 ], [ -2.849747, 42.892047999000056 ], [ -2.838042499999972, 42.899451499000065 ], [ -2.829395499999976, 42.912669999000059 ], [ -2.808314499999938, 42.911788999000066 ], [ -2.80780249999998, 42.914741499000058 ], [ -2.796233499999971, 42.915660999000067 ], [ -2.793183499999941, 42.919181999000045 ], [ -2.787879, 42.922866499000065 ], [ -2.786032, 42.925662999000053 ], [ -2.767646817999946, 42.916577116000042 ], [ -2.762442097999951, 42.917895635000036 ], [ -2.748177388999977, 42.91486758800005 ], [ -2.733912703999977, 42.907594993000032 ], [ -2.707530820999978, 42.904613803000075 ], [ -2.698840962999952, 42.909345736000034 ], [ -2.685961751999969, 42.910510248000037 ], [ -2.677982, 42.91696599900007 ], [ -2.676200367999968, 42.922147507000034 ], [ -2.667045069999972, 42.92960314100003 ], [ -2.657471004999934, 42.931393245000038 ], [ -2.649839950999933, 42.924628735000056 ], [ -2.635744275999969, 42.923189595000053 ], [ -2.629003463999936, 42.933966077000036 ], [ -2.625086720999946, 42.935332122000034 ], [ -2.623366232999956, 42.925925717000041 ], [ -2.619172234999951, 42.92029347600004 ], [ -2.625090399999976, 42.911641906000057 ], [ -2.63482019099996, 42.907110493000062 ], [ -2.637580932999924, 42.897612438000067 ], [ -2.644855949999965, 42.893029894000051 ], [ -2.643606653999939, 42.87777665200008 ], [ -2.635629589999951, 42.861754659000042 ], [ -2.618796572999941, 42.860573811000052 ], [ -2.60940157899995, 42.863754937000067 ], [ -2.603089584999964, 42.880454731000043 ], [ -2.608185379999952, 42.886667584000065 ], [ -2.60959962499993, 42.897519066000029 ], [ -2.601014293999981, 42.908551002000081 ], [ -2.594431979999968, 42.912304864000077 ], [ -2.580125, 42.907953999000028 ], [ -2.578965499999924, 42.905231499000081 ], [ -2.579838499999937, 42.901126999000041 ], [ -2.561786, 42.895367499000031 ], [ -2.561257442999931, 42.889632083000038 ], [ -2.57804, 42.873762499000065 ], [ -2.583359827999971, 42.874120683000058 ], [ -2.583237322999935, 42.869242142000076 ], [ -2.581020161999959, 42.867207777000033 ], [ -2.57675, 42.869065999000043 ], [ -2.565973, 42.864436999000077 ], [ -2.558280499999967, 42.868442499000025 ], [ -2.549509, 42.862464999000053 ], [ -2.543907, 42.856830499000068 ], [ -2.545852499999967, 42.852092999000035 ], [ -2.552110499999969, 42.851676999000063 ], [ -2.559435, 42.84576049900005 ], [ -2.561221499999931, 42.842506499000081 ], [ -2.561105, 42.839698999000063 ], [ -2.558773, 42.833835499000031 ], [ -2.565501444999938, 42.817935242000033 ], [ -2.570853700999976, 42.817277908000051 ], [ -2.573558463999973, 42.803684617000044 ], [ -2.564031, 42.783816499000068 ], [ -2.583104608999975, 42.784255796000025 ], [ -2.595861917999969, 42.778215258000046 ], [ -2.602246, 42.770712499000069 ], [ -2.624592917999962, 42.76981429500006 ], [ -2.633330119999926, 42.765537788000074 ], [ -2.643570402999956, 42.765378020000071 ], [ -2.651399345999948, 42.767397939000034 ], [ -2.656001654999955, 42.772161100000062 ], [ -2.670338838999953, 42.773053436000055 ], [ -2.679514941999969, 42.778947103000064 ], [ -2.692307036999978, 42.77901759000008 ], [ -2.700201001999972, 42.783676068000034 ], [ -2.711316772999965, 42.784272336000072 ], [ -2.732288584999935, 42.793851859000029 ], [ -2.779273499999931, 42.792930499000079 ], [ -2.779968285999928, 42.799575282000035 ], [ -2.789615685999934, 42.807965736000028 ], [ -2.789932629999953, 42.811472633000051 ], [ -2.785237810999945, 42.81927053000004 ], [ -2.763114904999952, 42.818904320000058 ], [ -2.766460896999945, 42.829757169000061 ], [ -2.765919533999977, 42.848011464000081 ], [ -2.788391739999952, 42.85676746200005 ], [ -2.814420023999958, 42.857250029000056 ], [ -2.835092920999955, 42.864999097000066 ], [ -2.847578499999941, 42.862895999000045 ] ] ] } },
{ "type": "Feature", "properties": { "code": "01060", "name": "Yécora / Iekora" }, "geometry": { "type": "Polygon", "coordinates": [ [ [ -2.453259499999945, 42.56707749900005 ], [ -2.453027104999933, 42.55488390000005 ], [ -2.443625020999946, 42.542292301000032 ], [ -2.442612981999957, 42.53601976200008 ], [ -2.475433454999973, 42.520850866000046 ], [ -2.483636499999932, 42.519553999000038 ], [ -2.480440858999941, 42.530609471000048 ], [ -2.48541340099996, 42.549425656000039 ], [ -2.481796980999945, 42.561600730000066 ], [ -2.490649, 42.585323499000026 ], [ -2.48247674199996, 42.589086332000079 ], [ -2.463629431999948, 42.58741578300004 ], [ -2.453259499999945, 42.56707749900005 ] ] ] } },
{ "type": "Feature", "properties": { "code": "01061", "name": "Zalduondo" }, "geometry": { "type": "Polygon", "coordinates": [ [ [ -2.337464, 42.871446499000058 ], [ -2.357830838999973, 42.873651344000052 ], [ -2.360405697999965, 42.878693894000037 ], [ -2.368564306999929, 42.883782633000067 ], [ -2.35725464199993, 42.894329017000075 ], [ -2.351666973999954, 42.906780289000039 ], [ -2.349876092999978, 42.919587738000075 ], [ -2.340670354999929, 42.930393502000072 ], [ -2.339167, 42.936116499000036 ], [ -2.332683, 42.933547999000041 ], [ -2.322988499999951, 42.931559499000059 ], [ -2.324977179999962, 42.921429180000075 ], [ -2.33535394699993, 42.912334220000048 ], [ -2.342097994999961, 42.892324063000046 ], [ -2.329197693999959, 42.886519311000029 ], [ -2.337464, 42.871446499000058 ] ] ] } },
{ "type": "Feature", "properties": { "code": "01062", "name": "Zambrana" }, "geometry": { "type": "Polygon", "coordinates": [ [ [ -2.859007499999962, 42.638665499000069 ], [ -2.870732774999965, 42.639632065000058 ], [ -2.895381206999957, 42.653981070000043 ], [ -2.899332297999933, 42.666356533000055 ], [ -2.896618499999931, 42.676803499000073 ], [ -2.893255, 42.674813499000038 ], [ -2.879994499999952, 42.672254999000074 ], [ -2.874173499999927, 42.672095999000078 ], [ -2.869879499999968, 42.670225499000026 ], [ -2.860363, 42.670311999000035 ], [ -2.857025499999963, 42.671143499000038 ], [ -2.852594, 42.673644999000032 ], [ -2.852032, 42.678391499000043 ], [ -2.844728, 42.68076699900007 ], [ -2.839637, 42.685695999000075 ], [ -2.837415, 42.685845999000037 ], [ -2.82805837199993, 42.680196627000043 ], [ -2.808105676999958, 42.675406452000061 ], [ -2.790509913999927, 42.663774311000054 ], [ -2.7679, 42.666010999000036 ], [ -2.753307499999949, 42.665313999000034 ], [ -2.748937, 42.665904999000077 ], [ -2.737709, 42.663078999000049 ], [ -2.757919501999936, 42.649594418000049 ], [ -2.758685249999928, 42.639478933000078 ], [ -2.78081141499996, 42.639088781000055 ], [ -2.791058479999947, 42.636534569000048 ], [ -2.794796499999961, 42.632545499000059 ], [ -2.803351726999949, 42.63185020800006 ], [ -2.805244486999925, 42.639422117000038 ], [ -2.815556269999945, 42.63993563300005 ], [ -2.823842793999972, 42.644290875000081 ], [ -2.859007499999962, 42.638665499000069 ] ], [ [ -2.871229703999973, 42.645999819000053 ], [ -2.868082450999964, 42.643410187000029 ], [ -2.850587705999942, 42.651771253000049 ], [ -2.84727350999998, 42.663607913000078 ], [ -2.856853039999976, 42.664927133000049 ], [ -2.864784060999966, 42.66180754100003 ], [ -2.869687188999933, 42.654936717000055 ], [ -2.871229703999973, 42.645999819000053 ] ] ] } },
{ "type": "Feature", "properties": { "code": "01063", "name": "Zuia" }, "geometry": { "type": "Polygon", "coordinates": [ [ [ -2.868160499999931, 42.922101999000063 ], [ -2.871974215999956, 42.93530953700008 ], [ -2.87799038299994, 42.941935971000078 ], [ -2.875144104999947, 42.966492620000054 ], [ -2.883481589999974, 42.975121631000036 ], [ -2.883657565999954, 42.989104117000068 ], [ -2.901039271999934, 43.005560648000028 ], [ -2.903857502999927, 43.012564045000033 ], [ -2.914848, 43.020572499000025 ], [ -2.912972770999943, 43.03241100200006 ], [ -2.896819295999933, 43.036322919000042 ], [ -2.88764634599994, 43.043630513000039 ], [ -2.89018249999998, 43.045716499000036 ], [ -2.880949943999951, 43.050736875000041 ], [ -2.864313375999927, 43.051416153000048 ], [ -2.835092920999955, 43.041250639000054 ], [ -2.821712499999933, 43.035596999000063 ], [ -2.811417499999948, 43.03598499900005 ], [ -2.800424, 43.034197499000072 ], [ -2.781209499999932, 43.033946999000079 ], [ -2.77475, 43.031097499000055 ], [ -2.773800499999936, 43.028956999000059 ], [ -2.780538557999932, 42.982592874000034 ], [ -2.772488667999937, 42.96036450500003 ], [ -2.787491614999965, 42.948201098000027 ], [ -2.788283146999959, 42.938171269000065 ], [ -2.784305372999938, 42.930239826000047 ], [ -2.787879, 42.922866499000065 ], [ -2.793183499999941, 42.919181999000045 ], [ -2.796233499999971, 42.915660999000067 ], [ -2.80780249999998, 42.914741499000058 ], [ -2.808314499999938, 42.911788999000066 ], [ -2.839110499999947, 42.912925499000039 ], [ -2.852139, 42.915473999000028 ], [ -2.854712, 42.915550499000062 ], [ -2.85640849999993, 42.914012999000079 ], [ -2.868160499999931, 42.922101999000063 ] ] ] } },
{ "type": "Feature", "properties": { "code": "01901", "name": "Iruña Oka / Iruña de Oca" }, "geometry": { "type": "Polygon", "coordinates": [ [ [ -2.847578499999941, 42.862895999000045 ], [ -2.835092920999955, 42.864999097000066 ], [ -2.814420023999958, 42.857250029000056 ], [ -2.788391739999952, 42.85676746200005 ], [ -2.765919533999977, 42.848011464000081 ], [ -2.766460896999945, 42.829757169000061 ], [ -2.763114904999952, 42.818904320000058 ], [ -2.785237810999945, 42.81927053000004 ], [ -2.789932629999953, 42.811472633000051 ], [ -2.789615685999934, 42.807965736000028 ], [ -2.779968285999928, 42.799575282000035 ], [ -2.779273499999931, 42.792930499000079 ], [ -2.809765592999952, 42.791414670000052 ], [ -2.82569577299995, 42.786006016000044 ], [ -2.835499499999969, 42.796226499000056 ], [ -2.873791579999931, 42.808946709000054 ], [ -2.877023325999971, 42.823403777000067 ], [ -2.868000499999937, 42.843585999000027 ], [ -2.854256, 42.844299499000044 ], [ -2.850691, 42.846332499000027 ], [ -2.839463499999965, 42.848205499000073 ], [ -2.836111, 42.851371499000038 ], [ -2.846578499999964, 42.856258499000035 ], [ -2.849614499999973, 42.860694999000032 ], [ -2.847578499999941, 42.862895999000045 ] ] ] } },
{ "type": "Feature", "properties": { "code": "01902", "name": "Lantarón" }, "geometry": { "type": "MultiPolygon", "coordinates": [ [ [ [ -3.040763499999969, 42.73849399900007 ], [ -3.049034323999933, 42.751143720000073 ], [ -3.047967537999966, 42.764039604000061 ], [ -3.057706499999938, 42.762891499000034 ], [ -3.063575322999952, 42.780240599000081 ], [ -3.043717914999945, 42.789069434000055 ], [ -3.020736, 42.789680499000042 ], [ -3.01694568399995, 42.769756005000033 ], [ -3.011661122999953, 42.765169230000026 ], [ -2.997387992999961, 42.77381616200006 ], [ -2.995839248999971, 42.779736553000077 ], [ -2.989008499999954, 42.781890999000041 ], [ -2.985474, 42.785232499000074 ], [ -2.978585375999955, 42.774813006000045 ], [ -2.972822712999971, 42.772234457000025 ], [ -2.962393830999929, 42.773172900000077 ], [ -2.952121473999966, 42.782451304000062 ], [ -2.943261199999938, 42.780283893000046 ], [ -2.943815184999949, 42.770796229000041 ], [ -2.931729179999934, 42.749179196000057 ], [ -2.950261182999952, 42.741267993000065 ], [ -2.952446075999944, 42.729766106000056 ], [ -2.947144, 42.716045499000074 ], [ -2.947011, 42.70965299900007 ], [ -2.973202350999941, 42.708186933000036 ], [ -2.980984409999962, 42.704444980000062 ], [ -2.986501816999976, 42.709138587000041 ], [ -2.990043020999963, 42.719174987000031 ], [ -3.007760618999953, 42.724196708000079 ], [ -3.009779623999975, 42.727677485000072 ], [ -3.006332689999965, 42.73198612300007 ], [ -3.014864803999956, 42.733498539000038 ], [ -3.017371594999929, 42.740384987000027 ], [ -3.033193281999957, 42.73718742300008 ], [ -3.040763499999969, 42.73849399900007 ] ] ], [ [ [ -3.123284499999954, 42.789283999000077 ], [ -3.10908655999998, 42.790469212000062 ], [ -3.096906397999931, 42.78572678200004 ], [ -3.092707891999964, 42.77770660300007 ], [ -3.080805, 42.766775499000062 ], [ -3.08426663399996, 42.758505095000032 ], [ -3.099270993999937, 42.766801204000046 ], [ -3.115785107999955, 42.759759622000047 ], [ -3.131296499999962, 42.757645499000034 ], [ -3.14286231899996, 42.760005181000054 ], [ -3.123284499999954, 42.789283999000077 ] ] ] ] } },
{ "type": "Feature", "properties": { "code": "01001", "name": "Alegría-Dulantzi" }, "geometry": { "type": "MultiPolygon", "coordinates": [ [ [ [ -2.471190499999977, 42.847762999000054 ], [ -2.476664, 42.840179499000044 ], [ -2.483758526999964, 42.83668926100006 ], [ -2.481648, 42.829573999000047 ], [ -2.484732, 42.826438999000061 ], [ -2.50067299799997, 42.829989946000069 ], [ -2.506339968999953, 42.820513309000034 ], [ -2.50685397899997, 42.809888873000034 ], [ -2.497674383999936, 42.802917071000024 ], [ -2.497176499999966, 42.79316699900005 ], [ -2.502457, 42.790122999000062 ], [ -2.50772, 42.791278999000042 ], [ -2.512659090999932, 42.823605862000079 ], [ -2.518454941999948, 42.830901588000074 ], [ -2.526354499999968, 42.831428499000026 ], [ -2.527098136999939, 42.850768862000052 ], [ -2.522746040999948, 42.852922793000062 ], [ -2.518625, 42.860789999000076 ], [ -2.506666976999952, 42.860842461000061 ], [ -2.493733, 42.857085999000049 ], [ -2.471190499999977, 42.847762999000054 ] ] ], [ [ [ -2.545838, 42.785510999000053 ], [ -2.548318499999937, 42.79067599900003 ], [ -2.549324499999955, 42.800315999000077 ], [ -2.547576499999934, 42.803596499000037 ], [ -2.543588, 42.805545499000061 ], [ -2.544225499999925, 42.811904499000036 ], [ -2.540016, 42.815437499000041 ], [ -2.53899, 42.821853499000042 ], [ -2.5349, 42.822483499000043 ], [ -2.529049559999976, 42.814046936000068 ], [ -2.53273487499996, 42.805836361000047 ], [ -2.533542, 42.788299499000061 ], [ -2.545838, 42.785510999000053 ] ] ] ] } },
{ "type": "Feature", "properties": { "code": "01002", "name": "Amurrio" }, "geometry": { "type": "MultiPolygon", "coordinates": [ [ [ [ -2.89018249999998, 43.045716499000036 ], [ -2.88764634599994, 43.043630513000039 ], [ -2.896819295999933, 43.036322919000042 ], [ -2.912972770999943, 43.03241100200006 ], [ -2.914848, 43.020572499000025 ], [ -2.918103947999953, 43.016414888000043 ], [ -2.93284754299998, 43.014579447000074 ], [ -2.943094421999945, 43.004387362000045 ], [ -2.955577, 42.998898999000062 ], [ -2.965120382999942, 43.000632422000081 ], [ -2.984760452999978, 42.992632579000031 ], [ -2.990720502999977, 43.000254776000077 ], [ -2.985134578999975, 43.007620860000031 ], [ -2.986802742999942, 43.011507666000057 ], [ -3.031079899999952, 43.019680951000055 ], [ -3.031846343999973, 43.023003239000047 ], [ -3.013859292999939, 43.041947374000074 ], [ -3.017065637999963, 43.054815379000047 ], [ -3.001535356999966, 43.068434556000057 ], [ -3.002076412999941, 43.08143410200006 ], [ -2.988604471999963, 43.090137021000032 ], [ -2.972690499999942, 43.095059499000058 ], [ -2.958623135999972, 43.090332054000044 ], [ -2.930812992999961, 43.072364890000074 ], [ -2.91768854999998, 43.05959914400006 ], [ -2.89018249999998, 43.045716499000036 ] ] ], [ [ [ -2.958229, 42.994410499000026 ], [ -2.955616025999973, 42.992211080000061 ], [ -2.955490423999947, 42.985652809000044 ], [ -2.96081537699996, 42.969450991000031 ], [ -2.968999353999948, 42.965991315000053 ], [ -2.975174, 42.93825399900004 ], [ -2.981419, 42.939876999000035 ], [ -2.995887609999954, 42.952191324000069 ], [ -3.01161161999994, 42.95264247700004 ], [ -3.020920499999932, 42.956569999000067 ], [ -3.021598770999958, 42.960419076000051 ], [ -3.042738719999932, 42.970918945000051 ], [ -3.037528, 42.982438999000067 ], [ -3.007851477999964, 42.981970649000061 ], [ -3.000590747999979, 42.989045808000071 ], [ -2.974705386999972, 42.989206527000078 ], [ -2.958229, 42.994410499000026 ] ] ] ] } },
{ "type": "Feature", "properties": { "code": "01003", "name": "Aramaio" }, "geometry": { "type": "Polygon", "coordinates": [ [ [ -2.661133, 43.065760499000078 ], [ -2.658573679999961, 43.075043257000061 ], [ -2.633556723999959, 43.086336264000067 ], [ -2.589489538999942, 43.081291659000044 ], [ -2.546387, 43.088008999000067 ], [ -2.544874, 43.086999999000057 ], [ -2.547194, 43.084492499000078 ], [ -2.540782, 43.076221499000042 ], [ -2.546015, 43.076040499000044 ], [ -2.548071, 43.074493999000026 ], [ -2.542387, 43.070134999000061 ], [ -2.542573, 43.06661249900003 ], [ -2.540786, 43.062736499000039 ], [ -2.534064, 43.05940799900003 ], [ -2.529967499999941, 43.054977499000074 ], [ -2.524742, 43.045266499000036 ], [ -2.531092591999936, 43.043350081000028 ], [ -2.540402880999977, 43.033017521000033 ], [ -2.541424943999971, 43.025432418000037 ], [ -2.547584806999964, 43.021151867000071 ], [ -2.563793601999976, 43.017948789000059 ], [ -2.580362322999974, 43.008712498000079 ], [ -2.596567124999979, 43.00747896300004 ], [ -2.599988063999945, 42.998701881000045 ], [ -2.593162, 42.986900999000056 ], [ -2.602719, 42.982248499000036 ], [ -2.610539848999963, 42.989190538000059 ], [ -2.632899136999924, 42.996317115000068 ], [ -2.628394438999976, 43.011683760000039 ], [ -2.633624499999939, 43.019909999000049 ], [ -2.631215444999953, 43.027959383000052 ], [ -2.634426143999974, 43.044459294000035 ], [ -2.661133, 43.065760499000078 ] ] ] } },
{ "type": "Feature", "properties": { "code": "01004", "name": "Artziniega" }, "geometry": { "type": "Polygon", "coordinates": [ [ [ -3.168775081999968, 43.109757374000026 ], [ -3.171083406999969, 43.110491398000079 ], [ -3.181195965999962, 43.119429970000056 ], [ -3.162944311999979, 43.141738849000035 ], [ -3.165847562999943, 43.147536661000061 ], [ -3.16232654099997, 43.153271162000067 ], [ -3.150023664999935, 43.160339662000069 ], [ -3.137968006999927, 43.161743083000033 ], [ -3.133766856999955, 43.156788844000062 ], [ -3.124254033999932, 43.154051591000041 ], [ -3.116483285999948, 43.146068969000055 ], [ -3.108864, 43.14326599900005 ], [ -3.106699634999927, 43.141083695000077 ], [ -3.109693294999943, 43.134091607000073 ], [ -3.108736259999944, 43.124347037000064 ], [ -3.116078681999966, 43.107349638000073 ], [ -3.133973499999968, 43.097179499000049 ], [ -3.141463234999947, 43.109603934000063 ], [ -3.153746013999978, 43.104978286000062 ], [ -3.168775081999968, 43.109757374000026 ] ] ] } },
{ "type": "Feature", "properties": { "code": "01006", "name": "Armiñón" }, "geometry": { "type": "MultiPolygon", "coordinates": [ [ [ [ -2.881030499999952, 42.698075999000025 ], [ -2.875173711999935, 42.707117295000046 ], [ -2.890892787999974, 42.709666034000065 ], [ -2.892166017999955, 42.722682663000057 ], [ -2.888227990999951, 42.729859536000049 ], [ -2.875307168999939, 42.728436305000059 ], [ -2.873439738999934, 42.736173046000033 ], [ -2.868859499999928, 42.740134999000077 ], [ -2.854755204999947, 42.736095602000034 ], [ -2.849172005999947, 42.731669150000073 ], [ -2.853897225999958, 42.728647028000069 ], [ -2.852985152999963, 42.726639083000066 ], [ -2.838410499999952, 42.721450999000069 ], [ -2.854164393999952, 42.715200481000068 ], [ -2.866454912999927, 42.701197267000055 ], [ -2.881030499999952, 42.698075999000025 ] ] ], [ [ [ -2.895054499999958, 42.679312499000048 ], [ -2.902444362999972, 42.684520195000061 ], [ -2.905417499999942, 42.693992499000046 ], [ -2.901915402999975, 42.696915372000035 ], [ -2.883415499999956, 42.692863499000055 ], [ -2.886110780999957, 42.683354936000057 ], [ -2.895054499999958, 42.679312499000048 ] ] ] ] } },
{ "type": "Feature", "properties": { "code": "01008", "name": "Arratzua-Ubarrundia" }, "geometry": { "type": "MultiPolygon", "coordinates": [ [ [ [ -2.677982, 42.91696599900007 ], [ -2.688427173999969, 42.931879486000071 ], [ -2.686108507999961, 42.94041668400007 ], [ -2.692246465999972, 42.944020370000032 ], [ -2.687025951999942, 42.952562094000029 ], [ -2.682254877999981, 42.95515879900006 ], [ -2.681466, 42.96137599900004 ], [ -2.67391572799994, 42.95699249900008 ], [ -2.67008076299993, 42.950862448000066 ], [ -2.663331739999933, 42.949962072000062 ], [ -2.653710057999945, 42.93644271800008 ], [ -2.649218, 42.935476650000055 ], [ -2.640028379999933, 42.942399130000069 ], [ -2.622504257999935, 42.941835623000031 ], [ -2.621113946999969, 42.945628749000036 ], [ -2.632229437999968, 42.947000739000032 ], [ -2.630898739999964, 42.954652348000025 ], [ -2.61853868299994, 42.956856087000062 ], [ -2.609658208999974, 42.95451636100006 ], [ -2.601911237999957, 42.972212447000061 ], [ -2.59699349999994, 42.976206499000057 ], [ -2.579334554999946, 42.963892893000036 ], [ -2.551095, 42.958874999000045 ], [ -2.561175749999961, 42.946751413000072 ], [ -2.562268019999976, 42.918358013000045 ], [ -2.569458672999929, 42.91511259300006 ], [ -2.572917206999932, 42.908452931000056 ], [ -2.580125, 42.907953999000028 ], [ -2.594431979999968, 42.912304864000077 ], [ -2.601014293999981, 42.908551002000081 ], [ -2.60959962499993, 42.897519066000029 ], [ -2.608185379999952, 42.886667584000065 ], [ -2.603089584999964, 42.880454731000043 ], [ -2.60940157899995, 42.863754937000067 ], [ -2.618796572999941, 42.860573811000052 ], [ -2.635629589999951, 42.861754659000042 ], [ -2.643606653999939, 42.87777665200008 ], [ -2.644855949999965, 42.893029894000051 ], [ -2.637580932999924, 42.897612438000067 ], [ -2.63482019099996, 42.907110493000062 ], [ -2.625090399999976, 42.911641906000057 ], [ -2.619172234999951, 42.92029347600004 ], [ -2.623366232999956, 42.925925717000041 ], [ -2.625086720999946, 42.935332122000034 ], [ -2.629003463999936, 42.933966077000036 ], [ -2.635744275999969, 42.923189595000053 ], [ -2.649839950999933, 42.924628735000056 ], [ -2.657471004999934, 42.931393245000038 ], [ -2.667045069999972, 42.92960314100003 ], [ -2.676200367999968, 42.922147507000034 ], [ -2.677982, 42.91696599900007 ] ] ], [ [ [ -2.57804, 42.873762499000065 ], [ -2.57675, 42.869065999000043 ], [ -2.581020161999959, 42.867207777000033 ], [ -2.583237322999935, 42.869242142000076 ], [ -2.583359827999971, 42.874120683000058 ], [ -2.57804, 42.873762499000065 ] ] ] ] } },
{ "type": "Feature", "properties": { "code": "01009", "name": "Asparrena" }, "geometry": { "type": "MultiPolygon", "coordinates": [ [ [ [ -2.337464, 42.871446499000058 ], [ -2.329197693999959, 42.886519311000029 ], [ -2.342097994999961, 42.892324063000046 ], [ -2.33535394699993, 42.912334220000048 ], [ -2.324977179999962, 42.921429180000075 ], [ -2.322988499999951, 42.931559499000059 ], [ -2.30188911099998, 42.924509676000071 ], [ -2.289845748999937, 42.902448406000076 ], [ -2.250714, 42.895472999000049 ], [ -2.251674024999943, 42.892211454000062 ], [ -2.241669757999944, 42.885023464000028 ], [ -2.24023752599993, 42.864670063000062 ], [ -2.235963499999968, 42.850925499000027 ], [ -2.257784, 42.846980999000039 ], [ -2.261604, 42.844810499000062 ], [ -2.26515749999993, 42.84438349900006 ], [ -2.268549, 42.841136999000071 ], [ -2.281091499999945, 42.847312999000053 ], [ -2.293148499999973, 42.849502499000039 ], [ -2.297932499999945, 42.849578999000073 ], [ -2.300007896999944, 42.860663700000032 ], [ -2.305720117999954, 42.869354163000025 ], [ -2.316252170999974, 42.872781751000048 ], [ -2.325440008999976, 42.867009037000059 ], [ -2.337464, 42.871446499000058 ] ] ], [ [ [ -2.405258, 42.894042999000078 ], [ -2.406132499999956, 42.894794499000056 ], [ -2.40012089399994, 42.900658278000037 ], [ -2.404773336999938, 42.915596750000077 ], [ -2.402030412999977, 42.928274354000052 ], [ -2.384836, 42.951003999000079 ], [ -2.363452409999979, 42.947317799000075 ], [ -2.354871499999945, 42.949671999000032 ], [ -2.351062499999955, 42.942511499000034 ], [ -2.363157050999973, 42.925504987000068 ], [ -2.376892486999964, 42.890708047000032 ], [ -2.386655840999936, 42.890026447000025 ], [ -2.405258, 42.894042999000078 ] ] ] ] } },
{ "type": "Feature", "properties": { "code": "01010", "name": "Ayala / Aiara" }, "geometry": { "type": "Polygon", "coordinates": [ [ [ -3.177834, 43.021934499000054 ], [ -3.168775081999968, 43.02853310100005 ], [ -3.143474047999973, 43.028639215000055 ], [ -3.146613142999968, 43.03481449800006 ], [ -3.141148968999971, 43.06676784900003 ], [ -3.15711257199996, 43.074064447000069 ], [ -3.133973499999968, 43.097179499000049 ], [ -3.116078681999966, 43.107349638000073 ], [ -3.108736259999944, 43.124347037000064 ], [ -3.109693294999943, 43.134091607000073 ], [ -3.106699634999927, 43.141083695000077 ], [ -3.108864, 43.14326599900005 ], [ -3.092984641999976, 43.150697776000072 ], [ -3.069057078999947, 43.144597110000063 ], [ -3.069169391999935, 43.139159016000065 ], [ -3.066300488999957, 43.137150610000049 ], [ -3.049495093999951, 43.134492125000065 ], [ -3.034294586999977, 43.136590449000039 ], [ -3.023802499999931, 43.133814999000037 ], [ -3.015970696999943, 43.119103341000027 ], [ -2.97512, 43.099038999000072 ], [ -2.972690499999942, 43.095059499000058 ], [ -2.988604471999963, 43.090137021000032 ], [ -3.002076412999941, 43.08143410200006 ], [ -3.001535356999966, 43.068434556000057 ], [ -3.017065637999963, 43.054815379000047 ], [ -3.013859292999939, 43.041947374000074 ], [ -3.018344499999955, 43.03735049900007 ], [ -3.027955473999953, 43.036963333000074 ], [ -3.029846106999969, 43.045646305000048 ], [ -3.051333058999944, 43.045342514000026 ], [ -3.062570544999971, 43.034949553000047 ], [ -3.065281010999968, 43.023609229000044 ], [ -3.089279939999926, 43.009873865000031 ], [ -3.089153499999952, 43.00150349900008 ], [ -3.106143499999973, 43.005351999000027 ], [ -3.119542499999966, 43.00567249900007 ], [ -3.124418, 43.007713499000033 ], [ -3.135939, 43.007960999000034 ], [ -3.144821, 43.006786499000043 ], [ -3.160638499999948, 43.013068499000042 ], [ -3.168775081999968, 43.014857370000072 ], [ -3.171740536999948, 43.018278165000027 ], [ -3.177834, 43.021934499000054 ] ] ] } },
{ "type": "Feature", "properties": { "code": "01011", "name": "Baños de Ebro / Mañueta" }, "geometry": { "type": "Polygon", "coordinates": [ [ [ -2.650134499999979, 42.51796949900006 ], [ -2.646715, 42.512519999000062 ], [ -2.65117, 42.50872399900004 ], [ -2.652078, 42.506915999000057 ], [ -2.652934, 42.504016999000044 ], [ -2.651731499999926, 42.501483999000072 ], [ -2.653815499999951, 42.495808499000077 ], [ -2.656864190999954, 42.50335924400008 ], [ -2.668349499999977, 42.509896499000035 ], [ -2.677636046999964, 42.510599281000054 ], [ -2.678975568999931, 42.524919324000052 ], [ -2.699732499999925, 42.516929499000071 ], [ -2.705514499999936, 42.51673899900004 ], [ -2.691447499999924, 42.542735999000058 ], [ -2.686106, 42.545000999000081 ], [ -2.680021770999929, 42.537314627000057 ], [ -2.665218786999958, 42.532672400000081 ], [ -2.656500871999981, 42.520847315000026 ], [ -2.650134499999979, 42.51796949900006 ] ] ] } },
{ "type": "Feature", "properties": { "code": "01013", "name": "Barrundia" }, "geometry": { "type": "Polygon", "coordinates": [ [ [ -2.493733, 42.857085999000049 ], [ -2.506666976999952, 42.860842461000061 ], [ -2.518625, 42.860789999000076 ], [ -2.51190533099998, 42.87077066900008 ], [ -2.513771075999955, 42.880271142000026 ], [ -2.54086304599997, 42.875374714000031 ], [ -2.554194511999981, 42.87861515000003 ], [ -2.565247, 42.885810999000057 ], [ -2.561257442999931, 42.889632083000038 ], [ -2.561786, 42.895367499000031 ], [ -2.559244795999973, 42.89789743800003 ], [ -2.542318118999958, 42.895036889000039 ], [ -2.534495102999927, 42.895066280000037 ], [ -2.532952858999977, 42.897333687000071 ], [ -2.543936302999953, 42.908368534000033 ], [ -2.555018021999956, 42.913215781000076 ], [ -2.549300765999931, 42.925346236000053 ], [ -2.554750597999941, 42.928478412000061 ], [ -2.55492770099994, 42.939716737000026 ], [ -2.548246, 42.953473999000039 ], [ -2.544890499999951, 42.950475999000048 ], [ -2.542128, 42.950132499000063 ], [ -2.539639, 42.953686499000071 ], [ -2.538035499999978, 42.95745449900005 ], [ -2.538962499999968, 42.962899999000058 ], [ -2.540326499999935, 42.965208499000028 ], [ -2.538069499999949, 42.968801499000051 ], [ -2.535630499999968, 42.970150999000055 ], [ -2.534695, 42.973282999000048 ], [ -2.503385572999946, 42.959977688000038 ], [ -2.479391, 42.965871499000059 ], [ -2.452185004999933, 42.956711532000043 ], [ -2.444529499999931, 42.958019999000044 ], [ -2.452351550999936, 42.936973848000036 ], [ -2.45101079799997, 42.913826252000035 ], [ -2.455065928999943, 42.904363190000026 ], [ -2.436083665999945, 42.905955952000056 ], [ -2.423617499999978, 42.892856499000061 ], [ -2.421871, 42.889625499000033 ], [ -2.420909, 42.886234499000068 ], [ -2.418932499999926, 42.867049999000074 ], [ -2.426948202999938, 42.863944015000072 ], [ -2.427755499999932, 42.85720849900008 ], [ -2.440378, 42.860854999000026 ], [ -2.447415, 42.861079999000026 ], [ -2.454801, 42.863372999000035 ], [ -2.468702, 42.865600499000038 ], [ -2.47824849999995, 42.870128499000032 ], [ -2.48527, 42.863460499000041 ], [ -2.493733, 42.857085999000049 ] ] ] } },
{ "type": "Feature", "properties": { "code": "01014", "name": "Berantevilla" }, "geometry": { "type": "MultiPolygon", "coordinates": [ [ [ [ -2.883415499999956, 42.692863499000055 ], [ -2.881030499999952, 42.698075999000025 ], [ -2.866454912999927, 42.701197267000055 ], [ -2.854164393999952, 42.715200481000068 ], [ -2.838410499999952, 42.721450999000069 ], [ -2.829715508999925, 42.71860177700006 ], [ -2.824329420999959, 42.70903312400003 ], [ -2.812163151999926, 42.70668521500005 ], [ -2.796701472999928, 42.698494296000035 ], [ -2.784299593999947, 42.697850606000031 ], [ -2.771272860999943, 42.676989497000079 ], [ -2.772832708999942, 42.670411512000044 ], [ -2.7679, 42.666010999000036 ], [ -2.790509913999927, 42.663774311000054 ], [ -2.808105676999958, 42.675406452000061 ], [ -2.82805837199993, 42.680196627000043 ], [ -2.837415, 42.685845999000037 ], [ -2.839637, 42.685695999000075 ], [ -2.844728, 42.68076699900007 ], [ -2.852032, 42.678391499000043 ], [ -2.852594, 42.673644999000032 ], [ -2.857025499999963, 42.671143499000038 ], [ -2.860363, 42.670311999000035 ], [ -2.869879499999968, 42.670225499000026 ], [ -2.874173499999927, 42.672095999000078 ], [ -2.879994499999952, 42.672254999000074 ], [ -2.893255, 42.674813499000038 ], [ -2.896618499999931, 42.676803499000073 ], [ -2.895054499999958, 42.679312499000048 ], [ -2.886110780999957, 42.683354936000057 ], [ -2.883415499999956, 42.692863499000055 ] ] ], [ [ [ -2.871229703999973, 42.645999819000053 ], [ -2.869687188999933, 42.654936717000055 ], [ -2.864784060999966, 42.66180754100003 ], [ -2.856853039999976, 42.664927133000049 ], [ -2.84727350999998, 42.663607913000078 ], [ -2.850587705999942, 42.651771253000049 ], [ -2.868082450999964, 42.643410187000029 ], [ -2.871229703999973, 42.645999819000053 ] ] ] ] } },
{ "type": "Feature", "properties": { "code": "01016", "name": "Bernedo" }, "geometry": { "type": "Polygon", "coordinates": [ [ [ -2.430008499999929, 42.654216999000027 ], [ -2.433319, 42.65388099900008 ], [ -2.450092499999926, 42.647220499000071 ], [ -2.455016, 42.639560999000025 ], [ -2.454606, 42.63483099900003 ], [ -2.464536, 42.62728499900004 ], [ -2.471075499999927, 42.62722799900007 ], [ -2.47810949999996, 42.618793499000049 ], [ -2.478999499999929, 42.615905999000063 ], [ -2.48309, 42.612125499000058 ], [ -2.490739499999961, 42.614509499000064 ], [ -2.503316, 42.616790999000045 ], [ -2.524421, 42.615421499000036 ], [ -2.553030499999977, 42.608260999000038 ], [ -2.553782499999954, 42.627498499000069 ], [ -2.549632, 42.629680499000074 ], [ -2.551493, 42.633910999000079 ], [ -2.548319499999934, 42.635600999000076 ], [ -2.540075, 42.637511999000026 ], [ -2.517772278999928, 42.64755574000003 ], [ -2.517994446999978, 42.654993908000051 ], [ -2.522997589999932, 42.665647497000066 ], [ -2.523174809999944, 42.683863403000032 ], [ -2.537174810999943, 42.686932977000026 ], [ -2.549211625999931, 42.66933464400006 ], [ -2.576308726999969, 42.668500476000077 ], [ -2.579841213999941, 42.675646438000058 ], [ -2.593779283999936, 42.689379136000071 ], [ -2.608286594999925, 42.696766947000071 ], [ -2.607402134999973, 42.706445624000025 ], [ -2.60038465599996, 42.713998321000076 ], [ -2.589343739999947, 42.711900269000068 ], [ -2.573614871999951, 42.724473622000062 ], [ -2.56361140599995, 42.739358665000054 ], [ -2.563481684999942, 42.747078345000034 ], [ -2.55875915799993, 42.75674017700004 ], [ -2.559093704999952, 42.762016362000054 ], [ -2.56357905699997, 42.762601132000043 ], [ -2.575806286999978, 42.754778395000073 ], [ -2.589741427999968, 42.751010449000034 ], [ -2.592677227999957, 42.758431384000062 ], [ -2.601730774999965, 42.76572034700007 ], [ -2.602246, 42.770712499000069 ], [ -2.595861917999969, 42.778215258000046 ], [ -2.583104608999975, 42.784255796000025 ], [ -2.561267499999929, 42.783843999000055 ], [ -2.556618499999956, 42.784110999000063 ], [ -2.554287, 42.785407999000029 ], [ -2.550846499999977, 42.78445799900004 ], [ -2.533542, 42.788299499000061 ], [ -2.528937, 42.787647499000059 ], [ -2.527087499999936, 42.788100999000051 ], [ -2.525707066999928, 42.781429402000072 ], [ -2.51712996699996, 42.77710623400003 ], [ -2.509790209999949, 42.767016185000045 ], [ -2.511196155999926, 42.762896839000064 ], [ -2.526785925999945, 42.752938665000045 ], [ -2.524098591999973, 42.742799643000069 ], [ -2.518293417999928, 42.734750490000067 ], [ -2.51745284499998, 42.72448829800004 ], [ -2.510267803999966, 42.72463799600007 ], [ -2.503765457999975, 42.717243765000035 ], [ -2.506807945999981, 42.708127404000038 ], [ -2.498311022999928, 42.701436836000028 ], [ -2.463581885999929, 42.692599316000042 ], [ -2.456965859999968, 42.679043226000033 ], [ -2.440308060999939, 42.675372455000058 ], [ -2.434493405999945, 42.680009324000025 ], [ -2.42864, 42.678680999000051 ], [ -2.423027834999971, 42.665593749000038 ], [ -2.417317, 42.661323499000048 ], [ -2.42808105599994, 42.658566891000078 ], [ -2.430008499999929, 42.654216999000027 ] ] ] } },
{ "type": "Feature", "properties": { "code": "01017", "name": "Campezo / Kanpezu" }, "geometry": { "type": "Polygon", "coordinates": [ [ [ -2.381967499999973, 42.634261999000046 ], [ -2.373145675999979, 42.642490031000079 ], [ -2.380282370999964, 42.647348941000075 ], [ -2.37846652199994, 42.651957364000054 ], [ -2.394659090999937, 42.660556955000061 ], [ -2.417317, 42.661323499000048 ], [ -2.423027834999971, 42.665593749000038 ], [ -2.42864, 42.678680999000051 ], [ -2.428855923999947, 42.683984033000058 ], [ -2.41737827299994, 42.694693029000064 ], [ -2.417496013999937, 42.701585760000057 ], [ -2.423668402999965, 42.710149881000063 ], [ -2.413646571999948, 42.713855301000081 ], [ -2.40766541499994, 42.729740997000079 ], [ -2.397872925999934, 42.729501330000062 ], [ -2.385759023999981, 42.734067055000025 ], [ -2.377821, 42.732001999000033 ], [ -2.372953872999972, 42.737813908000078 ], [ -2.368337002999965, 42.738470376000066 ], [ -2.345309849999978, 42.717137732000026 ], [ -2.340659899999935, 42.724836295000046 ], [ -2.344296041999939, 42.729593258000079 ], [ -2.340344283999968, 42.734242745000074 ], [ -2.33297969399996, 42.737932332000071 ], [ -2.316869, 42.739307499000063 ], [ -2.316956499999947, 42.735732999000049 ], [ -2.318585, 42.733177499000078 ], [ -2.318328, 42.730060499000047 ], [ -2.319783499999971, 42.728698499000075 ], [ -2.32357591899995, 42.720796376000067 ], [ -2.31771208999993, 42.717211039000063 ], [ -2.313376861999927, 42.708472795000034 ], [ -2.312797881999927, 42.689224468000077 ], [ -2.315747005999981, 42.682705258000055 ], [ -2.309219862999953, 42.672471441000027 ], [ -2.302341034999927, 42.67652533200004 ], [ -2.293567687999939, 42.676505331000044 ], [ -2.288718850999942, 42.657597205000059 ], [ -2.293354499999964, 42.650825999000062 ], [ -2.308092730999931, 42.652263337000079 ], [ -2.33246930599995, 42.645629893000034 ], [ -2.347309499999938, 42.634037499000044 ], [ -2.365963, 42.637004999000055 ], [ -2.381967499999973, 42.634261999000046 ] ] ] } },
{ "type": "Feature", "properties": { "code": "01018", "name": "Zigoitia" }, "geometry": { "type": "Polygon", "coordinates": [ [ [ -2.707624499999952, 43.030055499000071 ], [ -2.686609, 43.021856999000079 ], [ -2.685154591999947, 43.011507764000044 ], [ -2.678465225999958, 43.003371426000058 ], [ -2.67684251999998, 42.996556785000053 ], [ -2.680429939999954, 42.982881723000048 ], [ -2.685561683999936, 42.975805354000045 ], [ -2.679134655999974, 42.966876944000035 ], [ -2.681466, 42.96137599900004 ], [ -2.682254877999981, 42.95515879900006 ], [ -2.687025951999942, 42.952562094000029 ], [ -2.692246465999972, 42.944020370000032 ], [ -2.686108507999961, 42.94041668400007 ], [ -2.688427173999969, 42.931879486000071 ], [ -2.677982, 42.91696599900007 ], [ -2.685961751999969, 42.910510248000037 ], [ -2.698840962999952, 42.909345736000034 ], [ -2.707530820999978, 42.904613803000075 ], [ -2.733912703999977, 42.907594993000032 ], [ -2.748177388999977, 42.91486758800005 ], [ -2.762442097999951, 42.917895635000036 ], [ -2.767646817999946, 42.916577116000042 ], [ -2.786032, 42.925662999000053 ], [ -2.784305372999938, 42.930239826000047 ], [ -2.788283146999959, 42.938171269000065 ], [ -2.787491614999965, 42.948201098000027 ], [ -2.772488667999937, 42.96036450500003 ], [ -2.780538557999932, 42.982592874000034 ], [ -2.773800499999936, 43.028956999000059 ], [ -2.751806639999927, 43.027107940000064 ], [ -2.741639366999948, 43.033643176000055 ], [ -2.728159742999935, 43.024635853000063 ], [ -2.714683712999943, 43.03030315500007 ], [ -2.707624499999952, 43.030055499000071 ] ] ] } },
{ "type": "Feature", "properties": { "code": "01019", "name": "Kripan" }, "geometry": { "type": "Polygon", "coordinates": [ [ [ -2.52307, 42.570400499000073 ], [ -2.529158240999948, 42.576382866000074 ], [ -2.529843048999965, 42.587610128000051 ], [ -2.532575, 42.588435999000069 ], [ -2.531520557999954, 42.607799556000032 ], [ -2.524421, 42.615421499000036 ], [ -2.503316, 42.616790999000045 ], [ -2.504934, 42.612708999000063 ], [ -2.499371, 42.611522499000046 ], [ -2.490649, 42.585323499000026 ], [ -2.499211766999963, 42.589427427000032 ], [ -2.508830964999959, 42.572552287000065 ], [ -2.52307, 42.570400499000073 ] ] ] } },
{ "type": "Feature", "properties": { "code": "01020", "name": "Kuartango" }, "geometry": { "type": "Polygon", "coordinates": [ [ [ -2.885675, 42.841590999000061 ], [ -2.890236627999968, 42.834971352000025 ], [ -2.894199039999933, 42.834135566000043 ], [ -2.920039368999937, 42.858553802000074 ], [ -2.96004480299996, 42.870682886000054 ], [ -2.986559487999955, 42.875186701000075 ], [ -2.996582, 42.88070299900005 ], [ -2.999986499999977, 42.882945999000071 ], [ -3.00216649999993, 42.88552099900005 ], [ -3.00279, 42.887790499000062 ], [ -3.005766499999936, 42.89125049900008 ], [ -3.006134499999973, 42.894687499000042 ], [ -3.00874349999998, 42.897643999000024 ], [ -3.013706499999955, 42.900226499000041 ], [ -3.014747, 42.902271499000051 ], [ -3.012884, 42.908248999000079 ], [ -3.016167499999938, 42.910506999000063 ], [ -3.016551499999935, 42.914964999000063 ], [ -3.014717, 42.919088499000054 ], [ -3.005867499999965, 42.927111999000033 ], [ -3.003294, 42.928304499000035 ], [ -2.998208, 42.926772999000036 ], [ -2.992092499999956, 42.935177999000075 ], [ -2.98515, 42.936279499000079 ], [ -2.981419, 42.939876999000035 ], [ -2.975174, 42.93825399900004 ], [ -2.956155405999937, 42.929824360000055 ], [ -2.945583673999977, 42.928116791000036 ], [ -2.933299939999927, 42.929565373000059 ], [ -2.925462041999936, 42.937049002000037 ], [ -2.906438994999974, 42.932110654000041 ], [ -2.894784911999977, 42.924302483000076 ], [ -2.868160499999931, 42.922101999000063 ], [ -2.85640849999993, 42.914012999000079 ], [ -2.872520560999931, 42.909757900000045 ], [ -2.881311272999938, 42.902155936000042 ], [ -2.88211300599994, 42.891707323000048 ], [ -2.871441359999949, 42.86740896200007 ], [ -2.873662167999953, 42.857022666000034 ], [ -2.885675, 42.841590999000061 ] ] ] } },
{ "type": "Feature", "properties": { "code": "01021", "name": "Elburgo / Burgelu" }, "geometry": { "type": "MultiPolygon", "coordinates": [ [ [ [ -2.545838, 42.785510999000053 ], [ -2.550846499999977, 42.78445799900004 ], [ -2.554287, 42.785407999000029 ], [ -2.556618499999956, 42.784110999000063 ], [ -2.559416499999941, 42.784347499000035 ], [ -2.560355645999948, 42.807626179000067 ], [ -2.550869895999938, 42.824444453000069 ], [ -2.558773, 42.833835499000031 ], [ -2.561105, 42.839698999000063 ], [ -2.561221499999931, 42.842506499000081 ], [ -2.559435, 42.84576049900005 ], [ -2.552110499999969, 42.851676999000063 ], [ -2.545852499999967, 42.852092999000035 ], [ -2.543907, 42.856830499000068 ], [ -2.549509, 42.862464999000053 ], [ -2.558280499999967, 42.868442499000025 ], [ -2.565973, 42.864436999000077 ], [ -2.57675, 42.869065999000043 ], [ -2.57804, 42.873762499000065 ], [ -2.565247, 42.885810999000057 ], [ -2.554194511999981, 42.87861515000003 ], [ -2.54086304599997, 42.875374714000031 ], [ -2.513771075999955, 42.880271142000026 ], [ -2.51190533099998, 42.87077066900008 ], [ -2.518625, 42.860789999000076 ], [ -2.522746040999948, 42.852922793000062 ], [ -2.527098136999939, 42.850768862000052 ], [ -2.526354499999968, 42.831428499000026 ], [ -2.525590499999964, 42.828723999000033 ], [ -2.5349, 42.822483499000043 ], [ -2.53899, 42.821853499000042 ], [ -2.540016, 42.815437499000041 ], [ -2.544225499999925, 42.811904499000036 ], [ -2.543588, 42.805545499000061 ], [ -2.547576499999934, 42.803596499000037 ], [ -2.549324499999955, 42.800315999000077 ], [ -2.548318499999937, 42.79067599900003 ], [ -2.545838, 42.785510999000053 ] ] ], [ [ [ -2.561786, 42.895367499000031 ], [ -2.579838499999937, 42.901126999000041 ], [ -2.578965499999924, 42.905231499000081 ], [ -2.580125, 42.907953999000028 ], [ -2.572917206999932, 42.908452931000056 ], [ -2.569458672999929, 42.91511259300006 ], [ -2.562268019999976, 42.918358013000045 ], [ -2.561175749999961, 42.946751413000072 ], [ -2.551095, 42.958874999000045 ], [ -2.548246, 42.953473999000039 ], [ -2.55492770099994, 42.939716737000026 ], [ -2.554750597999941, 42.928478412000061 ], [ -2.549300765999931, 42.925346236000053 ], [ -2.555018021999956, 42.913215781000076 ], [ -2.543936302999953, 42.908368534000033 ], [ -2.532952858999977, 42.897333687000071 ], [ -2.534495102999927, 42.895066280000037 ], [ -2.542318118999958, 42.895036889000039 ], [ -2.559244795999973, 42.89789743800003 ], [ -2.561786, 42.895367499000031 ] ] ] ] } },
{ "type": "Feature", "properties": { "code": "01022", "name": "Elciego" }, "geometry": { "type": "Polygon", "coordinates": [ [ [ -2.600926499999957, 42.48453149900007 ], [ -2.593549085999939, 42.493103941000072 ], [ -2.60538043899993, 42.501536826000063 ], [ -2.612159491999932, 42.49603486400008 ], [ -2.62797018599997, 42.495209382000041 ], [ -2.633911105999971, 42.488359110000033 ], [ -2.644531507999943, 42.48339543000003 ], [ -2.648778757999935, 42.485296124000058 ], [ -2.653815499999951, 42.495808499000077 ], [ -2.651731499999926, 42.501483999000072 ], [ -2.652934, 42.504016999000044 ], [ -2.652078, 42.506915999000057 ], [ -2.65117, 42.50872399900004 ], [ -2.646715, 42.512519999000062 ], [ -2.650134499999979, 42.51796949900006 ], [ -2.646428, 42.520244499000057 ], [ -2.640678, 42.520667999000068 ], [ -2.637487499999963, 42.523063499000045 ], [ -2.630396499999961, 42.526118999000062 ], [ -2.616037499999948, 42.530673999000044 ], [ -2.604555337999955, 42.523152653000068 ], [ -2.596158869999954, 42.513469041000064 ], [ -2.59073858499994, 42.493719422000026 ], [ -2.595447241999977, 42.485711197000057 ], [ -2.600926499999957, 42.48453149900007 ] ] ] } },
{ "type": "Feature", "properties": { "code": "01023", "name": "Elvillar / Bilar" }, "geometry": { "type": "Polygon", "coordinates": [ [ [ -2.52307, 42.570400499000073 ], [ -2.526394706999952, 42.562734415000079 ], [ -2.518215805999944, 42.548306547000038 ], [ -2.517472445999942, 42.525621039000043 ], [ -2.519595, 42.520971999000039 ], [ -2.538084562999927, 42.537233039000057 ], [ -2.54806040699998, 42.542408232000071 ], [ -2.569951598999978, 42.584800563000044 ], [ -2.567688121999936, 42.587911123000026 ], [ -2.55603704899994, 42.590091320000056 ], [ -2.532575, 42.588435999000069 ], [ -2.529843048999965, 42.587610128000051 ], [ -2.529158240999948, 42.576382866000074 ], [ -2.52307, 42.570400499000073 ] ] ] } },
{ "type": "Feature", "properties": { "code": "01027", "name": "Iruraiz-Gauna" }, "geometry": { "type": "MultiPolygon", "coordinates": [ [ [ [ -2.427755499999932, 42.85720849900008 ], [ -2.417204714999968, 42.827802101000032 ], [ -2.40713468499996, 42.826843531000065 ], [ -2.410026816999959, 42.817847609000069 ], [ -2.409071, 42.806373499000074 ], [ -2.421518650999928, 42.803521785000044 ], [ -2.437264415999948, 42.792999399000053 ], [ -2.444525, 42.794303999000078 ], [ -2.450322394999944, 42.81953612600006 ], [ -2.443049100999929, 42.833563368000057 ], [ -2.471190499999977, 42.847762999000054 ], [ -2.493733, 42.857085999000049 ], [ -2.48527, 42.863460499000041 ], [ -2.47824849999995, 42.870128499000032 ], [ -2.468702, 42.865600499000038 ], [ -2.454801, 42.863372999000035 ], [ -2.447415, 42.861079999000026 ], [ -2.440378, 42.860854999000026 ], [ -2.427755499999932, 42.85720849900008 ] ] ], [ [ [ -2.476771499999927, 42.78558349900004 ], [ -2.47688993099996, 42.796207430000038 ], [ -2.470339506999949, 42.808301332000042 ], [ -2.472795513999927, 42.814831874000049 ], [ -2.468547206999972, 42.818467468000051 ], [ -2.465041876999976, 42.816335287000072 ], [ -2.46168948899998, 42.807579915000076 ], [ -2.466288, 42.788875499000028 ], [ -2.476771499999927, 42.78558349900004 ] ] ], [ [ [ -2.481648, 42.829573999000047 ], [ -2.483758526999964, 42.83668926100006 ], [ -2.476664, 42.840179499000044 ], [ -2.472432376999961, 42.838344868000036 ], [ -2.466285919999962, 42.832172319000051 ], [ -2.471798874999934, 42.827559422000036 ], [ -2.481648, 42.829573999000047 ] ] ], [ [ [ -2.484732, 42.826438999000061 ], [ -2.483875037999951, 42.800866348000056 ], [ -2.491579, 42.792865499000072 ], [ -2.497176499999966, 42.79316699900005 ], [ -2.497674383999936, 42.802917071000024 ], [ -2.50685397899997, 42.809888873000034 ], [ -2.506339968999953, 42.820513309000034 ], [ -2.50067299799997, 42.829989946000069 ], [ -2.484732, 42.826438999000061 ] ] ], [ [ [ -2.533542, 42.788299499000061 ], [ -2.53273487499996, 42.805836361000047 ], [ -2.529049559999976, 42.814046936000068 ], [ -2.5349, 42.822483499000043 ], [ -2.525590499999964, 42.828723999000033 ], [ -2.526354499999968, 42.831428499000026 ], [ -2.518454941999948, 42.830901588000074 ], [ -2.512659090999932, 42.823605862000079 ], [ -2.50772, 42.791278999000042 ], [ -2.510033, 42.789333499000065 ], [ -2.516355, 42.789523999000039 ], [ -2.523080499999935, 42.787631499000042 ], [ -2.533542, 42.788299499000061 ] ] ], [ [ [ -2.564031, 42.783816499000068 ], [ -2.573558463999973, 42.803684617000044 ], [ -2.570853700999976, 42.817277908000051 ], [ -2.565501444999938, 42.817935242000033 ], [ -2.558773, 42.833835499000031 ], [ -2.550869895999938, 42.824444453000069 ], [ -2.560355645999948, 42.807626179000067 ], [ -2.559416499999941, 42.784347499000035 ], [ -2.564031, 42.783816499000068 ] ] ] ] } },
{ "type": "Feature", "properties": { "code": "01028", "name": "Labastida / Bastida" }, "geometry": { "type": "Polygon", "coordinates": [ [ [ -2.858067499999947, 42.638383999000041 ], [ -2.859007499999962, 42.638665499000069 ], [ -2.823842793999972, 42.644290875000081 ], [ -2.815556269999945, 42.63993563300005 ], [ -2.805244486999925, 42.639422117000038 ], [ -2.803351726999949, 42.63185020800006 ], [ -2.788486359999979, 42.63365153400008 ], [ -2.765876499999933, 42.620156999000073 ], [ -2.772902234999947, 42.607312788000058 ], [ -2.771974170999954, 42.595265270000027 ], [ -2.778893815999936, 42.581584970000051 ], [ -2.797550514999955, 42.573856144000047 ], [ -2.803665, 42.564503999000067 ], [ -2.807866263999927, 42.567604216000063 ], [ -2.816075, 42.567993499000067 ], [ -2.817934817999969, 42.557392132000075 ], [ -2.825204499999927, 42.554896499000051 ], [ -2.828470109999955, 42.563663222000059 ], [ -2.837509474999933, 42.57082970700003 ], [ -2.840277950999962, 42.580772160000038 ], [ -2.835092920999955, 42.583942661000037 ], [ -2.824572699999976, 42.587698050000029 ], [ -2.819986050999944, 42.59166115000005 ], [ -2.818326812999942, 42.597727883000061 ], [ -2.823643, 42.60145699900005 ], [ -2.81993850799995, 42.608877293000035 ], [ -2.820686515999967, 42.613585635000049 ], [ -2.835092920999955, 42.609028082000066 ], [ -2.8418, 42.608598499000038 ], [ -2.846764459999974, 42.617658298000038 ], [ -2.84317383299998, 42.629117385000029 ], [ -2.858067499999947, 42.638383999000041 ] ] ] } },
{ "type": "Feature", "properties": { "code": "01030", "name": "Lagrán" }, "geometry": { "type": "Polygon", "coordinates": [ [ [ -2.618682499999977, 42.648624999000049 ], [ -2.612536843999976, 42.64723579300005 ], [ -2.584330724999973, 42.651081030000057 ], [ -2.565259769999955, 42.645212775000061 ], [ -2.554166646999931, 42.649282630000073 ], [ -2.548963833999949, 42.645644369000081 ], [ -2.549207453999941, 42.638339977000044 ], [ -2.538272, 42.638675999000043 ], [ -2.540075, 42.637511999000026 ], [ -2.548319499999934, 42.635600999000076 ], [ -2.551493, 42.633910999000079 ], [ -2.549632, 42.629680499000074 ], [ -2.553782499999954, 42.627498499000069 ], [ -2.553030499999977, 42.608260999000038 ], [ -2.582344473999967, 42.60005932100006 ], [ -2.59728215399997, 42.59957969800007 ], [ -2.627230159999954, 42.604508413000076 ], [ -2.645025411999939, 42.596498049000047 ], [ -2.667325, 42.592330999000069 ], [ -2.681769, 42.595394999000064 ], [ -2.682693032999964, 42.602111784000044 ], [ -2.662260464999974, 42.624329070000044 ], [ -2.649599796999951, 42.631816815000036 ], [ -2.629182127999968, 42.632037921000062 ], [ -2.618682499999977, 42.648624999000049 ] ] ] } },
{ "type": "Feature", "properties": { "code": "01031", "name": "Laguardia" }, "geometry": { "type": "MultiPolygon", "coordinates": [ [ [ [ -2.482276499999955, 42.499770999000077 ], [ -2.482945492999932, 42.493483180000055 ], [ -2.477432, 42.486636499000042 ], [ -2.516210333999936, 42.491482777000044 ], [ -2.517884461999927, 42.498591667000028 ], [ -2.505415, 42.512705999000048 ], [ -2.495315394999977, 42.50294806800008 ], [ -2.482276499999955, 42.499770999000077 ] ] ], [ [ [ -2.503316, 42.616790999000045 ], [ -2.500101499999971, 42.61644349900007 ], [ -2.499371, 42.611522499000046 ], [ -2.504934, 42.612708999000063 ], [ -2.503316, 42.616790999000045 ] ] ], [ [ [ -2.51379849999995, 42.518020499000045 ], [ -2.520626690999961, 42.506982213000072 ], [ -2.536731671999974, 42.494982170000071 ], [ -2.536960526999962, 42.489814009000042 ], [ -2.530810642999938, 42.485206768000069 ], [ -2.537373, 42.48317399900003 ], [ -2.548797499999978, 42.48391299900004 ], [ -2.545892661999972, 42.488970043000052 ], [ -2.557448944999976, 42.502615050000031 ], [ -2.573855629999969, 42.507068199000059 ], [ -2.586626291999949, 42.49930570600003 ], [ -2.591361, 42.482507999000063 ], [ -2.588081753999973, 42.474768692000055 ], [ -2.595638656999938, 42.472961468000051 ], [ -2.60136276399993, 42.47824687800005 ], [ -2.600926499999957, 42.48453149900007 ], [ -2.595447241999977, 42.485711197000057 ], [ -2.59073858499994, 42.493719422000026 ], [ -2.596158869999954, 42.513469041000064 ], [ -2.604555337999955, 42.523152653000068 ], [ -2.616037499999948, 42.530673999000044 ], [ -2.611518265999962, 42.546464907000029 ], [ -2.616683, 42.554378499000052 ], [ -2.62009883199994, 42.562332971000046 ], [ -2.61705784399993, 42.572227200000043 ], [ -2.624942406999935, 42.575489598000047 ], [ -2.639693629999954, 42.595545452000067 ], [ -2.650576781999973, 42.592595730000028 ], [ -2.647721652999962, 42.57941248700007 ], [ -2.652931492999926, 42.572116080000058 ], [ -2.655456, 42.56108449900006 ], [ -2.656866, 42.565921999000068 ], [ -2.657232, 42.572208499000055 ], [ -2.654958499999964, 42.580524499000035 ], [ -2.658410499999945, 42.58637999900003 ], [ -2.668776, 42.585411499000031 ], [ -2.667325, 42.592330999000069 ], [ -2.645025411999939, 42.596498049000047 ], [ -2.627230159999954, 42.604508413000076 ], [ -2.59728215399997, 42.59957969800007 ], [ -2.582344473999967, 42.60005932100006 ], [ -2.524421, 42.615421499000036 ], [ -2.531520557999954, 42.607799556000032 ], [ -2.532575, 42.588435999000069 ], [ -2.55603704899994, 42.590091320000056 ], [ -2.567688121999936, 42.587911123000026 ], [ -2.569951598999978, 42.584800563000044 ], [ -2.54806040699998, 42.542408232000071 ], [ -2.538084562999927, 42.537233039000057 ], [ -2.519595, 42.520971999000039 ], [ -2.517908718999934, 42.517243816000075 ], [ -2.51379849999995, 42.518020499000045 ] ] ] ] } },
{ "type": "Feature", "properties": { "code": "01032", "name": "Lanciego / Lantziego" }, "geometry": { "type": "Polygon", "coordinates": [ [ [ -2.483636499999932, 42.519553999000038 ], [ -2.475866642999961, 42.502026676000071 ], [ -2.482276499999955, 42.499770999000077 ], [ -2.495315394999977, 42.50294806800008 ], [ -2.505415, 42.512705999000048 ], [ -2.508576228999971, 42.518725372000063 ], [ -2.517908718999934, 42.517243816000075 ], [ -2.519595, 42.520971999000039 ], [ -2.517472445999942, 42.525621039000043 ], [ -2.518215805999944, 42.548306547000038 ], [ -2.526394706999952, 42.562734415000079 ], [ -2.52307, 42.570400499000073 ], [ -2.508830964999959, 42.572552287000065 ], [ -2.499211766999963, 42.589427427000032 ], [ -2.490649, 42.585323499000026 ], [ -2.481796980999945, 42.561600730000066 ], [ -2.48541340099996, 42.549425656000039 ], [ -2.480440858999941, 42.530609471000048 ], [ -2.483636499999932, 42.519553999000038 ] ] ] } },
{ "type": "Feature", "properties": { "code": "01033", "name": "Lapuebla de Labarca" }, "geometry": { "type": "Polygon", "coordinates": [ [ [ -2.548797499999978, 42.48391299900004 ], [ -2.556270876999974, 42.48511050500008 ], [ -2.568705187999967, 42.49345975500006 ], [ -2.573174881999932, 42.491489071000046 ], [ -2.577813915999968, 42.483814118000055 ], [ -2.591361, 42.482507999000063 ], [ -2.586626291999949, 42.49930570600003 ], [ -2.573855629999969, 42.507068199000059 ], [ -2.557448944999976, 42.502615050000031 ], [ -2.545892661999972, 42.488970043000052 ], [ -2.548797499999978, 42.48391299900004 ] ] ] } },
{ "type": "Feature", "properties": { "code": "01034", "name": "Leza" }, "geometry": { "type": "Polygon", "coordinates": [ [ [ -2.646545, 42.551055999000027 ], [ -2.650953499999957, 42.558678499000052 ], [ -2.655456, 42.56108449900006 ], [ -2.652931492999926, 42.572116080000058 ], [ -2.647721652999962, 42.57941248700007 ], [ -2.650576781999973, 42.592595730000028 ], [ -2.639693629999954, 42.595545452000067 ], [ -2.624942406999935, 42.575489598000047 ], [ -2.61705784399993, 42.572227200000043 ], [ -2.62009883199994, 42.562332971000046 ], [ -2.616683, 42.554378499000052 ], [ -2.62989265899995, 42.55511881700005 ], [ -2.646545, 42.551055999000027 ] ] ] } },
{ "type": "Feature", "properties": { "code": "01036", "name": "Laudio / Llodio" }, "geometry": { "type": "Polygon", "coordinates": [ [ [ -2.972947, 43.186234499000079 ], [ -2.960075583999981, 43.175232033000043 ], [ -2.94742206199993, 43.170099622000066 ], [ -2.952909443999943, 43.159537813000043 ], [ -2.938440499999956, 43.145129999000062 ], [ -2.936865249999926, 43.135512447000053 ], [ -2.965293746999976, 43.10402623300007 ], [ -2.97512, 43.099038999000072 ], [ -3.015970696999943, 43.119103341000027 ], [ -3.023802499999931, 43.133814999000037 ], [ -2.978563521999945, 43.173315880000075 ], [ -2.97429724999995, 43.178040589000034 ], [ -2.976801788999978, 43.183812571000033 ], [ -2.972947, 43.186234499000079 ] ] ] } },
{ "type": "Feature", "properties": { "code": "01037", "name": "Arraia-Maeztu" }, "geometry": { "type": "Polygon", "coordinates": [ [ [ -2.476771499999927, 42.78558349900004 ], [ -2.466288, 42.788875499000028 ], [ -2.456201723999925, 42.788729441000044 ], [ -2.444525, 42.794303999000078 ], [ -2.437264415999948, 42.792999399000053 ], [ -2.421518650999928, 42.803521785000044 ], [ -2.409071, 42.806373499000074 ], [ -2.369318, 42.804333499000052 ], [ -2.365366150999932, 42.788177273000031 ], [ -2.370659108999973, 42.778881772000034 ], [ -2.357805499999927, 42.76577749900008 ], [ -2.379015916999947, 42.749556235000057 ], [ -2.373757498999964, 42.740877208000029 ], [ -2.377821, 42.732001999000033 ], [ -2.385759023999981, 42.734067055000025 ], [ -2.397872925999934, 42.729501330000062 ], [ -2.40766541499994, 42.729740997000079 ], [ -2.413646571999948, 42.713855301000081 ], [ -2.423668402999965, 42.710149881000063 ], [ -2.417496013999937, 42.701585760000057 ], [ -2.41737827299994, 42.694693029000064 ], [ -2.428855923999947, 42.683984033000058 ], [ -2.42864, 42.678680999000051 ], [ -2.434493405999945, 42.680009324000025 ], [ -2.440308060999939, 42.675372455000058 ], [ -2.456965859999968, 42.679043226000033 ], [ -2.463581885999929, 42.692599316000042 ], [ -2.498311022999928, 42.701436836000028 ], [ -2.506807945999981, 42.708127404000038 ], [ -2.503765457999975, 42.717243765000035 ], [ -2.510267803999966, 42.72463799600007 ], [ -2.51745284499998, 42.72448829800004 ], [ -2.518293417999928, 42.734750490000067 ], [ -2.524098591999973, 42.742799643000069 ], [ -2.526785925999945, 42.752938665000045 ], [ -2.511196155999926, 42.762896839000064 ], [ -2.509790209999949, 42.767016185000045 ], [ -2.51712996699996, 42.77710623400003 ], [ -2.525707066999928, 42.781429402000072 ], [ -2.527087499999936, 42.788100999000051 ], [ -2.523080499999935, 42.787631499000042 ], [ -2.516355, 42.789523999000039 ], [ -2.510033, 42.789333499000065 ], [ -2.50772, 42.791278999000042 ], [ -2.502457, 42.790122999000062 ], [ -2.497176499999966, 42.79316699900005 ], [ -2.491579, 42.792865499000072 ], [ -2.476771499999927, 42.78558349900004 ] ] ] } },
{ "type": "Feature", "properties": { "code": "01039", "name": "Moreda de Álava / Moreda Araba" }, "geometry": { "type": "Polygon", "coordinates": [ [ [ -2.422081, 42.51169199900005 ], [ -2.434872904999963, 42.524290353000026 ], [ -2.437202937999928, 42.534584824000035 ], [ -2.400210499999957, 42.54313649900007 ], [ -2.393017021999981, 42.517647690000047 ], [ -2.422081, 42.51169199900005 ] ] ] } },
{ "type": "Feature", "properties": { "code": "01041", "name": "Navaridas" }, "geometry": { "type": "Polygon", "coordinates": [ [ [ -2.640678, 42.520667999000068 ], [ -2.650801994999938, 42.533622582000078 ], [ -2.649702028999968, 42.541589918000057 ], [ -2.645790375999979, 42.54563287600007 ], [ -2.646545, 42.551055999000027 ], [ -2.62989265899995, 42.55511881700005 ], [ -2.616683, 42.554378499000052 ], [ -2.611518265999962, 42.546464907000029 ], [ -2.616037499999948, 42.530673999000044 ], [ -2.630396499999961, 42.526118999000062 ], [ -2.637487499999963, 42.523063499000045 ], [ -2.640678, 42.520667999000068 ] ] ] } },
{ "type": "Feature", "properties": { "code": "01042", "name": "Okondo" }, "geometry": { "type": "Polygon", "coordinates": [ [ [ -3.023802499999931, 43.133814999000037 ], [ -3.034294586999977, 43.136590449000039 ], [ -3.049495093999951, 43.134492125000065 ], [ -3.066300488999957, 43.137150610000049 ], [ -3.069169391999935, 43.139159016000065 ], [ -3.069057078999947, 43.144597110000063 ], [ -3.074687, 43.146353999000041 ], [ -3.065135784999939, 43.155431432000057 ], [ -3.02740560899997, 43.161714175000043 ], [ -3.027172205999932, 43.170640381000055 ], [ -3.019222896999963, 43.181918237000048 ], [ -3.020718768999927, 43.191513988000054 ], [ -3.018417376999935, 43.194691084000056 ], [ -3.020316187999924, 43.20301065700005 ], [ -3.028415499999937, 43.20512099900003 ], [ -3.038337859999956, 43.210197189000041 ], [ -3.034456550999948, 43.215641773000073 ], [ -3.023454747999949, 43.214108858000031 ], [ -3.006835897999963, 43.196669057000065 ], [ -2.981526, 43.201952999000071 ], [ -2.972947, 43.186234499000079 ], [ -2.976801788999978, 43.183812571000033 ], [ -2.97429724999995, 43.178040589000034 ], [ -2.978563521999945, 43.173315880000075 ], [ -3.023802499999931, 43.133814999000037 ] ] ] } },
{ "type": "Feature", "properties": { "code": "01043", "name": "Oyón-Oion" }, "geometry": { "type": "Polygon", "coordinates": [ [ [ -2.482276499999955, 42.499770999000077 ], [ -2.475866642999961, 42.502026676000071 ], [ -2.483636499999932, 42.519553999000038 ], [ -2.475433454999973, 42.520850866000046 ], [ -2.442612981999957, 42.53601976200008 ], [ -2.443625020999946, 42.542292301000032 ], [ -2.453027104999933, 42.55488390000005 ], [ -2.453259499999945, 42.56707749900005 ], [ -2.443319493999979, 42.575621697000031 ], [ -2.423725747999924, 42.604999557000042 ], [ -2.418567, 42.607112999000037 ], [ -2.41694949999993, 42.604125999000075 ], [ -2.411999, 42.600253999000074 ], [ -2.406445499999961, 42.598460999000054 ], [ -2.399344, 42.597846999000069 ], [ -2.396772, 42.599067499000057 ], [ -2.397467, 42.595435999000074 ], [ -2.399215499999968, 42.59351699900003 ], [ -2.40005, 42.589073499000051 ], [ -2.398214499999938, 42.58615499900003 ], [ -2.390190464999932, 42.551175006000051 ], [ -2.400210499999957, 42.54313649900007 ], [ -2.437202937999928, 42.534584824000035 ], [ -2.434872904999963, 42.524290353000026 ], [ -2.422081, 42.51169199900005 ], [ -2.42314483499996, 42.498749816000043 ], [ -2.420719, 42.489269499000045 ], [ -2.43730736599997, 42.489462952000054 ], [ -2.450697716999969, 42.496418318000053 ], [ -2.471195334999948, 42.492569401000026 ], [ -2.477432, 42.486636499000042 ], [ -2.482945492999932, 42.493483180000055 ], [ -2.482276499999955, 42.499770999000077 ] ] ] } },
{ "type": "Feature", "properties": { "code": "01044", "name": "Peñacerrada-Urizaharra" }, "geometry": { "type": "Polygon", "coordinates": [ [ [ -2.681769, 42.595394999000064 ], [ -2.685661, 42.594931999000039 ], [ -2.688626499999941, 42.596258999000042 ], [ -2.706342, 42.599796499000036 ], [ -2.741736807999928, 42.622421286000076 ], [ -2.765876499999933, 42.620156999000073 ], [ -2.788486359999979, 42.63365153400008 ], [ -2.794796499999961, 42.632545499000059 ], [ -2.791058479999947, 42.636534569000048 ], [ -2.78081141499996, 42.639088781000055 ], [ -2.758685249999928, 42.639478933000078 ], [ -2.757919501999936, 42.649594418000049 ], [ -2.737709, 42.663078999000049 ], [ -2.717458252999961, 42.66261049600007 ], [ -2.713380341999937, 42.669911442000057 ], [ -2.701307816999929, 42.674398345000043 ], [ -2.666790762999938, 42.667148860000054 ], [ -2.658620974999963, 42.671858120000024 ], [ -2.65432291999997, 42.669467960000077 ], [ -2.650664755999969, 42.66047681200007 ], [ -2.638117512999941, 42.649745612000061 ], [ -2.618682499999977, 42.648624999000049 ], [ -2.629182127999968, 42.632037921000062 ], [ -2.649599796999951, 42.631816815000036 ], [ -2.662260464999974, 42.624329070000044 ], [ -2.682693032999964, 42.602111784000044 ], [ -2.681769, 42.595394999000064 ] ] ] } },
{ "type": "Feature", "properties": { "code": "01046", "name": "Erriberagoitia / Ribera Alta" }, "geometry": { "type": "MultiPolygon", "coordinates": [ [ [ [ -3.009225499999957, 42.840991999000039 ], [ -3.002174649999972, 42.84921246600004 ], [ -2.992994499999952, 42.879028499000071 ], [ -2.986559487999955, 42.875186701000075 ], [ -2.96004480299996, 42.870682886000054 ], [ -2.920039368999937, 42.858553802000074 ], [ -2.894199039999933, 42.834135566000043 ], [ -2.890236627999968, 42.834971352000025 ], [ -2.885675, 42.841590999000061 ], [ -2.885019, 42.839652999000066 ], [ -2.871183, 42.843364499000074 ], [ -2.868000499999937, 42.843585999000027 ], [ -2.877023325999971, 42.823403777000067 ], [ -2.873791579999931, 42.808946709000054 ], [ -2.835499499999969, 42.796226499000056 ], [ -2.840690130999974, 42.778505671000062 ], [ -2.84722318799993, 42.776351645000034 ], [ -2.852597242999934, 42.769465312000079 ], [ -2.852754, 42.759112999000081 ], [ -2.854385737999962, 42.747852411000054 ], [ -2.862002, 42.745854499000075 ], [ -2.872606670999971, 42.754248371000074 ], [ -2.880281110999931, 42.752528565000034 ], [ -2.896106648999933, 42.753297602000032 ], [ -2.900863998999966, 42.75634124100003 ], [ -2.907939766999959, 42.755009115000064 ], [ -2.908586577999927, 42.747241357000064 ], [ -2.925525506999975, 42.735940166000034 ], [ -2.926484269999946, 42.725082385000064 ], [ -2.930325017999962, 42.720186860000069 ], [ -2.943270906999942, 42.718191894000029 ], [ -2.948455, 42.720406499000035 ], [ -2.952446075999944, 42.729766106000056 ], [ -2.950261182999952, 42.741267993000065 ], [ -2.931729179999934, 42.749179196000057 ], [ -2.943815184999949, 42.770796229000041 ], [ -2.943261199999938, 42.780283893000046 ], [ -2.952121473999966, 42.782451304000062 ], [ -2.962393830999929, 42.773172900000077 ], [ -2.972822712999971, 42.772234457000025 ], [ -2.978585375999955, 42.774813006000045 ], [ -2.985474, 42.785232499000074 ], [ -2.967853185999957, 42.798595974000079 ], [ -2.969897684999978, 42.814901324000061 ], [ -2.954678748999925, 42.828502764000064 ], [ -2.970108583999945, 42.83642728600006 ], [ -2.987271807999946, 42.833502656000064 ], [ -3.009225499999957, 42.840991999000039 ] ] ], [ [ [ -3.020736, 42.789680499000042 ], [ -3.015405, 42.791534499000079 ], [ -2.989008499999954, 42.781890999000041 ], [ -2.995839248999971, 42.779736553000077 ], [ -2.997387992999961, 42.77381616200006 ], [ -3.011661122999953, 42.765169230000026 ], [ -3.01694568399995, 42.769756005000033 ], [ -3.020736, 42.789680499000042 ] ] ] ] } },
{ "type": "Feature", "properties": { "code": "01047", "name": "Ribera Baja" }, "geometry": { "type": "Polygon", "coordinates": [ [ [ -2.947011, 42.70965299900007 ], [ -2.947144, 42.716045499000074 ], [ -2.948455, 42.720406499000035 ], [ -2.943270906999942, 42.718191894000029 ], [ -2.930325017999962, 42.720186860000069 ], [ -2.926484269999946, 42.725082385000064 ], [ -2.925525506999975, 42.735940166000034 ], [ -2.908586577999927, 42.747241357000064 ], [ -2.907939766999959, 42.755009115000064 ], [ -2.900863998999966, 42.75634124100003 ], [ -2.896106648999933, 42.753297602000032 ], [ -2.880281110999931, 42.752528565000034 ], [ -2.872606670999971, 42.754248371000074 ], [ -2.862002, 42.745854499000075 ], [ -2.873439738999934, 42.736173046000033 ], [ -2.875307168999939, 42.728436305000059 ], [ -2.888227990999951, 42.729859536000049 ], [ -2.892166017999955, 42.722682663000057 ], [ -2.890892787999974, 42.709666034000065 ], [ -2.875173711999935, 42.707117295000046 ], [ -2.881030499999952, 42.698075999000025 ], [ -2.883415499999956, 42.692863499000055 ], [ -2.901915402999975, 42.696915372000035 ], [ -2.905417499999942, 42.693992499000046 ], [ -2.922054980999974, 42.700654917000065 ], [ -2.928373779999959, 42.700588114000027 ], [ -2.931124090999958, 42.707742111000073 ], [ -2.947011, 42.70965299900007 ] ] ] } },
{ "type": "Feature", "properties": { "code": "01049", "name": "Añana" }, "geometry": { "type": "Polygon", "coordinates": [ [ [ -2.989008499999954, 42.781890999000041 ], [ -3.015405, 42.791534499000079 ], [ -3.016550282999958, 42.803057060000071 ], [ -3.01004319499998, 42.811114566000072 ], [ -3.019331765999937, 42.817281905000073 ], [ -3.018252875999963, 42.831696803000057 ], [ -3.014085401999978, 42.840143440000077 ], [ -3.009225499999957, 42.840991999000039 ], [ -2.987271807999946, 42.833502656000064 ], [ -2.970108583999945, 42.83642728600006 ], [ -2.954678748999925, 42.828502764000064 ], [ -2.969897684999978, 42.814901324000061 ], [ -2.967853185999957, 42.798595974000079 ], [ -2.989008499999954, 42.781890999000041 ] ] ] } },
{ "type": "Feature", "properties": { "code": "01051", "name": "Agurain / Salvatierra" }, "geometry": { "type": "MultiPolygon", "coordinates": [ [ [ [ -2.427755499999932, 42.85720849900008 ], [ -2.426948202999938, 42.863944015000072 ], [ -2.418932499999926, 42.867049999000074 ], [ -2.409668834999934, 42.863279854000041 ], [ -2.404946130999974, 42.864638551000041 ], [ -2.39863468599998, 42.86887523300004 ], [ -2.392285056999981, 42.879589501000055 ], [ -2.380145709999965, 42.86946858400006 ], [ -2.366981499999952, 42.866603871000052 ], [ -2.360739751999972, 42.857741167000029 ], [ -2.36831628799996, 42.854902434000053 ], [ -2.367186833999938, 42.848637140000051 ], [ -2.37119927699996, 42.845649951000041 ], [ -2.370148815999926, 42.840506435000066 ], [ -2.360990220999952, 42.83302689900006 ], [ -2.330691, 42.81733299900003 ], [ -2.350214111999946, 42.805972136000037 ], [ -2.369318, 42.804333499000052 ], [ -2.409071, 42.806373499000074 ], [ -2.410026816999959, 42.817847609000069 ], [ -2.40713468499996, 42.826843531000065 ], [ -2.417204714999968, 42.827802101000032 ], [ -2.427755499999932, 42.85720849900008 ] ] ], [ [ [ -2.423617499999978, 42.892856499000061 ], [ -2.406132499999956, 42.894794499000056 ], [ -2.405258, 42.894042999000078 ], [ -2.403107026999976, 42.885134916000027 ], [ -2.410005611999964, 42.882838649000064 ], [ -2.420909, 42.886234499000068 ], [ -2.423617499999978, 42.892856499000061 ] ] ] ] } }
]
}
