{
"type": "FeatureCollection",
"crs": { "type": "name", "properties": { "name": "urn:ogc:def:crs:OGC:1.3:CRS84" } },
"features": [
{ "type": "Feature", "properties": { "code": "11001", "name": "Alcalá de los Gazules" }, "geometry": { "type": "Polygon", "coordinates": [ [ [ -5.616300499999966, 36.31750499900005 ], [ -5.636247201999936, 36.324166494000053 ], [ -5.648307744999954, 36.331544189000056 ], [ -5.68009809199998, 36.331406594000043 ], [ -5.706571499999939, 36.339421999000024 ], [ -5.752826551999931, 36.346300992000067 ], [ -5.773183550999931, 36.356006752000042 ], [ -5.786712475999934, 36.353078316000051 ], [ -5.798510499999963, 36.366974999000035 ], [ -5.790004760999977, 36.391710551000074 ], [ -5.798281732999953, 36.412222563000057 ], [ -5.808111622999945, 36.422430736000024 ], [ -5.806475587999955, 36.42837366200007 ], [ -5.809077388999981, 36.444773912000073 ], [ -5.818819781999935, 36.477386997000053 ], [ -5.83951449999995, 36.496887499000024 ], [ -5.829886033999969, 36.512379427000042 ], [ -5.83105, 36.537998499000025 ], [ -5.792698032999965, 36.549795412000037 ], [ -5.73845360699994, 36.556096937000063 ], [ -5.71632464299995, 36.555958270000076 ], [ -5.663806321999971, 36.544159827000044 ], [ -5.634797994999929, 36.526694852000048 ], [ -5.607651499999974, 36.515788499000053 ], [ -5.606620501999942, 36.511786341000061 ], [ -5.598611978999941, 36.508517182000048 ], [ -5.583729455999958, 36.513361730000042 ], [ -5.57308392799996, 36.512556785000072 ], [ -5.559803, 36.503715999000065 ], [ -5.570843883999942, 36.441128816000059 ], [ -5.589449213999956, 36.390479199000026 ], [ -5.587411974999952, 36.37702914700003 ], [ -5.580568, 36.364208999000027 ], [ -5.57978602999998, 36.355949688000067 ], [ -5.573403499999927, 36.350371499000062 ], [ -5.574032428999942, 36.34285658500005 ], [ -5.583487525999942, 36.334688874000051 ], [ -5.60520820399995, 36.319086263000031 ], [ -5.616300499999966, 36.31750499900005 ] ] ] } },
{ "type": "Feature", "properties": { "code": "11002", "name": "Alcalá del Valle" }, "geometry": { "type": "Polygon", "coordinates": [ [ [ -5.110154, 36.959357999000076 ], [ -5.105373742999973, 36.953454568000041 ], [ -5.099174227999981, 36.931648947000042 ], [ -5.091822499999978, 36.921062499000072 ], [ -5.107708825999964, 36.912036035000028 ], [ -5.114151602999925, 36.915842804000079 ], [ -5.116945136999959, 36.908028607000062 ], [ -5.128206744999943, 36.90574111400008 ], [ -5.16810550699995, 36.885965513000031 ], [ -5.185907515999929, 36.887336598000047 ], [ -5.19290407799997, 36.892469384000037 ], [ -5.196504254999979, 36.902400174000036 ], [ -5.196805548999976, 36.919083028000045 ], [ -5.200663, 36.928432499000053 ], [ -5.178477092999969, 36.941211120000048 ], [ -5.153659019999964, 36.945275563000052 ], [ -5.14840933399995, 36.94964720300004 ], [ -5.142934041999979, 36.946728832000076 ], [ -5.137928774999978, 36.95152328000006 ], [ -5.124807137999937, 36.951372147000029 ], [ -5.110154, 36.959357999000076 ] ] ] } },
{ "type": "Feature", "properties": { "code": "11003", "name": "Algar" }, "geometry": { "type": "Polygon", "coordinates": [ [ [ -5.691160499999967, 36.657154499000058 ], [ -5.674823499999945, 36.679441999000062 ], [ -5.663291293999976, 36.668268416000046 ], [ -5.649945225999943, 36.665939346000073 ], [ -5.640254852999931, 36.666436274000034 ], [ -5.620966155999952, 36.674446815000067 ], [ -5.618115499999931, 36.68064799900003 ], [ -5.604688499999952, 36.685277499000051 ], [ -5.600984, 36.687593499000059 ], [ -5.591982499999972, 36.689475499000025 ], [ -5.598949371999936, 36.684991620000062 ], [ -5.610020964999933, 36.669596422000041 ], [ -5.60765302599998, 36.659374855000067 ], [ -5.61778752999993, 36.645339561000071 ], [ -5.615434026999935, 36.638788385000055 ], [ -5.620942155999956, 36.637038833000076 ], [ -5.630658337999932, 36.64067854700005 ], [ -5.643756292999967, 36.625641949000055 ], [ -5.651392200999965, 36.625211576000027 ], [ -5.660938912999939, 36.63568242000008 ], [ -5.671214943999928, 36.641411740000024 ], [ -5.674135459999945, 36.650908447000063 ], [ -5.678232899999955, 36.651863841000079 ], [ -5.682756906999941, 36.648061005000045 ], [ -5.691160499999967, 36.657154499000058 ] ] ] } },
{ "type": "Feature", "properties": { "code": "11004", "name": "Algeciras" }, "geometry": { "type": "Polygon", "coordinates": [ [ [ -5.551728499999967, 36.109329999000067 ], [ -5.540187561999971, 36.121040160000064 ], [ -5.536417368999935, 36.130424935000065 ], [ -5.521734385999935, 36.129422908000038 ], [ -5.512268785999936, 36.138103604000037 ], [ -5.491313817999981, 36.143595248000054 ], [ -5.486561107999933, 36.151538707000043 ], [ -5.478894838999963, 36.155949915000065 ], [ -5.475715807999961, 36.164751867000064 ], [ -5.465762828999971, 36.16805183200006 ], [ -5.456158285999948, 36.163183838000066 ], [ -5.444127065999965, 36.170671868000056 ], [ -5.44175822699998, 36.175267894000058 ], [ -5.430935, 36.172618999000065 ], [ -5.444742930999951, 36.15545436900004 ], [ -5.446275421999928, 36.139606158000049 ], [ -5.443380093999963, 36.132981203000043 ], [ -5.436639034999928, 36.13838553000005 ], [ -5.438659611999981, 36.128153779000058 ], [ -5.432450726999946, 36.126775957000063 ], [ -5.434943696999937, 36.12171889900003 ], [ -5.441455787999928, 36.119818554000062 ], [ -5.431884692999972, 36.106976400000065 ], [ -5.440619582999943, 36.101460608000025 ], [ -5.442836733999968, 36.089023723000025 ], [ -5.428395212999931, 36.08335409700004 ], [ -5.42648162699993, 36.077208562000067 ], [ -5.430190532999973, 36.071401627000057 ], [ -5.442146716999957, 36.065502405000075 ], [ -5.451412158999972, 36.055800975000068 ], [ -5.465745538999954, 36.050518078000039 ], [ -5.48485915699996, 36.054256868000039 ], [ -5.495064499999955, 36.050212999000053 ], [ -5.511477140999943, 36.065458944000056 ], [ -5.524805672999946, 36.096454639000058 ], [ -5.535977929999945, 36.10503063200008 ], [ -5.551728499999967, 36.109329999000067 ] ] ] } },
{ "type": "Feature", "properties": { "code": "11005", "name": "Algodonales" }, "geometry": { "type": "Polygon", "coordinates": [ [ [ -5.305063, 36.876385499000037 ], [ -5.341812138999956, 36.872117356000047 ], [ -5.355500010999947, 36.867838740000025 ], [ -5.368875586999934, 36.861283721000063 ], [ -5.378271216999963, 36.850037856000029 ], [ -5.382795499999929, 36.849784999000065 ], [ -5.393002714999966, 36.857489237000038 ], [ -5.419682633999969, 36.859941209000056 ], [ -5.433084237999935, 36.853682433000074 ], [ -5.451978229999952, 36.851106489000074 ], [ -5.458687790999932, 36.854820937000056 ], [ -5.479935215999944, 36.857324529000039 ], [ -5.509667967999974, 36.855214821000061 ], [ -5.516614151999931, 36.851989195000044 ], [ -5.516889052999943, 36.842807964000031 ], [ -5.52325, 36.83592999900003 ], [ -5.527070574999925, 36.842456115000061 ], [ -5.527305222999928, 36.868028244000072 ], [ -5.533478346999971, 36.884577411000066 ], [ -5.533873, 36.893481999000073 ], [ -5.513452912999981, 36.914154181000072 ], [ -5.502102548999972, 36.920696212000053 ], [ -5.43895, 36.935287999000025 ], [ -5.413658, 36.939793499000075 ], [ -5.402479038999957, 36.939024441000072 ], [ -5.381507628999941, 36.92618062400004 ], [ -5.368877206999969, 36.921849919000067 ], [ -5.353922025999964, 36.912003545000061 ], [ -5.346295509999948, 36.901019353000038 ], [ -5.305063, 36.876385499000037 ] ] ] } },
{ "type": "Feature", "properties": { "code": "11006", "name": "Arcos de la Frontera" }, "geometry": { "type": "Polygon", "coordinates": [ [ [ -5.544368, 36.733123499000044 ], [ -5.532783205999976, 36.718312515000036 ], [ -5.532345499999963, 36.711372499000049 ], [ -5.542545821999965, 36.707807524000032 ], [ -5.530134901999929, 36.699867700000027 ], [ -5.528986, 36.693958499000075 ], [ -5.533628316999966, 36.687795324000035 ], [ -5.533920803999933, 36.677748275000056 ], [ -5.540377, 36.670419499000047 ], [ -5.550081864999925, 36.679014709000057 ], [ -5.573348989999943, 36.684172668000031 ], [ -5.584987757999954, 36.690029362000075 ], [ -5.595893499999931, 36.688889499000027 ], [ -5.600984, 36.687593499000059 ], [ -5.604688499999952, 36.685277499000051 ], [ -5.618115499999931, 36.68064799900003 ], [ -5.65198806099994, 36.676571670000044 ], [ -5.66824407799993, 36.681306888000051 ], [ -5.674823499999945, 36.679441999000062 ], [ -5.691160499999967, 36.657154499000058 ], [ -5.70511941999996, 36.659605426000041 ], [ -5.709341018999964, 36.656059989000028 ], [ -5.708735916999956, 36.650480215000073 ], [ -5.712992790999976, 36.645531615000039 ], [ -5.717747527999961, 36.650198866000039 ], [ -5.726908869999932, 36.647729119000076 ], [ -5.732421645999977, 36.651538067000047 ], [ -5.739653485999952, 36.651761305000036 ], [ -5.748417570999948, 36.658107099000063 ], [ -5.763150904999975, 36.65381158100007 ], [ -5.765722188999973, 36.663564253000061 ], [ -5.77379796699995, 36.664081637000038 ], [ -5.779262857999981, 36.668907920000038 ], [ -5.854283499999951, 36.669633999000041 ], [ -5.872911492999947, 36.677581931000077 ], [ -5.881037589999949, 36.678224328000056 ], [ -5.89042653599995, 36.673832198000071 ], [ -5.903480164999962, 36.676264041000024 ], [ -5.92923150799993, 36.700620015000027 ], [ -5.945072753999966, 36.72687151100007 ], [ -5.940326335999941, 36.734272209000039 ], [ -5.924136160999979, 36.746972349000032 ], [ -5.918447707999974, 36.765435977000038 ], [ -5.92154480499994, 36.79475532500004 ], [ -5.891923734999978, 36.83482607600007 ], [ -5.89111349999996, 36.842223999000055 ], [ -5.888844499999948, 36.843330499000047 ], [ -5.890411499999971, 36.84440599900006 ], [ -5.888886499999956, 36.846805499000027 ], [ -5.869087494999974, 36.843442737000032 ], [ -5.859042900999953, 36.836649230000035 ], [ -5.835602405999964, 36.834509260000061 ], [ -5.824741298999925, 36.828509700000041 ], [ -5.815370954999935, 36.831330652000076 ], [ -5.807109302999947, 36.826311833000034 ], [ -5.79553088199998, 36.82845267700003 ], [ -5.778191554999978, 36.838365217000046 ], [ -5.761087, 36.838321999000073 ], [ -5.757025436999925, 36.833039907000057 ], [ -5.759176116999981, 36.83033994300007 ], [ -5.755154055999981, 36.818033644000025 ], [ -5.743546487999936, 36.806337109000026 ], [ -5.736473565999972, 36.808037174000049 ], [ -5.729019224999945, 36.803143730000045 ], [ -5.716246384999977, 36.807980918000055 ], [ -5.708948315999976, 36.80762820700005 ], [ -5.70681095599997, 36.812021934000029 ], [ -5.702488185999925, 36.813355594000029 ], [ -5.702844208999977, 36.816869226000051 ], [ -5.698178976999941, 36.818792014000053 ], [ -5.698039093999967, 36.824559453000063 ], [ -5.681344166999963, 36.833840430000066 ], [ -5.675539592999939, 36.844850316000077 ], [ -5.6675, 36.851576999000031 ], [ -5.658774240999946, 36.830208897000034 ], [ -5.642428337999945, 36.804569230000027 ], [ -5.641285485999958, 36.788677186000029 ], [ -5.600037499999928, 36.762637999000049 ], [ -5.579943377999939, 36.754566903000068 ], [ -5.55781613399995, 36.734719068000061 ], [ -5.544368, 36.733123499000044 ] ] ] } },
{ "type": "Feature", "properties": { "code": "11007", "name": "Barbate" }, "geometry": { "type": "Polygon", "coordinates": [ [ [ -5.786324499999978, 36.216320999000061 ], [ -5.790646, 36.21228749900007 ], [ -5.795037499999978, 36.200858999000047 ], [ -5.800818, 36.190231499000049 ], [ -5.808055, 36.182186499000068 ], [ -5.817146, 36.174917999000058 ], [ -5.824356, 36.164967499000056 ], [ -5.832404499999939, 36.14786299900004 ], [ -5.839967, 36.134172499000044 ], [ -5.841857, 36.126823499000068 ], [ -5.879799037999931, 36.161494764000054 ], [ -5.915271706999931, 36.184648754000079 ], [ -5.930901340999981, 36.186135807000028 ], [ -5.929562658999942, 36.180451715000061 ], [ -5.946468961999926, 36.185919197000032 ], [ -5.97783697999995, 36.177365295000072 ], [ -6.020917228999963, 36.186131882000041 ], [ -6.033495708999965, 36.181653754000024 ], [ -6.041872100999967, 36.193888861000062 ], [ -6.054826, 36.205783999000062 ], [ -5.997963892999962, 36.216936413000042 ], [ -5.975314821999973, 36.231912255000054 ], [ -5.958514392999973, 36.224449849000052 ], [ -5.949505386999931, 36.223970458000053 ], [ -5.946056706999968, 36.21974451300008 ], [ -5.941204529999936, 36.220344432000047 ], [ -5.941678021999962, 36.229856994000045 ], [ -5.923104800999965, 36.244187988000078 ], [ -5.891265539999949, 36.234184036000045 ], [ -5.88776384099998, 36.242313428000045 ], [ -5.872594155999934, 36.239790326000048 ], [ -5.830787071999964, 36.240297533000046 ], [ -5.786324499999978, 36.216320999000061 ] ] ] } },
{ "type": "Feature", "properties": { "code": "11008", "name": "Barrios, Los" }, "geometry": { "type": "Polygon", "coordinates": [ [ [ -5.695606, 36.214783499000077 ], [ -5.698145859999954, 36.234237452000059 ], [ -5.705985947999977, 36.248172890000035 ], [ -5.699303437999959, 36.253529686000036 ], [ -5.684560266999938, 36.246790032000035 ], [ -5.655638784999951, 36.250557220000076 ], [ -5.646767022999938, 36.266960232000031 ], [ -5.649036039999942, 36.275751348000028 ], [ -5.636074814999972, 36.291943420000052 ], [ -5.627785599999925, 36.297048883000059 ], [ -5.616300499999966, 36.31750499900005 ], [ -5.60520820399995, 36.319086263000031 ], [ -5.583487525999942, 36.334688874000051 ], [ -5.574032428999942, 36.34285658500005 ], [ -5.573403499999927, 36.350371499000062 ], [ -5.560415310999929, 36.347213639000074 ], [ -5.546545486999946, 36.331418814000074 ], [ -5.541236543999958, 36.321017452000035 ], [ -5.533431604999976, 36.318579111000076 ], [ -5.528310304999934, 36.313356599000031 ], [ -5.55350225899997, 36.293839932000026 ], [ -5.55641258199995, 36.282702924000034 ], [ -5.554153399999961, 36.278466150000042 ], [ -5.51984493599997, 36.270695439000065 ], [ -5.514876340999933, 36.263319129000024 ], [ -5.482916863999947, 36.262932475000071 ], [ -5.47481920599995, 36.254189437000036 ], [ -5.460203167999964, 36.253961305000075 ], [ -5.455372957999941, 36.248155009000072 ], [ -5.436718499999927, 36.240814999000065 ], [ -5.439034921999962, 36.228734854000038 ], [ -5.435351900999933, 36.214068490000045 ], [ -5.424976171999958, 36.201609407000035 ], [ -5.424260063999952, 36.194495540000048 ], [ -5.413913, 36.179999999000074 ], [ -5.417063193999979, 36.175820644000055 ], [ -5.423356630999933, 36.176600397000072 ], [ -5.430935, 36.172618999000065 ], [ -5.44175822699998, 36.175267894000058 ], [ -5.444127065999965, 36.170671868000056 ], [ -5.456158285999948, 36.163183838000066 ], [ -5.465762828999971, 36.16805183200006 ], [ -5.475715807999961, 36.164751867000064 ], [ -5.478894838999963, 36.155949915000065 ], [ -5.486561107999933, 36.151538707000043 ], [ -5.491313817999981, 36.143595248000054 ], [ -5.512268785999936, 36.138103604000037 ], [ -5.521734385999935, 36.129422908000038 ], [ -5.536417368999935, 36.130424935000065 ], [ -5.540187561999971, 36.121040160000064 ], [ -5.551728499999967, 36.109329999000067 ], [ -5.575283332999959, 36.111769311000046 ], [ -5.599024923999934, 36.122115835000045 ], [ -5.598261028999957, 36.15499049400006 ], [ -5.60852998699994, 36.16480008700006 ], [ -5.608152817999951, 36.175365115000034 ], [ -5.623348911999926, 36.183606203000068 ], [ -5.627886449999949, 36.190648020000026 ], [ -5.638128753999979, 36.190494593000039 ], [ -5.659278731999962, 36.205510243000049 ], [ -5.672311155999978, 36.197301623000044 ], [ -5.680981533999955, 36.197513909000065 ], [ -5.695606, 36.214783499000077 ] ] ] } },
{ "type": "Feature", "properties": { "code": "11009", "name": "Benaocaz" }, "geometry": { "type": "Polygon", "coordinates": [ [ [ -5.481944, 36.754619499000057 ], [ -5.467673354999931, 36.746192785000062 ], [ -5.454637418999937, 36.745209600000067 ], [ -5.446416033999981, 36.73674112100008 ], [ -5.431659689999947, 36.738489486000049 ], [ -5.419673400999955, 36.746797970000046 ], [ -5.41198867199995, 36.741580084000077 ], [ -5.394812852999962, 36.737656364000031 ], [ -5.391376499999978, 36.733417999000039 ], [ -5.389337397999952, 36.728786974000059 ], [ -5.392067057999952, 36.721990439000024 ], [ -5.389603515999966, 36.716620539000075 ], [ -5.396102084999939, 36.704425291000064 ], [ -5.411570987999937, 36.688789526000051 ], [ -5.395658008999931, 36.666829497000037 ], [ -5.40271, 36.656386999000063 ], [ -5.407220655999936, 36.656582044000061 ], [ -5.424902599999939, 36.680566618000057 ], [ -5.435857968999926, 36.683996034000074 ], [ -5.438537372999974, 36.692958002000069 ], [ -5.45469993599994, 36.691433836000044 ], [ -5.475888554999926, 36.680487656000025 ], [ -5.484271479999961, 36.682228864000024 ], [ -5.488517032999937, 36.692078696000067 ], [ -5.495626609999931, 36.698996303000058 ], [ -5.515786115999958, 36.697903960000076 ], [ -5.528986, 36.693958499000075 ], [ -5.530134901999929, 36.699867700000027 ], [ -5.542545821999965, 36.707807524000032 ], [ -5.499984653999945, 36.723151911000059 ], [ -5.499600517999966, 36.736675548000051 ], [ -5.481944, 36.754619499000057 ] ] ] } },
{ "type": "Feature", "properties": { "code": "11010", "name": "Bornos" }, "geometry": { "type": "Polygon", "coordinates": [ [ [ -5.761087, 36.838321999000073 ], [ -5.755115441999976, 36.853115850000052 ], [ -5.729952860999958, 36.868571918000043 ], [ -5.723447255999929, 36.880989940000063 ], [ -5.709365764999973, 36.89262687300004 ], [ -5.705254499999967, 36.903480499000068 ], [ -5.672920154999929, 36.879972707000036 ], [ -5.663770089999957, 36.865476236000063 ], [ -5.6675, 36.851576999000031 ], [ -5.675539592999939, 36.844850316000077 ], [ -5.681344166999963, 36.833840430000066 ], [ -5.698039093999967, 36.824559453000063 ], [ -5.698178976999941, 36.818792014000053 ], [ -5.702844208999977, 36.816869226000051 ], [ -5.702488185999925, 36.813355594000029 ], [ -5.70681095599997, 36.812021934000029 ], [ -5.708948315999976, 36.80762820700005 ], [ -5.716246384999977, 36.807980918000055 ], [ -5.729019224999945, 36.803143730000045 ], [ -5.736473565999972, 36.808037174000049 ], [ -5.743546487999936, 36.806337109000026 ], [ -5.755154055999981, 36.818033644000025 ], [ -5.759176116999981, 36.83033994300007 ], [ -5.757025436999925, 36.833039907000057 ], [ -5.761087, 36.838321999000073 ] ] ] } },
{ "type": "Feature", "properties": { "code": "11011", "name": "Bosque, El" }, "geometry": { "type": "Polygon", "coordinates": [ [ [ -5.501561, 36.794811499000048 ], [ -5.484202283999934, 36.781752855000036 ], [ -5.480048798999974, 36.77066949400006 ], [ -5.481944, 36.754619499000057 ], [ -5.499600517999966, 36.736675548000051 ], [ -5.499984653999945, 36.723151911000059 ], [ -5.532345499999963, 36.711372499000049 ], [ -5.532783205999976, 36.718312515000036 ], [ -5.544368, 36.733123499000044 ], [ -5.533494635999944, 36.749591396000028 ], [ -5.524764544999925, 36.777808275000041 ], [ -5.515759564999939, 36.787311653000074 ], [ -5.501561, 36.794811499000048 ] ] ] } },
{ "type": "Feature", "properties": { "code": "11012", "name": "Cádiz" }, "geometry": { "type": "MultiPolygon", "coordinates": [ [ [ [ -6.242664, 36.443820999000025 ], [ -6.249249643999974, 36.446870749000027 ], [ -6.260403285999928, 36.474445894000041 ], [ -6.289036861999932, 36.522195466000028 ], [ -6.29536557199998, 36.527380053000059 ], [ -6.304204745999925, 36.529057438000052 ], [ -6.305292647999977, 36.535240239000075 ], [ -6.285675934999972, 36.541893962000074 ], [ -6.288187640999979, 36.534050254000078 ], [ -6.281014969999944, 36.53074687000003 ], [ -6.271921391999967, 36.532906762000039 ], [ -6.278189897999937, 36.524928807000038 ], [ -6.269604046999973, 36.510838281000076 ], [ -6.263089005999973, 36.50776410900005 ], [ -6.256870086999925, 36.499710613000047 ], [ -6.264931717999957, 36.488209672000039 ], [ -6.25756116499997, 36.473520773000075 ], [ -6.252286556999934, 36.467981832000078 ], [ -6.243936420999944, 36.464907676000053 ], [ -6.231573568999977, 36.463421760000074 ], [ -6.226755499999967, 36.466560499000025 ], [ -6.230800430999977, 36.449657965000029 ], [ -6.242664, 36.443820999000025 ] ] ], [ [ [ -6.308673180999961, 36.527884485000072 ], [ -6.317704840999966, 36.526272577000043 ], [ -6.319681302999925, 36.52834053600003 ], [ -6.317266783999969, 36.529919770000049 ], [ -6.308673180999961, 36.527884485000072 ] ] ] ] } },
{ "type": "Feature", "properties": { "code": "11013", "name": "Castellar de la Frontera" }, "geometry": { "type": "Polygon", "coordinates": [ [ [ -5.436718499999927, 36.240814999000065 ], [ -5.455372957999941, 36.248155009000072 ], [ -5.460203167999964, 36.253961305000075 ], [ -5.47481920599995, 36.254189437000036 ], [ -5.482916863999947, 36.262932475000071 ], [ -5.514876340999933, 36.263319129000024 ], [ -5.51984493599997, 36.270695439000065 ], [ -5.554153399999961, 36.278466150000042 ], [ -5.55641258199995, 36.282702924000034 ], [ -5.55350225899997, 36.293839932000026 ], [ -5.528310304999934, 36.313356599000031 ], [ -5.533431604999976, 36.318579111000076 ], [ -5.541236543999958, 36.321017452000035 ], [ -5.546545486999946, 36.331418814000074 ], [ -5.560415310999929, 36.347213639000074 ], [ -5.573403499999927, 36.350371499000062 ], [ -5.57978602999998, 36.355949688000067 ], [ -5.580568, 36.364208999000027 ], [ -5.521390129999929, 36.365267395000046 ], [ -5.471332425999947, 36.372808690000056 ], [ -5.439556541999934, 36.362512676000051 ], [ -5.427154221999956, 36.362148525000066 ], [ -5.419657923999978, 36.348169493000057 ], [ -5.406283499999972, 36.343770499000073 ], [ -5.390894339999932, 36.331526058000065 ], [ -5.36833056699993, 36.331463487000065 ], [ -5.355244, 36.323411999000029 ], [ -5.354317027999969, 36.317407438000032 ], [ -5.360060566999948, 36.310003351000034 ], [ -5.359624882999981, 36.294211248000067 ], [ -5.366461460999972, 36.284673388000044 ], [ -5.386729213999956, 36.279589935000047 ], [ -5.402671075999933, 36.267076590000045 ], [ -5.412038142999961, 36.250279892000037 ], [ -5.425732970999945, 36.247942232000071 ], [ -5.436718499999927, 36.240814999000065 ] ] ] } },
{ "type": "Feature", "properties": { "code": "11014", "name": "Conil de la Frontera" }, "geometry": { "type": "Polygon", "coordinates": [ [ [ -6.162142, 36.330009499000028 ], [ -6.157128, 36.333276499000078 ], [ -6.136823499999934, 36.341008499000054 ], [ -6.049243144999934, 36.345653582000068 ], [ -6.018559993999929, 36.341595787000074 ], [ -6.004562, 36.346484499000042 ], [ -5.994320902999959, 36.340429893000078 ], [ -5.990246511999942, 36.320999850000078 ], [ -5.999305354999933, 36.315309807000062 ], [ -6.008656861999953, 36.31742515600007 ], [ -6.013650602999974, 36.313562439000066 ], [ -6.023518426999942, 36.313756271000045 ], [ -6.037216192999949, 36.303375840000058 ], [ -6.055373322999969, 36.283549717000028 ], [ -6.051486368999974, 36.260303316000034 ], [ -6.060168851999947, 36.253267437000034 ], [ -6.07404315499997, 36.250032285000032 ], [ -6.079208, 36.243178999000065 ], [ -6.08878382499995, 36.265068536000058 ], [ -6.103472972999953, 36.284677221000038 ], [ -6.115207529999964, 36.293683447000035 ], [ -6.132063672999948, 36.296643876000076 ], [ -6.135810043999925, 36.293541292000043 ], [ -6.142980972999965, 36.297038955000062 ], [ -6.151944386999958, 36.308135177000054 ], [ -6.162142, 36.330009499000028 ] ] ] } },
{ "type": "Feature", "properties": { "code": "11015", "name": "Chiclana de la Frontera" }, "geometry": { "type": "Polygon", "coordinates": [ [ [ -6.211368, 36.387473999000065 ], [ -6.210596499999951, 36.389218999000036 ], [ -6.211132, 36.393470999000044 ], [ -6.208495, 36.399931999000046 ], [ -6.213631499999963, 36.411947999000063 ], [ -6.213997499999948, 36.417379999000048 ], [ -6.21243549999997, 36.424732499000072 ], [ -6.207571, 36.434847499000057 ], [ -6.20413, 36.439872999000045 ], [ -6.200828499999943, 36.441295499000034 ], [ -6.198472, 36.440917499000079 ], [ -6.190530499999966, 36.435306999000034 ], [ -6.187422, 36.43418949900007 ], [ -6.184846499999935, 36.434816999000077 ], [ -6.183936, 36.437327999000047 ], [ -6.184409, 36.441140499000028 ], [ -6.181595499999958, 36.443955499000026 ], [ -6.174495, 36.44614449900007 ], [ -6.173347, 36.447857999000064 ], [ -6.17501, 36.449632499000074 ], [ -6.179831, 36.452176999000073 ], [ -6.186932, 36.45976949900006 ], [ -6.170639601999937, 36.456261418000054 ], [ -6.163458372999969, 36.465911852000033 ], [ -6.144374917999926, 36.470847766000077 ], [ -6.104953773999966, 36.463967070000024 ], [ -6.070976, 36.468555499000047 ], [ -6.070971859999929, 36.461215124000034 ], [ -6.035492862999945, 36.423526003000063 ], [ -6.016496690999929, 36.395008400000052 ], [ -5.993761, 36.372866999000053 ], [ -5.998904, 36.369834999000034 ], [ -5.999245499999972, 36.365653999000074 ], [ -6.001359, 36.361511499000073 ], [ -6.002054499999929, 36.357311499000048 ], [ -6.000731, 36.352721999000039 ], [ -6.004562, 36.346484499000042 ], [ -6.018559993999929, 36.341595787000074 ], [ -6.049243144999934, 36.345653582000068 ], [ -6.136823499999934, 36.341008499000054 ], [ -6.157128, 36.333276499000078 ], [ -6.162142, 36.330009499000028 ], [ -6.168661499999928, 36.34715649900005 ], [ -6.182266499999969, 36.368602999000075 ], [ -6.187703499999941, 36.372932499000058 ], [ -6.200909, 36.378650499000059 ], [ -6.211368, 36.387473999000065 ] ] ] } },
{ "type": "Feature", "properties": { "code": "11016", "name": "Chipiona" }, "geometry": { "type": "MultiPolygon", "coordinates": [ [ [ [ -6.370349, 36.734104999000067 ], [ -6.379299596999942, 36.714155531000074 ], [ -6.39498058199996, 36.698944319000077 ], [ -6.421233499999971, 36.690002499000059 ], [ -6.439170734999948, 36.719442945000026 ], [ -6.441938873999959, 36.738038592000066 ], [ -6.430064261999973, 36.747445413000037 ], [ -6.424926093999943, 36.744630293000057 ], [ -6.419713107999939, 36.746384199000033 ], [ -6.408406341999978, 36.760840507000069 ], [ -6.396741499999962, 36.762519999000062 ], [ -6.393612499999961, 36.758211999000025 ], [ -6.380662, 36.751333999000053 ], [ -6.37391, 36.74265249900003 ], [ -6.370349, 36.734104999000067 ] ] ], [ [ [ -6.472618826999962, 36.738990401000024 ], [ -6.469578295999952, 36.736493679000034 ], [ -6.469441621999977, 36.731566160000057 ], [ -6.474559401999954, 36.735433757000067 ], [ -6.472618826999962, 36.738990401000024 ] ] ] ] } },
{ "type": "Feature", "properties": { "code": "11017", "name": "Espera" }, "geometry": { "type": "Polygon", "coordinates": [ [ [ -5.705254499999967, 36.903480499000068 ], [ -5.709365764999973, 36.89262687300004 ], [ -5.723447255999929, 36.880989940000063 ], [ -5.729952860999958, 36.868571918000043 ], [ -5.755115441999976, 36.853115850000052 ], [ -5.761087, 36.838321999000073 ], [ -5.778191554999978, 36.838365217000046 ], [ -5.79553088199998, 36.82845267700003 ], [ -5.807109302999947, 36.826311833000034 ], [ -5.815370954999935, 36.831330652000076 ], [ -5.824741298999925, 36.828509700000041 ], [ -5.835602405999964, 36.834509260000061 ], [ -5.859042900999953, 36.836649230000035 ], [ -5.869087494999974, 36.843442737000032 ], [ -5.888886499999956, 36.846805499000027 ], [ -5.892722545999959, 36.853329376000033 ], [ -5.877956341999948, 36.891203249000057 ], [ -5.875847535999981, 36.89411016400004 ], [ -5.869664, 36.893733999000062 ], [ -5.846807458999933, 36.914053742000078 ], [ -5.831846, 36.915683499000068 ], [ -5.805834896999954, 36.924905246000037 ], [ -5.79006080299996, 36.925774839000042 ], [ -5.76174928699993, 36.92546599800005 ], [ -5.744120711999926, 36.92258393600008 ], [ -5.705254499999967, 36.903480499000068 ] ] ] } },
{ "type": "Feature", "properties": { "code": "11018", "name": "Gastor, El" }, "geometry": { "type": "Polygon", "coordinates": [ [ [ -5.34076, 36.819442999000046 ], [ -5.349488472999951, 36.81398884500004 ], [ -5.36575686499998, 36.811157028000025 ], [ -5.371733916999972, 36.806049851000068 ], [ -5.38055449999996, 36.808173999000076 ], [ -5.374058991999959, 36.811725047000039 ], [ -5.373808676999943, 36.821582032000038 ], [ -5.365304821999928, 36.833357039000077 ], [ -5.366871797999977, 36.838656460000038 ], [ -5.382795499999929, 36.849784999000065 ], [ -5.378271216999963, 36.850037856000029 ], [ -5.368875586999934, 36.861283721000063 ], [ -5.355500010999947, 36.867838740000025 ], [ -5.341812138999956, 36.872117356000047 ], [ -5.305063, 36.876385499000037 ], [ -5.301629, 36.86967099900005 ], [ -5.306332940999937, 36.858198407000032 ], [ -5.314733486999955, 36.855296118000069 ], [ -5.331613705999928, 36.839388492000069 ], [ -5.34076, 36.819442999000046 ] ] ] } },
{ "type": "Feature", "properties": { "code": "11019", "name": "Grazalema" }, "geometry": { "type": "Polygon", "coordinates": [ [ [ -5.292577, 36.771289999000032 ], [ -5.295317499999953, 36.764362499000072 ], [ -5.307575418999932, 36.75038690000008 ], [ -5.313117710999961, 36.734142623000025 ], [ -5.324672, 36.724036999000077 ], [ -5.334884243999966, 36.728900469000052 ], [ -5.343642171999932, 36.721193424000035 ], [ -5.353922169999976, 36.72981702900006 ], [ -5.36272499699993, 36.724749341000063 ], [ -5.37036195099995, 36.73240581400006 ], [ -5.391376499999978, 36.733417999000039 ], [ -5.394812852999962, 36.737656364000031 ], [ -5.41198867199995, 36.741580084000077 ], [ -5.419673400999955, 36.746797970000046 ], [ -5.431659689999947, 36.738489486000049 ], [ -5.446416033999981, 36.73674112100008 ], [ -5.454637418999937, 36.745209600000067 ], [ -5.467673354999931, 36.746192785000062 ], [ -5.481944, 36.754619499000057 ], [ -5.480048798999974, 36.77066949400006 ], [ -5.484202283999934, 36.781752855000036 ], [ -5.501561, 36.794811499000048 ], [ -5.461687144999928, 36.805975143000069 ], [ -5.409447801999931, 36.803616127000055 ], [ -5.38055449999996, 36.808173999000076 ], [ -5.371733916999972, 36.806049851000068 ], [ -5.36575686499998, 36.811157028000025 ], [ -5.349488472999951, 36.81398884500004 ], [ -5.34076, 36.819442999000046 ], [ -5.326829373999942, 36.804705100000035 ], [ -5.319354165999925, 36.786888379000061 ], [ -5.293168631999947, 36.775939053000059 ], [ -5.292577, 36.771289999000032 ] ] ] } },
{ "type": "Feature", "properties": { "code": "11020", "name": "Jerez de la Frontera" }, "geometry": { "type": "MultiPolygon", "coordinates": [ [ [ [ -5.941403, 36.851958999000033 ], [ -5.92541, 36.853099999000051 ], [ -5.914219499999945, 36.850177999000039 ], [ -5.89111349999996, 36.842223999000055 ], [ -5.891923734999978, 36.83482607600007 ], [ -5.92154480499994, 36.79475532500004 ], [ -5.918447707999974, 36.765435977000038 ], [ -5.924136160999979, 36.746972349000032 ], [ -5.940326335999941, 36.734272209000039 ], [ -5.945072753999966, 36.72687151100007 ], [ -5.92923150799993, 36.700620015000027 ], [ -5.903480164999962, 36.676264041000024 ], [ -5.89042653599995, 36.673832198000071 ], [ -5.881037589999949, 36.678224328000056 ], [ -5.872911492999947, 36.677581931000077 ], [ -5.854283499999951, 36.669633999000041 ], [ -5.858098471999938, 36.646647491000067 ], [ -5.852454242999954, 36.590921104000074 ], [ -5.854941212999961, 36.580512149000072 ], [ -5.868937969999934, 36.554079963000049 ], [ -5.85768961499997, 36.550513851000062 ], [ -5.843325754999967, 36.552839143000028 ], [ -5.794779869999957, 36.551856154000063 ], [ -5.773702497999977, 36.56533666200005 ], [ -5.76135705799993, 36.566331912000066 ], [ -5.752494965999972, 36.573129480000034 ], [ -5.728984725999965, 36.583336394000071 ], [ -5.726836675999948, 36.579335465000042 ], [ -5.729880192999929, 36.571289704000037 ], [ -5.723276473999931, 36.567078855000034 ], [ -5.716697746999955, 36.566004692000035 ], [ -5.713161236999952, 36.569166885000072 ], [ -5.708392720999939, 36.568749507000064 ], [ -5.704727672999979, 36.573433478000027 ], [ -5.694495423999967, 36.574980661000041 ], [ -5.689460547999943, 36.563652277000074 ], [ -5.681143747999954, 36.561757500000056 ], [ -5.676629631999958, 36.552919380000048 ], [ -5.669523116999926, 36.552816023000048 ], [ -5.661533283999972, 36.564828052000053 ], [ -5.660328700999969, 36.575626900000032 ], [ -5.666835972999934, 36.598263110000062 ], [ -5.625826944999972, 36.62350701500003 ], [ -5.606639324999946, 36.624294844000076 ], [ -5.593497511999942, 36.640762263000056 ], [ -5.57067873799997, 36.644174274000079 ], [ -5.561382702999936, 36.660381557000051 ], [ -5.547124465999957, 36.662704151000071 ], [ -5.539011, 36.669692999000063 ], [ -5.530223074999981, 36.660049668000056 ], [ -5.511981419999927, 36.655971493000038 ], [ -5.463400127999932, 36.621672852000074 ], [ -5.455961, 36.619613499000025 ], [ -5.460827860999927, 36.590094006000072 ], [ -5.475844252999934, 36.575153506000049 ], [ -5.489269801999967, 36.569756289000054 ], [ -5.501394687999948, 36.548931656000036 ], [ -5.512453448999963, 36.542258119000053 ], [ -5.521754984999973, 36.532358319000025 ], [ -5.536340680999956, 36.528024968000068 ], [ -5.543871033999949, 36.538178790000075 ], [ -5.56550810899995, 36.542272337000043 ], [ -5.57335791099996, 36.547918493000054 ], [ -5.599611770999957, 36.550502698000059 ], [ -5.611095432999946, 36.542255486000045 ], [ -5.606539110999961, 36.524245715000063 ], [ -5.607651499999974, 36.515788499000053 ], [ -5.634797994999929, 36.526694852000048 ], [ -5.663806321999971, 36.544159827000044 ], [ -5.71632464299995, 36.555958270000076 ], [ -5.73845360699994, 36.556096937000063 ], [ -5.792698032999965, 36.549795412000037 ], [ -5.83105, 36.537998499000025 ], [ -5.852525604999926, 36.534769290000042 ], [ -5.896186, 36.53595849900006 ], [ -5.918773499999929, 36.528823999000053 ], [ -5.951536, 36.525726499000029 ], [ -5.974638499999969, 36.520957999000075 ], [ -5.980451, 36.518409999000028 ], [ -5.981993797999962, 36.522075314000062 ], [ -5.996643461999952, 36.529548522000027 ], [ -5.997374278999928, 36.541784733000043 ], [ -5.989694516999975, 36.54662853800005 ], [ -6.004466629999968, 36.559969549000073 ], [ -6.009642957999972, 36.560973760000024 ], [ -6.021722307999937, 36.55029501000007 ], [ -6.041399539999929, 36.562228055000048 ], [ -6.060992655999939, 36.558701127000063 ], [ -6.07192680299994, 36.564369578000026 ], [ -6.101687349999963, 36.566130076000036 ], [ -6.115743812999938, 36.573534857000027 ], [ -6.132063672999948, 36.593289517000073 ], [ -6.152938499999948, 36.600302999000064 ], [ -6.141296379999972, 36.605288132000055 ], [ -6.140672223999957, 36.616958614000055 ], [ -6.156481870999926, 36.638348201000042 ], [ -6.174844665999956, 36.642524308000077 ], [ -6.192999290999978, 36.655672002000074 ], [ -6.20324620599996, 36.657698935000042 ], [ -6.209259776999943, 36.663959039000076 ], [ -6.228162080999937, 36.674145889000044 ], [ -6.238202742999931, 36.68416267300006 ], [ -6.240512398999954, 36.694579588000067 ], [ -6.254787954999927, 36.705268130000036 ], [ -6.274009809999939, 36.708595397000067 ], [ -6.303410499999927, 36.71869349900004 ], [ -6.304912774999934, 36.727119238000057 ], [ -6.29492189299998, 36.742869818000031 ], [ -6.294301462999954, 36.751914795000062 ], [ -6.271455585999945, 36.780993476000049 ], [ -6.270504383999935, 36.790386582000053 ], [ -6.243768308999961, 36.789015232000054 ], [ -6.238944637999964, 36.793085307000069 ], [ -6.233101104999946, 36.809906623000074 ], [ -6.226918145999946, 36.818588791000025 ], [ -6.203743, 36.829253999000059 ], [ -6.195154454999965, 36.835902642000065 ], [ -6.158291615999929, 36.851252552000062 ], [ -6.132063672999948, 36.854476330000068 ], [ -6.122056499999928, 36.863818999000046 ], [ -6.104509499999949, 36.857288499000049 ], [ -6.085761, 36.854522499000041 ], [ -6.080599, 36.855262999000047 ], [ -6.051027020999925, 36.853330670000048 ], [ -6.02293814199993, 36.847697093000079 ], [ -5.97411571899994, 36.844766155000059 ], [ -5.956419701999948, 36.852353828000048 ], [ -5.941403, 36.851958999000033 ] ] ], [ [ [ -5.674823499999945, 36.679441999000062 ], [ -5.66824407799993, 36.681306888000051 ], [ -5.65198806099994, 36.676571670000044 ], [ -5.618115499999931, 36.68064799900003 ], [ -5.620966155999952, 36.674446815000067 ], [ -5.640254852999931, 36.666436274000034 ], [ -5.649945225999943, 36.665939346000073 ], [ -5.663291293999976, 36.668268416000046 ], [ -5.674823499999945, 36.679441999000062 ] ] ] ] } },
{ "type": "Feature", "properties": { "code": "11021", "name": "Jimena de la Frontera" }, "geometry": { "type": "Polygon", "coordinates": [ [ [ -5.406283499999972, 36.343770499000073 ], [ -5.419657923999978, 36.348169493000057 ], [ -5.427154221999956, 36.362148525000066 ], [ -5.439556541999934, 36.362512676000051 ], [ -5.471332425999947, 36.372808690000056 ], [ -5.521390129999929, 36.365267395000046 ], [ -5.580568, 36.364208999000027 ], [ -5.587411974999952, 36.37702914700003 ], [ -5.589449213999956, 36.390479199000026 ], [ -5.570843883999942, 36.441128816000059 ], [ -5.559803, 36.503715999000065 ], [ -5.534869474999937, 36.503107743000044 ], [ -5.523287649999929, 36.499086175000059 ], [ -5.516020043999958, 36.501767946000029 ], [ -5.512525075999974, 36.511522675000037 ], [ -5.490167072999952, 36.536749029000077 ], [ -5.472970251999925, 36.536652239000034 ], [ -5.466149586999961, 36.529819811000038 ], [ -5.460920512999962, 36.536733979000076 ], [ -5.456037608999964, 36.53810334800005 ], [ -5.432205646999932, 36.534331979000058 ], [ -5.423930054999971, 36.524212552000051 ], [ -5.412904, 36.520338999000046 ], [ -5.409194974999934, 36.497389128000066 ], [ -5.399473336999961, 36.484569814000054 ], [ -5.395158677999973, 36.469829464000043 ], [ -5.373653070999978, 36.45287628300008 ], [ -5.355494, 36.433819499000037 ], [ -5.356431209999926, 36.424120296000069 ], [ -5.347854043999973, 36.41866294600004 ], [ -5.344153, 36.412311499000054 ], [ -5.351840916999947, 36.403799336000077 ], [ -5.359104706999972, 36.404069757000059 ], [ -5.359523774999957, 36.396689886000047 ], [ -5.365328036999927, 36.390325182000026 ], [ -5.365753314999949, 36.384244483000032 ], [ -5.375711598999942, 36.376112806000037 ], [ -5.389473566999925, 36.376822418000074 ], [ -5.408366314999967, 36.385703966000051 ], [ -5.414722788999939, 36.383037681000076 ], [ -5.408187335999969, 36.376157603000024 ], [ -5.412346136999929, 36.369004347000043 ], [ -5.406283499999972, 36.343770499000073 ] ] ] } },
{ "type": "Feature", "properties": { "code": "11022", "name": "Línea de la Concepción, La" }, "geometry": { "type": "Polygon", "coordinates": [ [ [ -5.370684, 36.169215999000073 ], [ -5.365643991999946, 36.176982440000074 ], [ -5.359370107999951, 36.180757430000028 ], [ -5.36018497699996, 36.214818699000034 ], [ -5.347000540999943, 36.226017001000059 ], [ -5.34489446799995, 36.236771041000054 ], [ -5.339926323999975, 36.24408194800003 ], [ -5.326303552999946, 36.245755372000076 ], [ -5.310619499999973, 36.238260499000035 ], [ -5.317552874999933, 36.22782585300007 ], [ -5.328759829999967, 36.198139138000045 ], [ -5.339763226999935, 36.152841724000041 ], [ -5.350649524999938, 36.153023720000078 ], [ -5.358847499999968, 36.163104521000037 ], [ -5.370684, 36.169215999000073 ] ] ] } },
{ "type": "Feature", "properties": { "code": "11023", "name": "Medina Sidonia" }, "geometry": { "type": "Polygon", "coordinates": [ [ [ -6.070976, 36.468555499000047 ], [ -6.063688499999955, 36.473927499000069 ], [ -6.05510049999998, 36.475880499000027 ], [ -6.044865499999958, 36.479746999000042 ], [ -6.024947, 36.491574999000079 ], [ -6.019422499999962, 36.492862499000069 ], [ -6.01403, 36.497343499000067 ], [ -6.005695, 36.501640999000074 ], [ -5.993694, 36.510892499000079 ], [ -5.982850499999927, 36.517645999000024 ], [ -5.976713, 36.520301999000026 ], [ -5.951536, 36.525726499000029 ], [ -5.918773499999929, 36.528823999000053 ], [ -5.896186, 36.53595849900006 ], [ -5.887055499999974, 36.529410499000051 ], [ -5.883745, 36.525600999000062 ], [ -5.876429, 36.52136499900007 ], [ -5.869669, 36.519315499000072 ], [ -5.865633499999944, 36.517104999000026 ], [ -5.851911, 36.505321999000046 ], [ -5.841366499999936, 36.498545499000045 ], [ -5.818819781999935, 36.477386997000053 ], [ -5.809077388999981, 36.444773912000073 ], [ -5.806475587999955, 36.42837366200007 ], [ -5.808111622999945, 36.422430736000024 ], [ -5.798281732999953, 36.412222563000057 ], [ -5.790004760999977, 36.391710551000074 ], [ -5.798510499999963, 36.366974999000035 ], [ -5.80680977999998, 36.371682647000057 ], [ -5.814921451999965, 36.367453180000041 ], [ -5.836409473999936, 36.368135149000068 ], [ -5.842837535999934, 36.351182192000067 ], [ -5.836105056999941, 36.337737598000047 ], [ -5.84008939499995, 36.330154218000075 ], [ -5.835726674999933, 36.325844201000052 ], [ -5.82058955499997, 36.326504862000036 ], [ -5.810870681999972, 36.331577339000034 ], [ -5.804127152999968, 36.329443713000046 ], [ -5.796453619999966, 36.295602584000051 ], [ -5.777900278999937, 36.299508658000036 ], [ -5.774090633999947, 36.30375282600005 ], [ -5.756136744999935, 36.296799194000073 ], [ -5.753407252999978, 36.297945076000076 ], [ -5.755328032999955, 36.302107251000052 ], [ -5.742046314999925, 36.303517551000027 ], [ -5.730408620999981, 36.308502219000047 ], [ -5.718073026999946, 36.300388177000059 ], [ -5.70755528899997, 36.303954179000073 ], [ -5.706648085999973, 36.314993992000041 ], [ -5.710799410999925, 36.324420760000066 ], [ -5.706571499999939, 36.339421999000024 ], [ -5.68009809199998, 36.331406594000043 ], [ -5.648307744999954, 36.331544189000056 ], [ -5.636247201999936, 36.324166494000053 ], [ -5.616300499999966, 36.31750499900005 ], [ -5.627785599999925, 36.297048883000059 ], [ -5.636074814999972, 36.291943420000052 ], [ -5.649036039999942, 36.275751348000028 ], [ -5.646767022999938, 36.266960232000031 ], [ -5.655638784999951, 36.250557220000076 ], [ -5.684560266999938, 36.246790032000035 ], [ -5.699303437999959, 36.253529686000036 ], [ -5.705985947999977, 36.248172890000035 ], [ -5.698145859999954, 36.234237452000059 ], [ -5.695606, 36.214783499000077 ], [ -5.704478499999937, 36.222453999000038 ], [ -5.738061499999958, 36.245859999000061 ], [ -5.749667, 36.257157499000073 ], [ -5.767470499999945, 36.264766499000075 ], [ -5.791475, 36.25204099900003 ], [ -5.864809284999978, 36.324916481000059 ], [ -5.886609143999976, 36.341548747000047 ], [ -5.914827448999972, 36.354586753000035 ], [ -5.939258449999954, 36.360355046000052 ], [ -5.976836753999976, 36.374246112000037 ], [ -5.984989852999945, 36.375654498000074 ], [ -5.993761, 36.372866999000053 ], [ -6.016496690999929, 36.395008400000052 ], [ -6.035492862999945, 36.423526003000063 ], [ -6.070971859999929, 36.461215124000034 ], [ -6.070976, 36.468555499000047 ] ] ] } },
{ "type": "Feature", "properties": { "code": "11024", "name": "Olvera" }, "geometry": { "type": "Polygon", "coordinates": [ [ [ -5.305063, 36.876385499000037 ], [ -5.346295509999948, 36.901019353000038 ], [ -5.353922025999964, 36.912003545000061 ], [ -5.368877206999969, 36.921849919000067 ], [ -5.381507628999941, 36.92618062400004 ], [ -5.402479038999957, 36.939024441000072 ], [ -5.413658, 36.939793499000075 ], [ -5.416179651999926, 36.945470722000039 ], [ -5.41255386399996, 36.954208176000066 ], [ -5.391460699999925, 36.973845778000054 ], [ -5.362221832999978, 36.985935590000054 ], [ -5.358666870999969, 36.992690617000051 ], [ -5.345344031999957, 36.99810433600004 ], [ -5.339693, 37.004592999000067 ], [ -5.334895167999946, 37.013734531000068 ], [ -5.302151499999979, 37.03739549900007 ], [ -5.300230023999973, 37.014618502000076 ], [ -5.274758428999974, 36.990953428000068 ], [ -5.256420981999952, 36.964195979000067 ], [ -5.234188757999959, 36.941454371000077 ], [ -5.225336752999965, 36.942972517000044 ], [ -5.205369141999938, 36.962870578000036 ], [ -5.193492370999934, 36.965927739000051 ], [ -5.163694481999926, 36.981366937000075 ], [ -5.158440499999926, 36.98934949900007 ], [ -5.148042499999974, 36.997108499000035 ], [ -5.142423, 37.003890999000077 ], [ -5.114477325999928, 36.987844566000035 ], [ -5.111296802999959, 36.97615938000007 ], [ -5.097258144999955, 36.97006650600008 ], [ -5.09849255599994, 36.966014083000061 ], [ -5.124807137999937, 36.951372147000029 ], [ -5.137928774999978, 36.95152328000006 ], [ -5.142934041999979, 36.946728832000076 ], [ -5.14840933399995, 36.94964720300004 ], [ -5.153659019999964, 36.945275563000052 ], [ -5.178477092999969, 36.941211120000048 ], [ -5.200663, 36.928432499000053 ], [ -5.217905135999956, 36.935360866000053 ], [ -5.247133437999935, 36.922412629000064 ], [ -5.253385894999951, 36.913362302000053 ], [ -5.25609548999995, 36.900187565000067 ], [ -5.269821, 36.884242999000037 ], [ -5.289321, 36.873087499000064 ], [ -5.301629, 36.86967099900005 ], [ -5.305063, 36.876385499000037 ] ] ] } },
{ "type": "Feature", "properties": { "code": "11025", "name": "Paterna de Rivera" }, "geometry": { "type": "Polygon", "coordinates": [ [ [ -5.83105, 36.537998499000025 ], [ -5.829886033999969, 36.512379427000042 ], [ -5.83951449999995, 36.496887499000024 ], [ -5.851911, 36.505321999000046 ], [ -5.865633499999944, 36.517104999000026 ], [ -5.869669, 36.519315499000072 ], [ -5.876429, 36.52136499900007 ], [ -5.883745, 36.525600999000062 ], [ -5.887055499999974, 36.529410499000051 ], [ -5.896186, 36.53595849900006 ], [ -5.852525604999926, 36.534769290000042 ], [ -5.83105, 36.537998499000025 ] ] ] } },
{ "type": "Feature", "properties": { "code": "11026", "name": "Prado del Rey" }, "geometry": { "type": "Polygon", "coordinates": [ [ [ -5.600037499999928, 36.762637999000049 ], [ -5.581221119999952, 36.787870650000059 ], [ -5.568514501999971, 36.789144914000076 ], [ -5.565019995999933, 36.792896308000024 ], [ -5.55486743199998, 36.794774503000042 ], [ -5.553223117999948, 36.807732697000063 ], [ -5.555921326999965, 36.819738549000078 ], [ -5.553857049999976, 36.823539393000033 ], [ -5.52325, 36.83592999900003 ], [ -5.502589317999934, 36.807324580000056 ], [ -5.501561, 36.794811499000048 ], [ -5.515759564999939, 36.787311653000074 ], [ -5.524764544999925, 36.777808275000041 ], [ -5.533494635999944, 36.749591396000028 ], [ -5.544368, 36.733123499000044 ], [ -5.55781613399995, 36.734719068000061 ], [ -5.579943377999939, 36.754566903000068 ], [ -5.600037499999928, 36.762637999000049 ] ] ] } },
{ "type": "Feature", "properties": { "code": "11027", "name": "Puerto de Santa María, El" }, "geometry": { "type": "Polygon", "coordinates": [ [ [ -6.303410499999927, 36.71869349900004 ], [ -6.274009809999939, 36.708595397000067 ], [ -6.254787954999927, 36.705268130000036 ], [ -6.240512398999954, 36.694579588000067 ], [ -6.238202742999931, 36.68416267300006 ], [ -6.228162080999937, 36.674145889000044 ], [ -6.209259776999943, 36.663959039000076 ], [ -6.20324620599996, 36.657698935000042 ], [ -6.192999290999978, 36.655672002000074 ], [ -6.174844665999956, 36.642524308000077 ], [ -6.156481870999926, 36.638348201000042 ], [ -6.140672223999957, 36.616958614000055 ], [ -6.141296379999972, 36.605288132000055 ], [ -6.152938499999948, 36.600302999000064 ], [ -6.15589010399998, 36.594238257000029 ], [ -6.152209827999968, 36.581140349000066 ], [ -6.159670511999934, 36.57883088400007 ], [ -6.169333967999933, 36.569925393000062 ], [ -6.162994721999951, 36.565722531000063 ], [ -6.16344115499993, 36.562181184000053 ], [ -6.174988776999953, 36.561488112000063 ], [ -6.181234712999981, 36.569192223000073 ], [ -6.194821555999965, 36.565888207000057 ], [ -6.19055700399997, 36.578155099000071 ], [ -6.197348639999973, 36.580314749000024 ], [ -6.205193399999928, 36.577814084000067 ], [ -6.210911961999955, 36.571592194000061 ], [ -6.207002801999977, 36.555869244000064 ], [ -6.21392807999996, 36.535617788000025 ], [ -6.221661937999954, 36.528646059000039 ], [ -6.233513499999958, 36.528995499000075 ], [ -6.224551423999969, 36.560639912000056 ], [ -6.228496780999933, 36.577211215000034 ], [ -6.238983400999928, 36.580931631000055 ], [ -6.247321621999959, 36.574302412000065 ], [ -6.24022787499996, 36.582135676000064 ], [ -6.243009489999963, 36.584959534000063 ], [ -6.254686142999958, 36.578424424000048 ], [ -6.265374265999981, 36.580834773000049 ], [ -6.279978639999968, 36.603011371000036 ], [ -6.299046, 36.617545999000072 ], [ -6.305871683999953, 36.636503299000026 ], [ -6.29806674699995, 36.652927093000073 ], [ -6.302331243999959, 36.658108196000057 ], [ -6.313345140999957, 36.663499920000049 ], [ -6.313301926999941, 36.66734015000003 ], [ -6.307309305999979, 36.669788621000066 ], [ -6.307282491999956, 36.676651811000056 ], [ -6.313171394999927, 36.685258354000041 ], [ -6.314698800999963, 36.696132523000074 ], [ -6.323631499999976, 36.702857499000061 ], [ -6.313654941999971, 36.714128512000059 ], [ -6.303410499999927, 36.71869349900004 ] ] ] } },
{ "type": "Feature", "properties": { "code": "11028", "name": "Puerto Real" }, "geometry": { "type": "Polygon", "coordinates": [ [ [ -5.980451, 36.518409999000028 ], [ -5.982850499999927, 36.517645999000024 ], [ -5.993694, 36.510892499000079 ], [ -6.005695, 36.501640999000074 ], [ -6.01403, 36.497343499000067 ], [ -6.019422499999962, 36.492862499000069 ], [ -6.024947, 36.491574999000079 ], [ -6.044865499999958, 36.479746999000042 ], [ -6.05510049999998, 36.475880499000027 ], [ -6.063688499999955, 36.473927499000069 ], [ -6.070976, 36.468555499000047 ], [ -6.104953773999966, 36.463967070000024 ], [ -6.144374917999926, 36.470847766000077 ], [ -6.163458372999969, 36.465911852000033 ], [ -6.170639601999937, 36.456261418000054 ], [ -6.186932, 36.45976949900006 ], [ -6.188539705999972, 36.464408279000054 ], [ -6.169438887999945, 36.49339225500006 ], [ -6.178714137999975, 36.500963643000034 ], [ -6.180331, 36.507973499000059 ], [ -6.172864363999963, 36.510964651000052 ], [ -6.172538686999928, 36.517423167000061 ], [ -6.17472377699994, 36.521690941000031 ], [ -6.183641991999934, 36.524750619000031 ], [ -6.198495679999951, 36.526370020000059 ], [ -6.197777652999946, 36.521728836000079 ], [ -6.208270284999969, 36.510022501000037 ], [ -6.219184870999925, 36.509553940000046 ], [ -6.232225958999948, 36.50430762700006 ], [ -6.246229415999949, 36.510073230000046 ], [ -6.249170006999975, 36.513798099000041 ], [ -6.247449876999951, 36.517018879000034 ], [ -6.256462577999969, 36.522516264000046 ], [ -6.254716733999942, 36.528660464000041 ], [ -6.23488883999994, 36.526169371000037 ], [ -6.233513499999958, 36.528995499000075 ], [ -6.221661937999954, 36.528646059000039 ], [ -6.21392807999996, 36.535617788000025 ], [ -6.207002801999977, 36.555869244000064 ], [ -6.210911961999955, 36.571592194000061 ], [ -6.205193399999928, 36.577814084000067 ], [ -6.197348639999973, 36.580314749000024 ], [ -6.19055700399997, 36.578155099000071 ], [ -6.194821555999965, 36.565888207000057 ], [ -6.181234712999981, 36.569192223000073 ], [ -6.174988776999953, 36.561488112000063 ], [ -6.16344115499993, 36.562181184000053 ], [ -6.162994721999951, 36.565722531000063 ], [ -6.169333967999933, 36.569925393000062 ], [ -6.159670511999934, 36.57883088400007 ], [ -6.152209827999968, 36.581140349000066 ], [ -6.15589010399998, 36.594238257000029 ], [ -6.152938499999948, 36.600302999000064 ], [ -6.132063672999948, 36.593289517000073 ], [ -6.115743812999938, 36.573534857000027 ], [ -6.101687349999963, 36.566130076000036 ], [ -6.07192680299994, 36.564369578000026 ], [ -6.060992655999939, 36.558701127000063 ], [ -6.041399539999929, 36.562228055000048 ], [ -6.021722307999937, 36.55029501000007 ], [ -6.009642957999972, 36.560973760000024 ], [ -6.004466629999968, 36.559969549000073 ], [ -5.989694516999975, 36.54662853800005 ], [ -5.997374278999928, 36.541784733000043 ], [ -5.996643461999952, 36.529548522000027 ], [ -5.981993797999962, 36.522075314000062 ], [ -5.980451, 36.518409999000028 ] ] ] } },
{ "type": "Feature", "properties": { "code": "11029", "name": "Puerto Serrano" }, "geometry": { "type": "Polygon", "coordinates": [ [ [ -5.511037499999929, 37.033634499000073 ], [ -5.500156499999946, 37.039119499000037 ], [ -5.496927, 37.039725999000041 ], [ -5.488804, 37.039870999000073 ], [ -5.473164, 37.04297249900003 ], [ -5.464898499999947, 37.040793999000073 ], [ -5.462744499999928, 37.041263499000024 ], [ -5.459027, 37.042411499000025 ], [ -5.447957499999973, 37.05024699900008 ], [ -5.441918499999929, 37.049533999000062 ], [ -5.439606499999968, 37.051040499000067 ], [ -5.433409499999925, 37.052421499000047 ], [ -5.427788, 37.044604999000057 ], [ -5.426827499999945, 37.040290999000035 ], [ -5.427087, 37.037471999000047 ], [ -5.421481, 37.024493999000072 ], [ -5.420133499999963, 37.013587999000038 ], [ -5.433946082999967, 36.992643122000061 ], [ -5.459759737999946, 36.976705072000073 ], [ -5.454582463999941, 36.962266612000064 ], [ -5.447516700999927, 36.95714143500004 ], [ -5.44559947099998, 36.947057233000066 ], [ -5.43895, 36.935287999000025 ], [ -5.502102548999972, 36.920696212000053 ], [ -5.513452912999981, 36.914154181000072 ], [ -5.533873, 36.893481999000073 ], [ -5.539005, 36.903980499000056 ], [ -5.539416499999959, 36.907024499000045 ], [ -5.550906, 36.923152999000024 ], [ -5.545127504999925, 36.929784188000042 ], [ -5.536079914999959, 36.930505865000043 ], [ -5.53173557599996, 36.935686004000047 ], [ -5.524879713999951, 36.938084074000074 ], [ -5.512776862999942, 36.956832036000037 ], [ -5.503389551999931, 36.958726635000062 ], [ -5.493683732999955, 36.970573889000036 ], [ -5.480941852999933, 36.97326051500005 ], [ -5.470297797999933, 36.984094778000042 ], [ -5.47167122299993, 36.992914582000026 ], [ -5.494873502999951, 37.011775101000069 ], [ -5.511037499999929, 37.033634499000073 ] ] ] } },
{ "type": "Feature", "properties": { "code": "11030", "name": "Rota" }, "geometry": { "type": "Polygon", "coordinates": [ [ [ -6.370349, 36.734104999000067 ], [ -6.361134788999948, 36.723444224000048 ], [ -6.323631499999976, 36.702857499000061 ], [ -6.314698800999963, 36.696132523000074 ], [ -6.313171394999927, 36.685258354000041 ], [ -6.307282491999956, 36.676651811000056 ], [ -6.307309305999979, 36.669788621000066 ], [ -6.313301926999941, 36.66734015000003 ], [ -6.313345140999957, 36.663499920000049 ], [ -6.302331243999959, 36.658108196000057 ], [ -6.29806674699995, 36.652927093000073 ], [ -6.305871683999953, 36.636503299000026 ], [ -6.299046, 36.617545999000072 ], [ -6.305388187999938, 36.617892539000024 ], [ -6.318487241999946, 36.612810133000039 ], [ -6.314273994999951, 36.617315451000024 ], [ -6.315846123999961, 36.62199288000005 ], [ -6.33038918799997, 36.623925647000078 ], [ -6.334055026999977, 36.621142249000059 ], [ -6.331109518999938, 36.616102939000029 ], [ -6.337109563999945, 36.624617192000073 ], [ -6.343185183999935, 36.625807889000043 ], [ -6.354325624999944, 36.622049927000035 ], [ -6.358589430999928, 36.61567191000006 ], [ -6.388039087999971, 36.629058500000042 ], [ -6.394503855999972, 36.634781382000028 ], [ -6.39366228199998, 36.644225482000024 ], [ -6.399248943999964, 36.658455676000074 ], [ -6.405222838999975, 36.663207346000036 ], [ -6.421233499999971, 36.690002499000059 ], [ -6.39498058199996, 36.698944319000077 ], [ -6.379299596999942, 36.714155531000074 ], [ -6.370349, 36.734104999000067 ] ] ] } },
{ "type": "Feature", "properties": { "code": "11031", "name": "San Fernando" }, "geometry": { "type": "MultiPolygon", "coordinates": [ [ [ [ -6.211368, 36.387473999000065 ], [ -6.214119, 36.390128999000069 ], [ -6.218813, 36.392589499000053 ], [ -6.218227499999955, 36.399741999000071 ], [ -6.223018, 36.412910499000077 ], [ -6.231282499999963, 36.427772499000071 ], [ -6.234457, 36.436309999000059 ], [ -6.236825, 36.439353999000048 ], [ -6.242664, 36.443820999000025 ], [ -6.230800430999977, 36.449657965000029 ], [ -6.226755499999967, 36.466560499000025 ], [ -6.214363663999961, 36.469233013000064 ], [ -6.211831568999969, 36.472755994000067 ], [ -6.212307881999948, 36.480513367000071 ], [ -6.194145505999927, 36.487122328000055 ], [ -6.191526793999969, 36.498729466000043 ], [ -6.180331, 36.507973499000059 ], [ -6.178714137999975, 36.500963643000034 ], [ -6.169438887999945, 36.49339225500006 ], [ -6.188539705999972, 36.464408279000054 ], [ -6.186932, 36.45976949900006 ], [ -6.183581499999946, 36.455665999000075 ], [ -6.173347, 36.447857999000064 ], [ -6.174495, 36.44614449900007 ], [ -6.181595499999958, 36.443955499000026 ], [ -6.184409, 36.441140499000028 ], [ -6.183936, 36.437327999000047 ], [ -6.184846499999935, 36.434816999000077 ], [ -6.187422, 36.43418949900007 ], [ -6.190530499999966, 36.435306999000034 ], [ -6.198472, 36.440917499000079 ], [ -6.200828499999943, 36.441295499000034 ], [ -6.20413, 36.439872999000045 ], [ -6.207571, 36.434847499000057 ], [ -6.21243549999997, 36.424732499000072 ], [ -6.213997499999948, 36.417379999000048 ], [ -6.213631499999963, 36.411947999000063 ], [ -6.208495, 36.399931999000046 ], [ -6.211132, 36.393470999000044 ], [ -6.210596499999951, 36.389218999000036 ], [ -6.211368, 36.387473999000065 ] ] ], [ [ [ -6.219708872999945, 36.377587636000044 ], [ -6.217516019999948, 36.377135319000047 ], [ -6.218375146999961, 36.373874330000035 ], [ -6.221212012999956, 36.378669025000079 ], [ -6.227206342999978, 36.402054669000051 ], [ -6.219708872999945, 36.377587636000044 ] ] ] ] } },
{ "type": "Feature", "properties": { "code": "11032", "name": "Sanlúcar de Barrameda" }, "geometry": { "type": "Polygon", "coordinates": [ [ [ -6.396741499999962, 36.762519999000062 ], [ -6.344408628999929, 36.793081968000024 ], [ -6.345561, 36.798766999000065 ], [ -6.343853034999938, 36.80029968000008 ], [ -6.342613246999974, 36.806300019000048 ], [ -6.344723251999937, 36.815344010000047 ], [ -6.351519348999943, 36.824878181000031 ], [ -6.352835132999928, 36.82894026200006 ], [ -6.35394918399993, 36.839149596000027 ], [ -6.353016896999975, 36.85683619200006 ], [ -6.345696854999971, 36.88829197900003 ], [ -6.339693418999957, 36.895337484000038 ], [ -6.331072499999948, 36.898837999000079 ], [ -6.301415, 36.904584999000065 ], [ -6.299053, 36.906378499000027 ], [ -6.289645499999949, 36.89319449900006 ], [ -6.28951, 36.88886099900003 ], [ -6.283711, 36.880393999000034 ], [ -6.282434, 36.875697999000067 ], [ -6.284243, 36.861951499000043 ], [ -6.280735499999935, 36.856935499000031 ], [ -6.264151499999969, 36.847350499000072 ], [ -6.257877, 36.846005499000057 ], [ -6.251591499999961, 36.847697499000049 ], [ -6.241852, 36.852151999000057 ], [ -6.218935, 36.849292999000056 ], [ -6.203743, 36.829253999000059 ], [ -6.226918145999946, 36.818588791000025 ], [ -6.233101104999946, 36.809906623000074 ], [ -6.238944637999964, 36.793085307000069 ], [ -6.243768308999961, 36.789015232000054 ], [ -6.270504383999935, 36.790386582000053 ], [ -6.271455585999945, 36.780993476000049 ], [ -6.294301462999954, 36.751914795000062 ], [ -6.29492189299998, 36.742869818000031 ], [ -6.304912774999934, 36.727119238000057 ], [ -6.303410499999927, 36.71869349900004 ], [ -6.313654941999971, 36.714128512000059 ], [ -6.323631499999976, 36.702857499000061 ], [ -6.361134788999948, 36.723444224000048 ], [ -6.370349, 36.734104999000067 ], [ -6.37391, 36.74265249900003 ], [ -6.380662, 36.751333999000053 ], [ -6.393612499999961, 36.758211999000025 ], [ -6.396741499999962, 36.762519999000062 ] ] ] } },
{ "type": "Feature", "properties": { "code": "11033", "name": "San Roque" }, "geometry": { "type": "Polygon", "coordinates": [ [ [ -5.413913, 36.179999999000074 ], [ -5.424260063999952, 36.194495540000048 ], [ -5.424976171999958, 36.201609407000035 ], [ -5.435351900999933, 36.214068490000045 ], [ -5.439034921999962, 36.228734854000038 ], [ -5.436718499999927, 36.240814999000065 ], [ -5.425732970999945, 36.247942232000071 ], [ -5.412038142999961, 36.250279892000037 ], [ -5.402671075999933, 36.267076590000045 ], [ -5.386729213999956, 36.279589935000047 ], [ -5.366461460999972, 36.284673388000044 ], [ -5.359624882999981, 36.294211248000067 ], [ -5.360060566999948, 36.310003351000034 ], [ -5.354317027999969, 36.317407438000032 ], [ -5.355244, 36.323411999000029 ], [ -5.33239150199995, 36.329185820000077 ], [ -5.327735536999967, 36.325324736000027 ], [ -5.320127499999955, 36.325084999000069 ], [ -5.291325006999955, 36.336672004000036 ], [ -5.28017299499993, 36.337308497000038 ], [ -5.267793171999926, 36.324833389000048 ], [ -5.258830172999978, 36.321184840000058 ], [ -5.252405, 36.311275499000033 ], [ -5.269409865999933, 36.298023862000036 ], [ -5.270693254999969, 36.291045736000058 ], [ -5.29601443699994, 36.246536513000024 ], [ -5.310619499999973, 36.238260499000035 ], [ -5.326303552999946, 36.245755372000076 ], [ -5.339926323999975, 36.24408194800003 ], [ -5.34489446799995, 36.236771041000054 ], [ -5.347000540999943, 36.226017001000059 ], [ -5.36018497699996, 36.214818699000034 ], [ -5.359370107999951, 36.180757430000028 ], [ -5.365643991999946, 36.176982440000074 ], [ -5.370684, 36.169215999000073 ], [ -5.380831475999969, 36.169699580000042 ], [ -5.380339848999938, 36.175696333000076 ], [ -5.385421648999966, 36.179765358000054 ], [ -5.395213386999956, 36.180434757000057 ], [ -5.398828948999949, 36.177251581000064 ], [ -5.403556818999959, 36.18042678300003 ], [ -5.413913, 36.179999999000074 ] ] ] } },
{ "type": "Feature", "properties": { "code": "11034", "name": "Setenil de las Bodegas" }, "geometry": { "type": "Polygon", "coordinates": [ [ [ -5.091822499999978, 36.921062499000072 ], [ -5.092497561999949, 36.912282996000044 ], [ -5.088048053999955, 36.904813349000051 ], [ -5.103709571999957, 36.898378641000079 ], [ -5.103115603999925, 36.892599713000038 ], [ -5.110170472999926, 36.887878031000071 ], [ -5.112852165999925, 36.874752059000059 ], [ -5.131344786999932, 36.841704839000045 ], [ -5.169704632999981, 36.824117784000066 ], [ -5.186216932999969, 36.828501804000041 ], [ -5.202895271999978, 36.838353146000031 ], [ -5.220223865999969, 36.842277462000027 ], [ -5.227573960999962, 36.85830426900003 ], [ -5.263517113999967, 36.873719460000075 ], [ -5.269821, 36.884242999000037 ], [ -5.246668378999971, 36.891989442000067 ], [ -5.225239109999961, 36.892721545000029 ], [ -5.216982261999931, 36.895927423000046 ], [ -5.209889112999974, 36.904550627000049 ], [ -5.200663, 36.928432499000053 ], [ -5.196805548999976, 36.919083028000045 ], [ -5.196504254999979, 36.902400174000036 ], [ -5.19290407799997, 36.892469384000037 ], [ -5.185907515999929, 36.887336598000047 ], [ -5.16810550699995, 36.885965513000031 ], [ -5.128206744999943, 36.90574111400008 ], [ -5.116945136999959, 36.908028607000062 ], [ -5.114151602999925, 36.915842804000079 ], [ -5.107708825999964, 36.912036035000028 ], [ -5.091822499999978, 36.921062499000072 ] ] ] } },
{ "type": "Feature", "properties": { "code": "11035", "name": "Tarifa" }, "geometry": { "type": "Polygon", "coordinates": [ [ [ -5.551728499999967, 36.109329999000067 ], [ -5.535977929999945, 36.10503063200008 ], [ -5.524805672999946, 36.096454639000058 ], [ -5.511477140999943, 36.065458944000056 ], [ -5.495064499999955, 36.050212999000053 ], [ -5.517365739999946, 36.037616326000034 ], [ -5.536839635999968, 36.032191492000038 ], [ -5.572753929999976, 36.015962186000024 ], [ -5.604225652999958, 36.010101588000055 ], [ -5.610437297999965, 36.000993938000079 ], [ -5.60946301599995, 36.009507475000078 ], [ -5.617243082999948, 36.020717832000059 ], [ -5.63815190899993, 36.042927102000078 ], [ -5.651234063999937, 36.052336578000052 ], [ -5.68919533899998, 36.067065396000032 ], [ -5.709055507999949, 36.059120852000035 ], [ -5.722810503999938, 36.060526843000048 ], [ -5.750080283999978, 36.071301720000065 ], [ -5.776775030999943, 36.087658692000048 ], [ -5.78252656799998, 36.087545631000069 ], [ -5.789700118999974, 36.080283723000036 ], [ -5.796705793999934, 36.078742446000035 ], [ -5.805974391999939, 36.088357150000036 ], [ -5.812212760999955, 36.089490312000066 ], [ -5.817551335999951, 36.099301815000047 ], [ -5.825668898999936, 36.104739460000076 ], [ -5.841857, 36.126823499000068 ], [ -5.839967, 36.134172499000044 ], [ -5.832404499999939, 36.14786299900004 ], [ -5.824356, 36.164967499000056 ], [ -5.817146, 36.174917999000058 ], [ -5.808055, 36.182186499000068 ], [ -5.800818, 36.190231499000049 ], [ -5.795037499999978, 36.200858999000047 ], [ -5.790646, 36.21228749900007 ], [ -5.786324499999978, 36.216320999000061 ], [ -5.783089473999951, 36.221831825000038 ], [ -5.789219187999947, 36.235927201000038 ], [ -5.791475, 36.25204099900003 ], [ -5.767470499999945, 36.264766499000075 ], [ -5.749667, 36.257157499000073 ], [ -5.738061499999958, 36.245859999000061 ], [ -5.704478499999937, 36.222453999000038 ], [ -5.695606, 36.214783499000077 ], [ -5.680981533999955, 36.197513909000065 ], [ -5.672311155999978, 36.197301623000044 ], [ -5.659278731999962, 36.205510243000049 ], [ -5.638128753999979, 36.190494593000039 ], [ -5.627886449999949, 36.190648020000026 ], [ -5.623348911999926, 36.183606203000068 ], [ -5.608152817999951, 36.175365115000034 ], [ -5.60852998699994, 36.16480008700006 ], [ -5.598261028999957, 36.15499049400006 ], [ -5.599024923999934, 36.122115835000045 ], [ -5.575283332999959, 36.111769311000046 ], [ -5.551728499999967, 36.109329999000067 ] ] ] } },
{ "type": "Feature", "properties": { "code": "11036", "name": "Torre Alháquime" }, "geometry": { "type": "Polygon", "coordinates": [ [ [ -5.269821, 36.884242999000037 ], [ -5.25609548999995, 36.900187565000067 ], [ -5.253385894999951, 36.913362302000053 ], [ -5.247133437999935, 36.922412629000064 ], [ -5.217905135999956, 36.935360866000053 ], [ -5.200663, 36.928432499000053 ], [ -5.209889112999974, 36.904550627000049 ], [ -5.216982261999931, 36.895927423000046 ], [ -5.225239109999961, 36.892721545000029 ], [ -5.246668378999971, 36.891989442000067 ], [ -5.269821, 36.884242999000037 ] ] ] } },
{ "type": "Feature", "properties": { "code": "11037", "name": "Trebujena" }, "geometry": { "type": "Polygon", "coordinates": [ [ [ -6.299053, 36.906378499000027 ], [ -6.294147, 36.90576949900003 ], [ -6.278354, 36.910884999000075 ], [ -6.257074645999978, 36.895154518000027 ], [ -6.246468396999944, 36.894059326000047 ], [ -6.231059, 36.898135999000033 ], [ -6.209355198999958, 36.893734253000048 ], [ -6.186651309999945, 36.892908805000047 ], [ -6.158764459999929, 36.886021355000025 ], [ -6.122056499999928, 36.863818999000046 ], [ -6.132063672999948, 36.854476330000068 ], [ -6.158291615999929, 36.851252552000062 ], [ -6.195154454999965, 36.835902642000065 ], [ -6.203743, 36.829253999000059 ], [ -6.218935, 36.849292999000056 ], [ -6.241852, 36.852151999000057 ], [ -6.251591499999961, 36.847697499000049 ], [ -6.257877, 36.846005499000057 ], [ -6.264151499999969, 36.847350499000072 ], [ -6.280735499999935, 36.856935499000031 ], [ -6.284243, 36.861951499000043 ], [ -6.282434, 36.875697999000067 ], [ -6.283711, 36.880393999000034 ], [ -6.28951, 36.88886099900003 ], [ -6.289645499999949, 36.89319449900006 ], [ -6.299053, 36.906378499000027 ] ] ] } },
{ "type": "Feature", "properties": { "code": "11038", "name": "Ubrique" }, "geometry": { "type": "Polygon", "coordinates": [ [ [ -5.39862549999998, 36.629001499000026 ], [ -5.412437729999965, 36.621777697000027 ], [ -5.438870752999946, 36.614806907000059 ], [ -5.463400127999932, 36.621672852000074 ], [ -5.511981419999927, 36.655971493000038 ], [ -5.530223074999981, 36.660049668000056 ], [ -5.540377, 36.670419499000047 ], [ -5.533920803999933, 36.677748275000056 ], [ -5.533628316999966, 36.687795324000035 ], [ -5.528986, 36.693958499000075 ], [ -5.515786115999958, 36.697903960000076 ], [ -5.495626609999931, 36.698996303000058 ], [ -5.488517032999937, 36.692078696000067 ], [ -5.484271479999961, 36.682228864000024 ], [ -5.475888554999926, 36.680487656000025 ], [ -5.45469993599994, 36.691433836000044 ], [ -5.438537372999974, 36.692958002000069 ], [ -5.435857968999926, 36.683996034000074 ], [ -5.424902599999939, 36.680566618000057 ], [ -5.407220655999936, 36.656582044000061 ], [ -5.40271, 36.656386999000063 ], [ -5.397458882999956, 36.652223037000056 ], [ -5.404236234999928, 36.645847771000035 ], [ -5.397013935999951, 36.636737663000076 ], [ -5.39862549999998, 36.629001499000026 ] ] ] } },
{ "type": "Feature", "properties": { "code": "11039", "name": "Vejer de la Frontera" }, "geometry": { "type": "Polygon", "coordinates": [ [ [ -5.786324499999978, 36.216320999000061 ], [ -5.830787071999964, 36.240297533000046 ], [ -5.872594155999934, 36.239790326000048 ], [ -5.88776384099998, 36.242313428000045 ], [ -5.891265539999949, 36.234184036000045 ], [ -5.923104800999965, 36.244187988000078 ], [ -5.941678021999962, 36.229856994000045 ], [ -5.941204529999936, 36.220344432000047 ], [ -5.946056706999968, 36.21974451300008 ], [ -5.949505386999931, 36.223970458000053 ], [ -5.958514392999973, 36.224449849000052 ], [ -5.975314821999973, 36.231912255000054 ], [ -5.997963892999962, 36.216936413000042 ], [ -6.054826, 36.205783999000062 ], [ -6.079208, 36.243178999000065 ], [ -6.07404315499997, 36.250032285000032 ], [ -6.060168851999947, 36.253267437000034 ], [ -6.051486368999974, 36.260303316000034 ], [ -6.055373322999969, 36.283549717000028 ], [ -6.037216192999949, 36.303375840000058 ], [ -6.023518426999942, 36.313756271000045 ], [ -6.013650602999974, 36.313562439000066 ], [ -6.008656861999953, 36.31742515600007 ], [ -5.999305354999933, 36.315309807000062 ], [ -5.990246511999942, 36.320999850000078 ], [ -5.994320902999959, 36.340429893000078 ], [ -6.004562, 36.346484499000042 ], [ -6.000731, 36.352721999000039 ], [ -6.002054499999929, 36.357311499000048 ], [ -6.001359, 36.361511499000073 ], [ -5.999245499999972, 36.365653999000074 ], [ -5.998904, 36.369834999000034 ], [ -5.993761, 36.372866999000053 ], [ -5.984989852999945, 36.375654498000074 ], [ -5.976836753999976, 36.374246112000037 ], [ -5.939258449999954, 36.360355046000052 ], [ -5.914827448999972, 36.354586753000035 ], [ -5.886609143999976, 36.341548747000047 ], [ -5.864809284999978, 36.324916481000059 ], [ -5.791475, 36.25204099900003 ], [ -5.789219187999947, 36.235927201000038 ], [ -5.783089473999951, 36.221831825000038 ], [ -5.786324499999978, 36.216320999000061 ] ] ] } },
{ "type": "Feature", "properties": { "code": "11040", "name": "Villaluenga del Rosario" }, "geometry": { "type": "Polygon", "coordinates": [ [ [ -5.39862549999998, 36.629001499000026 ], [ -5.397013935999951, 36.636737663000076 ], [ -5.404236234999928, 36.645847771000035 ], [ -5.397458882999956, 36.652223037000056 ], [ -5.40271, 36.656386999000063 ], [ -5.395658008999931, 36.666829497000037 ], [ -5.411570987999937, 36.688789526000051 ], [ -5.396102084999939, 36.704425291000064 ], [ -5.389603515999966, 36.716620539000075 ], [ -5.392067057999952, 36.721990439000024 ], [ -5.389337397999952, 36.728786974000059 ], [ -5.391376499999978, 36.733417999000039 ], [ -5.37036195099995, 36.73240581400006 ], [ -5.36272499699993, 36.724749341000063 ], [ -5.353922169999976, 36.72981702900006 ], [ -5.343642171999932, 36.721193424000035 ], [ -5.334884243999966, 36.728900469000052 ], [ -5.324672, 36.724036999000077 ], [ -5.327451997999958, 36.698393903000067 ], [ -5.319445386999973, 36.690757963000067 ], [ -5.329550838999978, 36.679660093000052 ], [ -5.324075, 36.673370499000043 ], [ -5.334815384999956, 36.670415065000043 ], [ -5.344119590999981, 36.659715217000041 ], [ -5.38005594599997, 36.63243400600004 ], [ -5.39862549999998, 36.629001499000026 ] ] ] } },
{ "type": "Feature", "properties": { "code": "11041", "name": "Villamartín" }, "geometry": { "type": "Polygon", "coordinates": [ [ [ -5.600037499999928, 36.762637999000049 ], [ -5.641285485999958, 36.788677186000029 ], [ -5.642428337999945, 36.804569230000027 ], [ -5.658774240999946, 36.830208897000034 ], [ -5.6675, 36.851576999000031 ], [ -5.663770089999957, 36.865476236000063 ], [ -5.672920154999929, 36.879972707000036 ], [ -5.705254499999967, 36.903480499000068 ], [ -5.736359, 36.918250999000065 ], [ -5.726716354999951, 36.921183665000058 ], [ -5.715685832999952, 36.920164864000071 ], [ -5.704404798999974, 36.925244122000038 ], [ -5.695945061999964, 36.936947592000024 ], [ -5.69374856099995, 36.957436400000063 ], [ -5.667897229999937, 36.97531275700004 ], [ -5.64912671999997, 36.954577107000034 ], [ -5.634841146999975, 36.951006349000068 ], [ -5.626131249999958, 36.953354937000029 ], [ -5.618113065999978, 36.941303217000041 ], [ -5.609667011999932, 36.942583662000061 ], [ -5.605088076999948, 36.950003416000072 ], [ -5.594931348999978, 36.945342509000056 ], [ -5.588200499999971, 36.946922499000038 ], [ -5.582843698999966, 36.915217362000078 ], [ -5.533873, 36.893481999000073 ], [ -5.533478346999971, 36.884577411000066 ], [ -5.527305222999928, 36.868028244000072 ], [ -5.527070574999925, 36.842456115000061 ], [ -5.52325, 36.83592999900003 ], [ -5.553857049999976, 36.823539393000033 ], [ -5.555921326999965, 36.819738549000078 ], [ -5.553223117999948, 36.807732697000063 ], [ -5.55486743199998, 36.794774503000042 ], [ -5.565019995999933, 36.792896308000024 ], [ -5.568514501999971, 36.789144914000076 ], [ -5.581221119999952, 36.787870650000059 ], [ -5.600037499999928, 36.762637999000049 ] ] ] } },
{ "type": "Feature", "properties": { "code": "11042", "name": "Zahara" }, "geometry": { "type": "Polygon", "coordinates": [ [ [ -5.38055449999996, 36.808173999000076 ], [ -5.409447801999931, 36.803616127000055 ], [ -5.461687144999928, 36.805975143000069 ], [ -5.501561, 36.794811499000048 ], [ -5.502589317999934, 36.807324580000056 ], [ -5.52325, 36.83592999900003 ], [ -5.516889052999943, 36.842807964000031 ], [ -5.516614151999931, 36.851989195000044 ], [ -5.509667967999974, 36.855214821000061 ], [ -5.479935215999944, 36.857324529000039 ], [ -5.458687790999932, 36.854820937000056 ], [ -5.451978229999952, 36.851106489000074 ], [ -5.433084237999935, 36.853682433000074 ], [ -5.419682633999969, 36.859941209000056 ], [ -5.393002714999966, 36.857489237000038 ], [ -5.366871797999977, 36.838656460000038 ], [ -5.365304821999928, 36.833357039000077 ], [ -5.373808676999943, 36.821582032000038 ], [ -5.374058991999959, 36.811725047000039 ], [ -5.38055449999996, 36.808173999000076 ] ] ] } },
{ "type": "Feature", "properties": { "code": "11901", "name": "Benalup-Casas Viejas" }, "geometry": { "type": "Polygon", "coordinates": [ [ [ -5.798510499999963, 36.366974999000035 ], [ -5.786712475999934, 36.353078316000051 ], [ -5.773183550999931, 36.356006752000042 ], [ -5.752826551999931, 36.346300992000067 ], [ -5.706571499999939, 36.339421999000024 ], [ -5.710799410999925, 36.324420760000066 ], [ -5.706648085999973, 36.314993992000041 ], [ -5.70755528899997, 36.303954179000073 ], [ -5.718073026999946, 36.300388177000059 ], [ -5.730408620999981, 36.308502219000047 ], [ -5.742046314999925, 36.303517551000027 ], [ -5.755328032999955, 36.302107251000052 ], [ -5.753407252999978, 36.297945076000076 ], [ -5.756136744999935, 36.296799194000073 ], [ -5.774090633999947, 36.30375282600005 ], [ -5.777900278999937, 36.299508658000036 ], [ -5.796453619999966, 36.295602584000051 ], [ -5.804127152999968, 36.329443713000046 ], [ -5.810870681999972, 36.331577339000034 ], [ -5.82058955499997, 36.326504862000036 ], [ -5.835726674999933, 36.325844201000052 ], [ -5.84008939499995, 36.330154218000075 ], [ -5.836105056999941, 36.337737598000047 ], [ -5.842837535999934, 36.351182192000067 ], [ -5.836409473999936, 36.368135149000068 ], [ -5.814921451999965, 36.367453180000041 ], [ -5.80680977999998, 36.371682647000057 ], [ -5.798510499999963, 36.366974999000035 ] ] ] } },
{ "type": "Feature", "properties": { "code": "11902", "name": "San José del Valle" }, "geometry": { "type": "Polygon", "coordinates": [ [ [ -5.854283499999951, 36.669633999000041 ], [ -5.779262857999981, 36.668907920000038 ], [ -5.77379796699995, 36.664081637000038 ], [ -5.765722188999973, 36.663564253000061 ], [ -5.763150904999975, 36.65381158100007 ], [ -5.748417570999948, 36.658107099000063 ], [ -5.739653485999952, 36.651761305000036 ], [ -5.732421645999977, 36.651538067000047 ], [ -5.726908869999932, 36.647729119000076 ], [ -5.717747527999961, 36.650198866000039 ], [ -5.712992790999976, 36.645531615000039 ], [ -5.708735916999956, 36.650480215000073 ], [ -5.709341018999964, 36.656059989000028 ], [ -5.70511941999996, 36.659605426000041 ], [ -5.691160499999967, 36.657154499000058 ], [ -5.682756906999941, 36.648061005000045 ], [ -5.678232899999955, 36.651863841000079 ], [ -5.674135459999945, 36.650908447000063 ], [ -5.671214943999928, 36.641411740000024 ], [ -5.660938912999939, 36.63568242000008 ], [ -5.651392200999965, 36.625211576000027 ], [ -5.643756292999967, 36.625641949000055 ], [ -5.630658337999932, 36.64067854700005 ], [ -5.620942155999956, 36.637038833000076 ], [ -5.615434026999935, 36.638788385000055 ], [ -5.61778752999993, 36.645339561000071 ], [ -5.60765302599998, 36.659374855000067 ], [ -5.610020964999933, 36.669596422000041 ], [ -5.598949371999936, 36.684991620000062 ], [ -5.591982499999972, 36.689475499000025 ], [ -5.584987757999954, 36.690029362000075 ], [ -5.573348989999943, 36.684172668000031 ], [ -5.550081864999925, 36.679014709000057 ], [ -5.539011, 36.669692999000063 ], [ -5.547124465999957, 36.662704151000071 ], [ -5.561382702999936, 36.660381557000051 ], [ -5.57067873799997, 36.644174274000079 ], [ -5.593497511999942, 36.640762263000056 ], [ -5.606639324999946, 36.624294844000076 ], [ -5.625826944999972, 36.62350701500003 ], [ -5.666835972999934, 36.598263110000062 ], [ -5.660328700999969, 36.575626900000032 ], [ -5.661533283999972, 36.564828052000053 ], [ -5.669523116999926, 36.552816023000048 ], [ -5.676629631999958, 36.552919380000048 ], [ -5.681143747999954, 36.561757500000056 ], [ -5.689460547999943, 36.563652277000074 ], [ -5.694495423999967, 36.574980661000041 ], [ -5.704727672999979, 36.573433478000027 ], [ -5.708392720999939, 36.568749507000064 ], [ -5.713161236999952, 36.569166885000072 ], [ -5.716697746999955, 36.566004692000035 ], [ -5.723276473999931, 36.567078855000034 ], [ -5.729880192999929, 36.571289704000037 ], [ -5.726836675999948, 36.579335465000042 ], [ -5.728984725999965, 36.583336394000071 ], [ -5.752494965999972, 36.573129480000034 ], [ -5.76135705799993, 36.566331912000066 ], [ -5.773702497999977, 36.56533666200005 ], [ -5.794779869999957, 36.551856154000063 ], [ -5.843325754999967, 36.552839143000028 ], [ -5.85768961499997, 36.550513851000062 ], [ -5.868937969999934, 36.554079963000049 ], [ -5.854941212999961, 36.580512149000072 ], [ -5.852454242999954, 36.590921104000074 ], [ -5.858098471999938, 36.646647491000067 ], [ -5.854283499999951, 36.669633999000041 ] ] ] } },
{ "type": "Feature", "properties": { "code": "11903", "name": "San Martín del Tesorillo" }, "geometry": { "type": "Polygon", "coordinates": [ [ [ -5.406283499999972, 36.343770499000073 ], [ -5.412346136999929, 36.369004347000043 ], [ -5.408187335999969, 36.376157603000024 ], [ -5.414722788999939, 36.383037681000076 ], [ -5.408366314999967, 36.385703966000051 ], [ -5.389473566999925, 36.376822418000074 ], [ -5.375711598999942, 36.376112806000037 ], [ -5.365753314999949, 36.384244483000032 ], [ -5.365328036999927, 36.390325182000026 ], [ -5.359523774999957, 36.396689886000047 ], [ -5.359104706999972, 36.404069757000059 ], [ -5.351840916999947, 36.403799336000077 ], [ -5.344153, 36.412311499000054 ], [ -5.33548379299998, 36.394130195000059 ], [ -5.334350779999966, 36.370146016000035 ], [ -5.322407200999976, 36.348431116000029 ], [ -5.315839895999943, 36.342631526000048 ], [ -5.322246363999966, 36.33233076700003 ], [ -5.320127499999955, 36.325084999000069 ], [ -5.327735536999967, 36.325324736000027 ], [ -5.33239150199995, 36.329185820000077 ], [ -5.355244, 36.323411999000029 ], [ -5.36833056699993, 36.331463487000065 ], [ -5.390894339999932, 36.331526058000065 ], [ -5.406283499999972, 36.343770499000073 ] ] ] } }
]
}
