{
"type": "FeatureCollection",
"crs": { "type": "name", "properties": { "name": "urn:ogc:def:crs:OGC:1.3:CRS84" } },
"features": [
{ "type": "Feature", "properties": { "code": "20001", "name": "Abaltzisketa" }, "geometry": { "type": "Polygon", "coordinates": [ [ [ -2.12163849999996, 43.040397499000051 ], [ -2.11502491899995, 43.05083245600008 ], [ -2.118058, 43.06495299900007 ], [ -2.098684499999933, 43.065280999000038 ], [ -2.095809, 43.059512999000049 ], [ -2.093228499999952, 43.049693999000056 ], [ -2.095129499999928, 43.042323999000075 ], [ -2.093032, 43.033797999000058 ], [ -2.088483499999938, 43.022620999000026 ], [ -2.097583499999928, 43.016357499000037 ], [ -2.104333, 43.012878499000067 ], [ -2.115407499999947, 43.010875499000065 ], [ -2.118416, 43.030368999000075 ], [ -2.11366849999996, 43.031951999000057 ], [ -2.12163849999996, 43.040397499000051 ] ] ] } },
{ "type": "Feature", "properties": { "code": "20002", "name": "Aduna" }, "geometry": { "type": "Polygon", "coordinates": [ [ [ -2.05483049999998, 43.195865499000035 ], [ -2.064530403999925, 43.202358053000069 ], [ -2.068017891999943, 43.209571582000081 ], [ -2.077722714999936, 43.218763363000051 ], [ -2.069239858999936, 43.225209027000062 ], [ -2.059214940999937, 43.220695744000068 ], [ -2.055506, 43.230396499000051 ], [ -2.045985967999968, 43.230616953000037 ], [ -2.043216359999974, 43.228034686000058 ], [ -2.049964501999966, 43.219758740000032 ], [ -2.043095634999929, 43.209813401000076 ], [ -2.036372445999973, 43.206294187000026 ], [ -2.042978050999977, 43.197190156000033 ], [ -2.05483049999998, 43.195865499000035 ] ] ] } },
{ "type": "Feature", "properties": { "code": "20003", "name": "Aizarnazabal" }, "geometry": { "type": "Polygon", "coordinates": [ [ [ -2.215881, 43.260093999000048 ], [ -2.236659741999972, 43.253108239000028 ], [ -2.250923234999959, 43.253290419000052 ], [ -2.253685, 43.267875999000069 ], [ -2.235704947999977, 43.27507892400007 ], [ -2.226259390999928, 43.270831092000037 ], [ -2.207287, 43.273036999000055 ], [ -2.205603499999938, 43.272659499000042 ], [ -2.208738, 43.265647999000066 ], [ -2.215881, 43.260093999000048 ] ] ] } },
{ "type": "Feature", "properties": { "code": "20004", "name": "Albiztur" }, "geometry": { "type": "Polygon", "coordinates": [ [ [ -2.172402499999976, 43.097953499000027 ], [ -2.173177521999946, 43.102269706000072 ], [ -2.183038499999952, 43.10749449900004 ], [ -2.179657499999962, 43.113189499000043 ], [ -2.164832843999932, 43.111715523000044 ], [ -2.156722951999939, 43.119113976000051 ], [ -2.151299437999967, 43.133433339000078 ], [ -2.142597849999959, 43.140013167000063 ], [ -2.137990879999961, 43.152607532000047 ], [ -2.147753, 43.167728499000077 ], [ -2.151560854999957, 43.170398145000036 ], [ -2.147542, 43.173510499000031 ], [ -2.140635, 43.163716499000031 ], [ -2.135815499999978, 43.159527999000034 ], [ -2.132287, 43.157500999000035 ], [ -2.123427499999934, 43.156424499000025 ], [ -2.122080533999963, 43.147923867000031 ], [ -2.112150940999925, 43.138631507000071 ], [ -2.113758531999963, 43.125912618000029 ], [ -2.12156637399994, 43.123952425000027 ], [ -2.12752392799996, 43.117767164000043 ], [ -2.14270154899998, 43.116985373000034 ], [ -2.156578741999965, 43.11191062100005 ], [ -2.161333, 43.106761999000071 ], [ -2.172402499999976, 43.097953499000027 ] ] ] } },
{ "type": "Feature", "properties": { "code": "20005", "name": "Alegia" }, "geometry": { "type": "Polygon", "coordinates": [ [ [ -2.06803, 43.078063999000051 ], [ -2.089149499999962, 43.081283499000051 ], [ -2.093856698999957, 43.088075888000049 ], [ -2.106229499999927, 43.091987499000027 ], [ -2.106596388999947, 43.09493618700003 ], [ -2.115117, 43.095271999000033 ], [ -2.122593227999971, 43.108848321000039 ], [ -2.121850026999937, 43.114698851000071 ], [ -2.108602378999933, 43.116954986000053 ], [ -2.089638499999978, 43.112090499000033 ], [ -2.095441254999969, 43.10978332600007 ], [ -2.094145610999931, 43.101944385000081 ], [ -2.083452664999925, 43.090686257000073 ], [ -2.071209, 43.088153999000042 ], [ -2.06803, 43.078063999000051 ] ] ] } },
{ "type": "Feature", "properties": { "code": "20006", "name": "Alkiza" }, "geometry": { "type": "Polygon", "coordinates": [ [ [ -2.147542, 43.173510499000031 ], [ -2.14221032699993, 43.177438792000032 ], [ -2.129004067999972, 43.181398056000035 ], [ -2.097694679999961, 43.181395826000028 ], [ -2.088614, 43.186160999000037 ], [ -2.083926976999976, 43.183773012000074 ], [ -2.085962708999944, 43.179167746000076 ], [ -2.084237, 43.177600999000049 ], [ -2.085897, 43.175231999000061 ], [ -2.086459499999933, 43.172111499000039 ], [ -2.084906499999931, 43.169070999000041 ], [ -2.089724499999932, 43.161941499000079 ], [ -2.120852, 43.156333499000027 ], [ -2.132287, 43.157500999000035 ], [ -2.135815499999978, 43.159527999000034 ], [ -2.140635, 43.163716499000031 ], [ -2.147542, 43.173510499000031 ] ] ] } },
{ "type": "Feature", "properties": { "code": "20007", "name": "Altzo" }, "geometry": { "type": "Polygon", "coordinates": [ [ [ -2.04032049999995, 43.076320499000076 ], [ -2.049818506999941, 43.074100230000056 ], [ -2.061264693999931, 43.084207503000073 ], [ -2.071209, 43.088153999000042 ], [ -2.083452664999925, 43.090686257000073 ], [ -2.094145610999931, 43.101944385000081 ], [ -2.095441254999969, 43.10978332600007 ], [ -2.086755356999959, 43.113366170000063 ], [ -2.081529007999961, 43.112146050000035 ], [ -2.074424, 43.11368199900005 ], [ -2.065400163999925, 43.109693599000025 ], [ -2.059443, 43.11274699900008 ], [ -2.049662538999939, 43.089324565000027 ], [ -2.04032049999995, 43.076320499000076 ] ] ] } },
{ "type": "Feature", "properties": { "code": "20008", "name": "Amezketa" }, "geometry": { "type": "Polygon", "coordinates": [ [ [ -2.098684499999933, 43.065280999000038 ], [ -2.097655152999948, 43.069819778000067 ], [ -2.087977191999926, 43.075762431000044 ], [ -2.089149499999962, 43.081283499000051 ], [ -2.06803, 43.078063999000051 ], [ -2.074113849999947, 43.063702590000048 ], [ -2.044237861999932, 43.059095391000028 ], [ -2.041417, 43.029658999000048 ], [ -2.057364769999936, 43.025289144000055 ], [ -2.088483499999938, 43.022620999000026 ], [ -2.093032, 43.033797999000058 ], [ -2.095129499999928, 43.042323999000075 ], [ -2.093228499999952, 43.049693999000056 ], [ -2.095809, 43.059512999000049 ], [ -2.098684499999933, 43.065280999000038 ] ] ] } },
{ "type": "Feature", "properties": { "code": "20009", "name": "Andoain" }, "geometry": { "type": "Polygon", "coordinates": [ [ [ -2.055506, 43.230396499000051 ], [ -2.055241858999977, 43.239188599000045 ], [ -2.05069, 43.243835499000056 ], [ -2.046376875999954, 43.24492723600008 ], [ -2.04229092099996, 43.242290056000058 ], [ -2.040061570999967, 43.245526065000035 ], [ -2.029667424999957, 43.242317822000075 ], [ -2.024814, 43.244399999000052 ], [ -2.020589059999963, 43.239688446000059 ], [ -2.009096499999941, 43.243751499000041 ], [ -1.994699935999961, 43.226242715000069 ], [ -1.977224207999939, 43.213926322000077 ], [ -1.974045900999954, 43.205110859000058 ], [ -1.964859444999945, 43.19855474600007 ], [ -1.96623, 43.194957499000054 ], [ -1.978698, 43.194213499000057 ], [ -1.982794, 43.192107999000029 ], [ -1.98389949999995, 43.190063499000075 ], [ -1.996899499999927, 43.186775499000078 ], [ -2.004627156999959, 43.187443405000067 ], [ -2.013490918999935, 43.197349663000068 ], [ -2.02068948799996, 43.195966089000081 ], [ -2.038922499999956, 43.202514999000073 ], [ -2.036372445999973, 43.206294187000026 ], [ -2.043095634999929, 43.209813401000076 ], [ -2.049964501999966, 43.219758740000032 ], [ -2.043216359999974, 43.228034686000058 ], [ -2.045985967999968, 43.230616953000037 ], [ -2.055506, 43.230396499000051 ] ] ] } },
{ "type": "Feature", "properties": { "code": "20010", "name": "Anoeta" }, "geometry": { "type": "Polygon", "coordinates": [ [ [ -2.089724499999932, 43.161941499000079 ], [ -2.084906499999931, 43.169070999000041 ], [ -2.086459499999933, 43.172111499000039 ], [ -2.085897, 43.175231999000061 ], [ -2.084237, 43.177600999000049 ], [ -2.073495, 43.180843499000048 ], [ -2.057475499999953, 43.176852999000062 ], [ -2.070471454999961, 43.167160587000069 ], [ -2.066591499999959, 43.157569999000032 ], [ -2.072034499999972, 43.149787999000068 ], [ -2.080957245999969, 43.159297265000077 ], [ -2.089724499999932, 43.161941499000079 ] ] ] } },
{ "type": "Feature", "properties": { "code": "20011", "name": "Antzuola" }, "geometry": { "type": "Polygon", "coordinates": [ [ [ -2.349904, 43.087791499000048 ], [ -2.354856825999946, 43.074692689000074 ], [ -2.373213761999978, 43.06911815400008 ], [ -2.378146, 43.064967999000032 ], [ -2.391929406999964, 43.067677254000046 ], [ -2.40221330199995, 43.075568587000078 ], [ -2.412512499999934, 43.073981999000068 ], [ -2.406597541999929, 43.078493318000028 ], [ -2.407654609999952, 43.089834135000046 ], [ -2.401955345999966, 43.112534746000051 ], [ -2.398153883999953, 43.116673355000046 ], [ -2.387497397999937, 43.124847586000044 ], [ -2.380101522999951, 43.126943194000035 ], [ -2.36023735699996, 43.123706341000059 ], [ -2.350038, 43.126786999000046 ], [ -2.34211, 43.119789999000034 ], [ -2.341469831999973, 43.114756164000028 ], [ -2.337873, 43.11205299900007 ], [ -2.346649, 43.107349499000065 ], [ -2.346643, 43.103278999000054 ], [ -2.343521499999952, 43.100937499000054 ], [ -2.345795499999952, 43.099788499000056 ], [ -2.35014549999994, 43.090549499000076 ], [ -2.349904, 43.087791499000048 ] ] ] } },
{ "type": "Feature", "properties": { "code": "20012", "name": "Arama" }, "geometry": { "type": "Polygon", "coordinates": [ [ [ -2.154943499999945, 43.055073499000059 ], [ -2.162783499999932, 43.052834999000027 ], [ -2.172279, 43.062173499000039 ], [ -2.161892499999965, 43.065056999000035 ], [ -2.154943499999945, 43.055073499000059 ] ] ] } },
{ "type": "Feature", "properties": { "code": "20013", "name": "Aretxabaleta" }, "geometry": { "type": "Polygon", "coordinates": [ [ [ -2.524742, 43.045266499000036 ], [ -2.528602499999977, 43.051912499000025 ], [ -2.517909719999977, 43.052789047000033 ], [ -2.495038674999932, 43.048486125000068 ], [ -2.486579829999926, 43.039198626000029 ], [ -2.474798162999946, 43.040246729000046 ], [ -2.46267, 43.045780499000045 ], [ -2.453272700999946, 43.033398875000046 ], [ -2.451702523999927, 43.025451287000067 ], [ -2.471092756999951, 42.996424967000053 ], [ -2.472534442999972, 42.986076444000048 ], [ -2.479210079999973, 42.974233823000077 ], [ -2.479391, 42.965871499000059 ], [ -2.48335, 42.964891499000032 ], [ -2.500602182999955, 43.003685537000081 ], [ -2.498832120999964, 43.020715279000058 ], [ -2.508006209999962, 43.01783550600004 ], [ -2.524742, 43.045266499000036 ] ] ] } },
{ "type": "Feature", "properties": { "code": "20014", "name": "Asteasu" }, "geometry": { "type": "Polygon", "coordinates": [ [ [ -2.108746499999938, 43.228427999000075 ], [ -2.091432851999969, 43.209003218000078 ], [ -2.092271725999979, 43.203861173000064 ], [ -2.089086879999968, 43.199123205000035 ], [ -2.082207763999975, 43.19176847500006 ], [ -2.075059065999938, 43.189961785000037 ], [ -2.073495, 43.180843499000048 ], [ -2.084237, 43.177600999000049 ], [ -2.085962708999944, 43.179167746000076 ], [ -2.083926976999976, 43.183773012000074 ], [ -2.099035422999975, 43.191549309000038 ], [ -2.109736813999973, 43.194301728000028 ], [ -2.121502810999971, 43.191677113000026 ], [ -2.134616691999952, 43.19385544000005 ], [ -2.140253995999956, 43.190981648000047 ], [ -2.150391499999955, 43.181441999000072 ], [ -2.149428499999942, 43.185264499000027 ], [ -2.151479499999937, 43.187339999000073 ], [ -2.148385, 43.193954499000029 ], [ -2.150168845999929, 43.199779739000064 ], [ -2.14646655699994, 43.209117018000029 ], [ -2.137467039999933, 43.212557789000073 ], [ -2.128739480999968, 43.22305293900007 ], [ -2.108746499999938, 43.228427999000075 ] ] ] } },
{ "type": "Feature", "properties": { "code": "20015", "name": "Ataun" }, "geometry": { "type": "MultiPolygon", "coordinates": [ [ [ [ -2.202292, 42.999126499000056 ], [ -2.194096671999944, 43.002591573000075 ], [ -2.183256123999968, 43.018008221000059 ], [ -2.161633499999937, 43.018970499000034 ], [ -2.150171898999929, 43.018065456000045 ], [ -2.147742499999936, 43.01532749900008 ], [ -2.151171775999956, 43.008722056000067 ], [ -2.140868204999947, 42.995301555000026 ], [ -2.13373, 42.993366499000047 ], [ -2.131933169999968, 42.991110254000034 ], [ -2.132502252999927, 42.986983834000057 ], [ -2.126860499999964, 42.985595999000054 ], [ -2.119839196999976, 42.982224548000033 ], [ -2.114347226999939, 42.971512689000065 ], [ -2.095318499999962, 42.972272499000042 ], [ -2.104432979999956, 42.94908104700005 ], [ -2.117444499999976, 42.942143499000053 ], [ -2.133354499999939, 42.940952499000048 ], [ -2.151304, 42.942086999000026 ], [ -2.173888, 42.935153999000079 ], [ -2.179990112999974, 42.935675089000028 ], [ -2.193061027999931, 42.948800349000066 ], [ -2.210283499999946, 42.949870999000041 ], [ -2.212272499999926, 42.95148849900005 ], [ -2.218647884999939, 42.965288175000069 ], [ -2.217582310999944, 42.976570231000039 ], [ -2.211524119999979, 42.981454681000059 ], [ -2.212379167999927, 42.986901146000037 ], [ -2.203799084999957, 42.99316714400004 ], [ -2.202292, 42.999126499000056 ] ] ], [ [ [ -2.122458, 42.993305999000029 ], [ -2.124030499999947, 42.995730999000045 ], [ -2.122538980999934, 43.000167674000068 ], [ -2.118267387999936, 42.998331654000026 ], [ -2.117102050999961, 42.995062976000042 ], [ -2.122458, 42.993305999000029 ] ] ], [ [ [ -2.140124644999958, 43.005126051000047 ], [ -2.13241859599998, 43.006808017000026 ], [ -2.127044033999937, 43.002338144000078 ], [ -2.132918106999966, 43.001207771000054 ], [ -2.140124644999958, 43.005126051000047 ] ] ] ] } },
{ "type": "Feature", "properties": { "code": "20016", "name": "Aia" }, "geometry": { "type": "Polygon", "coordinates": [ [ [ -2.215881, 43.260093999000048 ], [ -2.208738, 43.265647999000066 ], [ -2.206801499999926, 43.269424499000081 ], [ -2.203415506999931, 43.269423346000053 ], [ -2.198828, 43.273357499000042 ], [ -2.193682499999966, 43.275752999000076 ], [ -2.181370954999977, 43.268517940000038 ], [ -2.180226588999972, 43.261072823000063 ], [ -2.183944211999972, 43.245513913000025 ], [ -2.180855219999955, 43.244425908000039 ], [ -2.159941766999964, 43.261903651000068 ], [ -2.145637339999951, 43.266314874000045 ], [ -2.141333, 43.293056499000045 ], [ -2.129868, 43.287799999000072 ], [ -2.133232679999935, 43.279808396000078 ], [ -2.130938784999955, 43.275131018000025 ], [ -2.093588, 43.269817499000055 ], [ -2.092285713999956, 43.259284581000031 ], [ -2.082104, 43.242732999000054 ], [ -2.099185265999949, 43.231157116000077 ], [ -2.128739480999968, 43.22305293900007 ], [ -2.137467039999933, 43.212557789000073 ], [ -2.14646655699994, 43.209117018000029 ], [ -2.150168845999929, 43.199779739000064 ], [ -2.148385, 43.193954499000029 ], [ -2.158150126999942, 43.195265735000078 ], [ -2.172585, 43.208430999000029 ], [ -2.188446366999926, 43.214544785000044 ], [ -2.199228262999952, 43.224226731000044 ], [ -2.21229914099996, 43.247589179000045 ], [ -2.208634612999958, 43.254769234000037 ], [ -2.215881, 43.260093999000048 ] ], [ [ -2.199680874999956, 43.269464307000078 ], [ -2.191987199999971, 43.268620300000066 ], [ -2.190095068999938, 43.269981358000052 ], [ -2.195829765999974, 43.272162058000049 ], [ -2.19879810599997, 43.271228111000028 ], [ -2.199680874999956, 43.269464307000078 ] ], [ [ -2.208156552999981, 43.262821024000061 ], [ -2.203352106999944, 43.257345103000034 ], [ -2.198148504999949, 43.257857472000069 ], [ -2.200932257999966, 43.265290724000067 ], [ -2.208156552999981, 43.262821024000061 ] ] ] } },
{ "type": "Feature", "properties": { "code": "20017", "name": "Azkoitia" }, "geometry": { "type": "Polygon", "coordinates": [ [ [ -2.33246749999995, 43.230102499000054 ], [ -2.300840499999936, 43.213260499000057 ], [ -2.293138738999971, 43.202003882000042 ], [ -2.290326745999948, 43.188073848000045 ], [ -2.292281640999931, 43.174712724000074 ], [ -2.297067268999967, 43.172595108000053 ], [ -2.292266630999961, 43.160036686000069 ], [ -2.292299193999952, 43.14877541900006 ], [ -2.303255197999931, 43.138806079000062 ], [ -2.306594, 43.131248499000037 ], [ -2.328329637999957, 43.130297864000056 ], [ -2.336877457999947, 43.12114086400004 ], [ -2.34211, 43.119789999000034 ], [ -2.350038, 43.126786999000046 ], [ -2.351734137999927, 43.13169210500007 ], [ -2.358396051999932, 43.133492354000055 ], [ -2.35916268099993, 43.138227199000028 ], [ -2.365278357999955, 43.143642929000066 ], [ -2.361934691999977, 43.165164253000057 ], [ -2.367417499999931, 43.176627999000061 ], [ -2.365716205999945, 43.18465885300003 ], [ -2.36113286899996, 43.190097008000066 ], [ -2.363601313999936, 43.198344305000035 ], [ -2.357810975999939, 43.207443195000053 ], [ -2.35926349999994, 43.21276399900006 ], [ -2.340292277999936, 43.217258017000063 ], [ -2.33246749999995, 43.230102499000054 ] ] ] } },
{ "type": "Feature", "properties": { "code": "20018", "name": "Azpeitia" }, "geometry": { "type": "Polygon", "coordinates": [ [ [ -2.228281, 43.197337999000069 ], [ -2.21949004399994, 43.187488431000077 ], [ -2.225367917999961, 43.179198602000042 ], [ -2.222651615999951, 43.174064713000064 ], [ -2.225306620999959, 43.170069263000073 ], [ -2.205727269999954, 43.155048535000049 ], [ -2.208894, 43.150630999000043 ], [ -2.232522464999931, 43.135833625000032 ], [ -2.22561228099994, 43.126153389000081 ], [ -2.227210499999956, 43.114429499000039 ], [ -2.242181499999958, 43.107433499000081 ], [ -2.254499154999962, 43.106214965000049 ], [ -2.266423050999947, 43.11212572200003 ], [ -2.280521, 43.106708499000035 ], [ -2.306594, 43.131248499000037 ], [ -2.303255197999931, 43.138806079000062 ], [ -2.292299193999952, 43.14877541900006 ], [ -2.292266630999961, 43.160036686000069 ], [ -2.297067268999967, 43.172595108000053 ], [ -2.292281640999931, 43.174712724000074 ], [ -2.290326745999948, 43.188073848000045 ], [ -2.293138738999971, 43.202003882000042 ], [ -2.300840499999936, 43.213260499000057 ], [ -2.288496, 43.223365999000066 ], [ -2.286480444999938, 43.217382801000042 ], [ -2.279938486999924, 43.216051532000051 ], [ -2.258122577999927, 43.22386815200008 ], [ -2.257470840999929, 43.214323010000044 ], [ -2.251284848999944, 43.216820208000058 ], [ -2.245230581999976, 43.215232832000027 ], [ -2.233262560999947, 43.206769330000043 ], [ -2.228281, 43.197337999000069 ] ] ] } },
{ "type": "Feature", "properties": { "code": "20019", "name": "Beasain" }, "geometry": { "type": "Polygon", "coordinates": [ [ [ -2.242181499999958, 43.107433499000081 ], [ -2.227210499999956, 43.114429499000039 ], [ -2.199243499999966, 43.102260499000067 ], [ -2.206139499999949, 43.084197999000025 ], [ -2.192097106999938, 43.072897570000066 ], [ -2.186176499999931, 43.04785799900003 ], [ -2.190773465999939, 43.047586055000068 ], [ -2.193354835999969, 43.04101150200006 ], [ -2.198680499999966, 43.038122499000053 ], [ -2.215481060999934, 43.042430140000079 ], [ -2.219663499999967, 43.034984499000075 ], [ -2.230712499999925, 43.035853999000039 ], [ -2.231948145999979, 43.040722226000071 ], [ -2.240644689999954, 43.046878523000032 ], [ -2.246630499999981, 43.058288999000069 ], [ -2.248234640999954, 43.072241093000059 ], [ -2.241264779999938, 43.075795796000079 ], [ -2.244127841999955, 43.085625993000065 ], [ -2.236288344999934, 43.094004263000045 ], [ -2.243634963999966, 43.099768206000078 ], [ -2.242181499999958, 43.107433499000081 ] ] ] } },
{ "type": "Feature", "properties": { "code": "20020", "name": "Beizama" }, "geometry": { "type": "Polygon", "coordinates": [ [ [ -2.199243499999966, 43.102260499000067 ], [ -2.227210499999956, 43.114429499000039 ], [ -2.22561228099994, 43.126153389000081 ], [ -2.232522464999931, 43.135833625000032 ], [ -2.208894, 43.150630999000043 ], [ -2.198282578999965, 43.150893719000067 ], [ -2.193359, 43.147990999000058 ], [ -2.176699643999939, 43.121077412000034 ], [ -2.179657499999962, 43.113189499000043 ], [ -2.183038499999952, 43.10749449900004 ], [ -2.182518, 43.104167999000026 ], [ -2.189684499999942, 43.103057999000043 ], [ -2.196063, 43.105876999000031 ], [ -2.199243499999966, 43.102260499000067 ] ] ] } },
{ "type": "Feature", "properties": { "code": "20021", "name": "Belauntza" }, "geometry": { "type": "Polygon", "coordinates": [ [ [ -2.018879, 43.135215499000026 ], [ -2.016472499999963, 43.12897349900004 ], [ -2.033957, 43.129626999000038 ], [ -2.045333014999926, 43.131446005000043 ], [ -2.049524, 43.128913499000078 ], [ -2.056270684999959, 43.135117153000067 ], [ -2.05269463299993, 43.142019515000072 ], [ -2.037362, 43.144511999000031 ], [ -2.02621196399997, 43.134898232000069 ], [ -2.018879, 43.135215499000026 ] ] ] } },
{ "type": "Feature", "properties": { "code": "20022", "name": "Berastegi" }, "geometry": { "type": "MultiPolygon", "coordinates": [ [ [ [ -2.005527, 43.11762999900003 ], [ -1.994466952999971, 43.136663448000036 ], [ -1.981681628999979, 43.14516419000006 ], [ -1.970043030999932, 43.144584272000031 ], [ -1.967092412999932, 43.146718534000058 ], [ -1.964778880999972, 43.165296543000068 ], [ -1.930672589999972, 43.164139758000033 ], [ -1.91834, 43.159647999000072 ], [ -1.919558741999936, 43.149961571000063 ], [ -1.906190808999952, 43.14463508800003 ], [ -1.902848499999948, 43.140716499000064 ], [ -1.903426065999952, 43.135287491000042 ], [ -1.916151570999943, 43.127808074000029 ], [ -1.92302325299994, 43.116557893000049 ], [ -1.938373498999965, 43.10829084900007 ], [ -1.947359572999972, 43.100573752000059 ], [ -1.94754649999993, 43.097484499000075 ], [ -1.973378, 43.091525999000055 ], [ -1.975262499999928, 43.091262499000038 ], [ -1.990703499999938, 43.094710999000029 ], [ -1.996006499999964, 43.099204999000051 ], [ -2.005527, 43.11762999900003 ] ] ], [ [ [ -2.018879, 43.135215499000026 ], [ -2.02035157399996, 43.146334342000046 ], [ -2.011545, 43.156944499000076 ], [ -2.00926, 43.162021499000048 ], [ -2.003724148999936, 43.167870980000032 ], [ -2.003383624999969, 43.17563976200006 ], [ -1.995593483999926, 43.180888688000039 ], [ -1.996899499999927, 43.186775499000078 ], [ -1.98389949999995, 43.190063499000075 ], [ -2.004031184999974, 43.154416960000049 ], [ -2.011588109999934, 43.148305117000064 ], [ -2.012095492999947, 43.138734989000056 ], [ -2.017612499999927, 43.133008499000027 ], [ -2.018879, 43.135215499000026 ] ] ] ] } },
{ "type": "Feature", "properties": { "code": "20023", "name": "Berrobi" }, "geometry": { "type": "Polygon", "coordinates": [ [ [ -2.011545, 43.156944499000076 ], [ -2.02035157399996, 43.146334342000046 ], [ -2.018879, 43.135215499000026 ], [ -2.02621196399997, 43.134898232000069 ], [ -2.037362, 43.144511999000031 ], [ -2.032054965999976, 43.151891185000068 ], [ -2.011545, 43.156944499000076 ] ] ] } },
{ "type": "Feature", "properties": { "code": "20024", "name": "Bidania-Goiatz" }, "geometry": { "type": "MultiPolygon", "coordinates": [ [ [ [ -2.193359, 43.147990999000058 ], [ -2.187765253999942, 43.14953014300005 ], [ -2.177169188999926, 43.146751455000071 ], [ -2.156322050999961, 43.15233127700003 ], [ -2.147753, 43.167728499000077 ], [ -2.137990879999961, 43.152607532000047 ], [ -2.142597849999959, 43.140013167000063 ], [ -2.151299437999967, 43.133433339000078 ], [ -2.156722951999939, 43.119113976000051 ], [ -2.164832843999932, 43.111715523000044 ], [ -2.179657499999962, 43.113189499000043 ], [ -2.176699643999939, 43.121077412000034 ], [ -2.193359, 43.147990999000058 ] ] ], [ [ [ -2.180088499999954, 43.097476999000037 ], [ -2.190283, 43.098712999000043 ], [ -2.199243499999966, 43.102260499000067 ], [ -2.196063, 43.105876999000031 ], [ -2.189684499999942, 43.103057999000043 ], [ -2.182518, 43.104167999000026 ], [ -2.180609499999946, 43.100749999000072 ], [ -2.180088499999954, 43.097476999000037 ] ] ] ] } },
{ "type": "Feature", "properties": { "code": "20025", "name": "Zegama" }, "geometry": { "type": "Polygon", "coordinates": [ [ [ -2.313692, 42.996696499000052 ], [ -2.303044499999942, 42.997676999000078 ], [ -2.290655, 42.996509499000069 ], [ -2.288089499999955, 42.994487999000057 ], [ -2.286215, 42.994384499000034 ], [ -2.282354, 42.996150999000065 ], [ -2.271956015999933, 42.99231665700006 ], [ -2.259541461999959, 42.959328138000046 ], [ -2.261272496999936, 42.949851717000058 ], [ -2.258377, 42.946571499000072 ], [ -2.259222763999958, 42.940093451000052 ], [ -2.274757937999937, 42.931616117000033 ], [ -2.30189904599996, 42.936281809000036 ], [ -2.324841444999947, 42.947198282000045 ], [ -2.340777499999945, 42.968272999000078 ], [ -2.332339978999926, 42.981039899000052 ], [ -2.314444667999965, 42.992674257000033 ], [ -2.313692, 42.996696499000052 ] ] ] } },
{ "type": "Feature", "properties": { "code": "20026", "name": "Zerain" }, "geometry": { "type": "Polygon", "coordinates": [ [ [ -2.315174, 43.022288999000068 ], [ -2.298099965999938, 43.023746173000063 ], [ -2.284185494999974, 43.017560047000075 ], [ -2.26168, 43.017974999000046 ], [ -2.258348771999977, 43.015703234000057 ], [ -2.259398146999956, 43.009320586000058 ], [ -2.278259639999931, 43.004981390000069 ], [ -2.282354, 42.996150999000065 ], [ -2.286215, 42.994384499000034 ], [ -2.288089499999955, 42.994487999000057 ], [ -2.290655, 42.996509499000069 ], [ -2.303044499999942, 42.997676999000078 ], [ -2.313692, 42.996696499000052 ], [ -2.318939499999942, 43.015918499000065 ], [ -2.315174, 43.022288999000068 ] ] ] } },
{ "type": "Feature", "properties": { "code": "20027", "name": "Zestoa" }, "geometry": { "type": "Polygon", "coordinates": [ [ [ -2.253685, 43.267875999000069 ], [ -2.250923234999959, 43.253290419000052 ], [ -2.236659741999972, 43.253108239000028 ], [ -2.215881, 43.260093999000048 ], [ -2.208634612999958, 43.254769234000037 ], [ -2.21229914099996, 43.247589179000045 ], [ -2.199228262999952, 43.224226731000044 ], [ -2.188446366999926, 43.214544785000044 ], [ -2.172585, 43.208430999000029 ], [ -2.181366897999965, 43.206444592000025 ], [ -2.19449816499997, 43.198106798000026 ], [ -2.215518070999963, 43.200223176000065 ], [ -2.228281, 43.197337999000069 ], [ -2.233262560999947, 43.206769330000043 ], [ -2.245230581999976, 43.215232832000027 ], [ -2.251284848999944, 43.216820208000058 ], [ -2.257470840999929, 43.214323010000044 ], [ -2.258122577999927, 43.22386815200008 ], [ -2.279938486999924, 43.216051532000051 ], [ -2.286480444999938, 43.217382801000042 ], [ -2.288496, 43.223365999000066 ], [ -2.278293787999928, 43.232857107000029 ], [ -2.276262515999974, 43.240397208000047 ], [ -2.294586994999975, 43.244249148000051 ], [ -2.295444575999966, 43.258323635000067 ], [ -2.267774432999943, 43.284978994000028 ], [ -2.268688, 43.289928499000041 ], [ -2.265562545999956, 43.288270632000035 ], [ -2.265983780999932, 43.282842367000057 ], [ -2.262653521999937, 43.277619536000032 ], [ -2.254203582999935, 43.28057990800005 ], [ -2.253685, 43.267875999000069 ] ] ] } },
{ "type": "Feature", "properties": { "code": "20028", "name": "Zizurkil" }, "geometry": { "type": "Polygon", "coordinates": [ [ [ -2.055795, 43.245837999000059 ], [ -2.05069, 43.243835499000056 ], [ -2.055241858999977, 43.239188599000045 ], [ -2.055506, 43.230396499000051 ], [ -2.059214940999937, 43.220695744000068 ], [ -2.069239858999936, 43.225209027000062 ], [ -2.077722714999936, 43.218763363000051 ], [ -2.068017891999943, 43.209571582000081 ], [ -2.064530403999925, 43.202358053000069 ], [ -2.05483049999998, 43.195865499000035 ], [ -2.055237638999927, 43.187464285000033 ], [ -2.066503446999945, 43.186410527000078 ], [ -2.073495, 43.180843499000048 ], [ -2.075059065999938, 43.189961785000037 ], [ -2.082207763999975, 43.19176847500006 ], [ -2.089086879999968, 43.199123205000035 ], [ -2.092271725999979, 43.203861173000064 ], [ -2.091432851999969, 43.209003218000078 ], [ -2.108746499999938, 43.228427999000075 ], [ -2.099185265999949, 43.231157116000077 ], [ -2.082104, 43.242732999000054 ], [ -2.078017, 43.242606999000031 ], [ -2.073119, 43.240001999000071 ], [ -2.066512, 43.239364499000033 ], [ -2.06521, 43.242324999000061 ], [ -2.063507, 43.243407999000055 ], [ -2.059934, 43.243407999000055 ], [ -2.058445499999948, 43.244986999000048 ], [ -2.055795, 43.245837999000059 ] ] ] } },
{ "type": "Feature", "properties": { "code": "20029", "name": "Deba" }, "geometry": { "type": "Polygon", "coordinates": [ [ [ -2.288496, 43.223365999000066 ], [ -2.300840499999936, 43.213260499000057 ], [ -2.33246749999995, 43.230102499000054 ], [ -2.346683905999953, 43.239652416000069 ], [ -2.350456005999945, 43.249044038000079 ], [ -2.362603441999966, 43.262192987000049 ], [ -2.372915499999976, 43.268043499000044 ], [ -2.374001987999975, 43.277364616000057 ], [ -2.366335288999949, 43.279775498000049 ], [ -2.367540356999939, 43.290989800000034 ], [ -2.358597384999939, 43.290216591000046 ], [ -2.355701, 43.299598499000069 ], [ -2.348629230999961, 43.299417125000048 ], [ -2.34385733299996, 43.302700081000069 ], [ -2.325235861999943, 43.297153992000062 ], [ -2.285051, 43.294723499000042 ], [ -2.268688, 43.289928499000041 ], [ -2.267774432999943, 43.284978994000028 ], [ -2.295444575999966, 43.258323635000067 ], [ -2.294586994999975, 43.244249148000051 ], [ -2.276262515999974, 43.240397208000047 ], [ -2.278293787999928, 43.232857107000029 ], [ -2.288496, 43.223365999000066 ] ] ] } },
{ "type": "Feature", "properties": { "code": "20030", "name": "Eibar" }, "geometry": { "type": "Polygon", "coordinates": [ [ [ -2.498996499999976, 43.212092999000049 ], [ -2.498614001999954, 43.218024118000073 ], [ -2.49383391799995, 43.224809475000029 ], [ -2.463253499999951, 43.22346649900004 ], [ -2.445941956999945, 43.214624389000051 ], [ -2.437795756999947, 43.206788134000078 ], [ -2.433518883999966, 43.200057779000076 ], [ -2.436809499999924, 43.19276049900003 ], [ -2.44389949999993, 43.169914499000072 ], [ -2.451782, 43.170348999000055 ], [ -2.460175499999934, 43.162921999000048 ], [ -2.473830499999963, 43.168659999000056 ], [ -2.474417, 43.17186749900003 ], [ -2.477731499999948, 43.174285999000062 ], [ -2.481340499999931, 43.175265999000032 ], [ -2.484869499999945, 43.171608499000058 ], [ -2.492479499999945, 43.180875999000079 ], [ -2.48764797299998, 43.200205835000077 ], [ -2.496406, 43.207634999000049 ], [ -2.498996499999976, 43.212092999000049 ] ] ] } },
{ "type": "Feature", "properties": { "code": "20031", "name": "Elduain" }, "geometry": { "type": "Polygon", "coordinates": [ [ [ -1.98389949999995, 43.190063499000075 ], [ -1.982794, 43.192107999000029 ], [ -1.978698, 43.194213499000057 ], [ -1.96623, 43.194957499000054 ], [ -1.958782499999927, 43.189208999000073 ], [ -1.947178496999925, 43.181840640000075 ], [ -1.920939, 43.172511999000051 ], [ -1.91926449999994, 43.170490499000039 ], [ -1.91685549999994, 43.16918799900003 ], [ -1.91834, 43.159647999000072 ], [ -1.930672589999972, 43.164139758000033 ], [ -1.964778880999972, 43.165296543000068 ], [ -1.967092412999932, 43.146718534000058 ], [ -1.970043030999932, 43.144584272000031 ], [ -1.981681628999979, 43.14516419000006 ], [ -1.994466952999971, 43.136663448000036 ], [ -2.005527, 43.11762999900003 ], [ -2.008856499999979, 43.12084949900003 ], [ -2.017928499999925, 43.126888499000074 ], [ -2.016472499999963, 43.12897349900004 ], [ -2.017612499999927, 43.133008499000027 ], [ -2.012095492999947, 43.138734989000056 ], [ -2.011588109999934, 43.148305117000064 ], [ -2.004031184999974, 43.154416960000049 ], [ -1.98389949999995, 43.190063499000075 ] ] ] } },
{ "type": "Feature", "properties": { "code": "20032", "name": "Elgoibar" }, "geometry": { "type": "Polygon", "coordinates": [ [ [ -2.35926349999994, 43.21276399900006 ], [ -2.357810975999939, 43.207443195000053 ], [ -2.363601313999936, 43.198344305000035 ], [ -2.36113286899996, 43.190097008000066 ], [ -2.365716205999945, 43.18465885300003 ], [ -2.367417499999931, 43.176627999000061 ], [ -2.373479, 43.175796499000057 ], [ -2.38860363799995, 43.184092394000061 ], [ -2.422620306999931, 43.196167136000042 ], [ -2.436809499999924, 43.19276049900003 ], [ -2.433518883999966, 43.200057779000076 ], [ -2.437795756999947, 43.206788134000078 ], [ -2.445941956999945, 43.214624389000051 ], [ -2.463253499999951, 43.22346649900004 ], [ -2.436825, 43.243442499000025 ], [ -2.400449546999937, 43.243372964000059 ], [ -2.382785443999978, 43.237303783000073 ], [ -2.365609836999965, 43.22736859500003 ], [ -2.358653879999963, 43.216925672000059 ], [ -2.35926349999994, 43.21276399900006 ] ] ] } },
{ "type": "Feature", "properties": { "code": "20033", "name": "Elgeta" }, "geometry": { "type": "Polygon", "coordinates": [ [ [ -2.496248, 43.12335949900006 ], [ -2.502837208999949, 43.138202728000067 ], [ -2.501261026999941, 43.150840697000035 ], [ -2.508852206999961, 43.160056950000069 ], [ -2.507703062999951, 43.164972607000038 ], [ -2.484869499999945, 43.171608499000058 ], [ -2.481340499999931, 43.175265999000032 ], [ -2.477731499999948, 43.174285999000062 ], [ -2.474417, 43.17186749900003 ], [ -2.473830499999963, 43.168659999000056 ], [ -2.460175499999934, 43.162921999000048 ], [ -2.459514, 43.156985999000028 ], [ -2.457263499999954, 43.155631999000036 ], [ -2.455999, 43.151221999000029 ], [ -2.464389, 43.141105499000048 ], [ -2.466211499999929, 43.140773999000032 ], [ -2.463988, 43.135017499000071 ], [ -2.472903, 43.121875999000054 ], [ -2.496248, 43.12335949900006 ] ] ] } },
{ "type": "Feature", "properties": { "code": "20034", "name": "Eskoriatza" }, "geometry": { "type": "Polygon", "coordinates": [ [ [ -2.593162, 42.986900999000056 ], [ -2.599988063999945, 42.998701881000045 ], [ -2.596567124999979, 43.00747896300004 ], [ -2.580362322999974, 43.008712498000079 ], [ -2.563793601999976, 43.017948789000059 ], [ -2.547584806999964, 43.021151867000071 ], [ -2.541424943999971, 43.025432418000037 ], [ -2.540402880999977, 43.033017521000033 ], [ -2.531092591999936, 43.043350081000028 ], [ -2.524742, 43.045266499000036 ], [ -2.508006209999962, 43.01783550600004 ], [ -2.498832120999964, 43.020715279000058 ], [ -2.500602182999955, 43.003685537000081 ], [ -2.48335, 42.964891499000032 ], [ -2.503385572999946, 42.959977688000038 ], [ -2.534695, 42.973282999000048 ], [ -2.54044868099993, 42.982639564000067 ], [ -2.561187420999943, 42.992924624000068 ], [ -2.576480783999955, 42.992585897000026 ], [ -2.593162, 42.986900999000056 ] ] ] } },
{ "type": "Feature", "properties": { "code": "20035", "name": "Ezkio-Itsaso" }, "geometry": { "type": "Polygon", "coordinates": [ [ [ -2.303962499999955, 43.070716999000069 ], [ -2.280521, 43.106708499000035 ], [ -2.266423050999947, 43.11212572200003 ], [ -2.254499154999962, 43.106214965000049 ], [ -2.242181499999958, 43.107433499000081 ], [ -2.243634963999966, 43.099768206000078 ], [ -2.236288344999934, 43.094004263000045 ], [ -2.244127841999955, 43.085625993000065 ], [ -2.241264779999938, 43.075795796000079 ], [ -2.248234640999954, 43.072241093000059 ], [ -2.246630499999981, 43.058288999000069 ], [ -2.25788560999996, 43.057133814000053 ], [ -2.262059, 43.053794999000047 ], [ -2.286428404999924, 43.06872209200003 ], [ -2.303962499999955, 43.070716999000069 ] ] ] } },
{ "type": "Feature", "properties": { "code": "20036", "name": "Hondarribia" }, "geometry": { "type": "Polygon", "coordinates": [ [ [ -1.871130499999936, 43.368034499000032 ], [ -1.849556864999954, 43.378191603000062 ], [ -1.844300240999928, 43.37625666200006 ], [ -1.835542995999958, 43.381794790000072 ], [ -1.804707135999934, 43.387862623000046 ], [ -1.791172295999957, 43.394964934000029 ], [ -1.788611482999954, 43.39053622800003 ], [ -1.797142037999947, 43.381497081000077 ], [ -1.797676235999973, 43.37670531100008 ], [ -1.789798014999974, 43.365426460000037 ], [ -1.781794261999949, 43.360617631000025 ], [ -1.789346499999965, 43.353286499000035 ], [ -1.802947769999946, 43.344814236000047 ], [ -1.821308, 43.339680264000037 ], [ -1.835878849999972, 43.331522677000066 ], [ -1.849447, 43.330054999000026 ], [ -1.86594249999996, 43.360996499000066 ], [ -1.871130499999936, 43.368034499000032 ] ] ] } },
{ "type": "Feature", "properties": { "code": "20037", "name": "Gaintza" }, "geometry": { "type": "Polygon", "coordinates": [ [ [ -2.140458, 43.062664999000049 ], [ -2.120597499999974, 43.068538499000056 ], [ -2.118058, 43.06495299900007 ], [ -2.11502491899995, 43.05083245600008 ], [ -2.12163849999996, 43.040397499000051 ], [ -2.129463832999932, 43.043218681000042 ], [ -2.140730578999978, 43.041926315000069 ], [ -2.148826499999927, 43.052551999000059 ], [ -2.140458, 43.062664999000049 ] ] ] } },
{ "type": "Feature", "properties": { "code": "20038", "name": "Gabiria" }, "geometry": { "type": "Polygon", "coordinates": [ [ [ -2.311694, 43.032874999000057 ], [ -2.319666889999951, 43.041526394000073 ], [ -2.32134040699998, 43.050474115000043 ], [ -2.326643601999933, 43.058062447000054 ], [ -2.326576790999979, 43.061572703000081 ], [ -2.321287, 43.065734999000028 ], [ -2.306747499999972, 43.066737999000054 ], [ -2.303962499999955, 43.070716999000069 ], [ -2.286428404999924, 43.06872209200003 ], [ -2.262059, 43.053794999000047 ], [ -2.270726, 43.038566499000069 ], [ -2.285641949999956, 43.039305179000053 ], [ -2.293398615999934, 43.035451886000033 ], [ -2.311694, 43.032874999000057 ] ] ] } },
{ "type": "Feature", "properties": { "code": "20039", "name": "Getaria" }, "geometry": { "type": "Polygon", "coordinates": [ [ [ -2.193682499999966, 43.275752999000076 ], [ -2.198828, 43.273357499000042 ], [ -2.205603499999938, 43.272659499000042 ], [ -2.212811226999975, 43.275273178000077 ], [ -2.214709219999975, 43.282985444000076 ], [ -2.240197131999935, 43.29620125200006 ], [ -2.24568, 43.302390999000067 ], [ -2.229327778999959, 43.310394975000065 ], [ -2.206741242999954, 43.304692261000071 ], [ -2.201297974999932, 43.310574399000075 ], [ -2.202077537999969, 43.301441517000058 ], [ -2.19327977599994, 43.298321133000059 ], [ -2.189533499999925, 43.292182999000033 ], [ -2.193682499999966, 43.275752999000076 ] ] ] } },
{ "type": "Feature", "properties": { "code": "20040", "name": "Hernani" }, "geometry": { "type": "Polygon", "coordinates": [ [ [ -1.900484499999948, 43.237140499000077 ], [ -1.908765794999965, 43.235107673000073 ], [ -1.910899499999971, 43.227180499000042 ], [ -1.91463230599993, 43.222787256000061 ], [ -1.911681235999936, 43.203614843000025 ], [ -1.921537773999944, 43.186156762000053 ], [ -1.920939, 43.172511999000051 ], [ -1.947178496999925, 43.181840640000075 ], [ -1.958782499999927, 43.189208999000073 ], [ -1.945128275999934, 43.195660887000031 ], [ -1.942096982999942, 43.20625999400005 ], [ -1.947275090999938, 43.215814901000044 ], [ -1.935364271999958, 43.22532489200006 ], [ -1.946372288999953, 43.229296497000064 ], [ -1.973655532999942, 43.246842686000036 ], [ -1.979848619999927, 43.257624461000034 ], [ -1.999980499999936, 43.260978499000032 ], [ -2.005603, 43.277423999000064 ], [ -1.991460050999933, 43.27877783100007 ], [ -1.983219105999979, 43.283101216000034 ], [ -1.965840576999938, 43.276015137000059 ], [ -1.957629, 43.276941499000031 ], [ -1.957877869999948, 43.273319598000057 ], [ -1.95213718399998, 43.26853720500003 ], [ -1.941151003999948, 43.265936900000042 ], [ -1.937042537999957, 43.253514670000072 ], [ -1.918903, 43.259788999000079 ], [ -1.91459344499998, 43.254678974000058 ], [ -1.905994788999976, 43.255857303000028 ], [ -1.902887011999951, 43.251890079000077 ], [ -1.895129, 43.250766499000065 ], [ -1.892914889999929, 43.245278207000069 ], [ -1.900484499999948, 43.237140499000077 ] ] ] } },
{ "type": "Feature", "properties": { "code": "20041", "name": "Hernialde" }, "geometry": { "type": "Polygon", "coordinates": [ [ [ -2.089724499999932, 43.161941499000079 ], [ -2.080957245999969, 43.159297265000077 ], [ -2.072034499999972, 43.149787999000068 ], [ -2.089406938999957, 43.146948376000068 ], [ -2.114995216999944, 43.149964969000052 ], [ -2.120106173999943, 43.152134550000028 ], [ -2.120852, 43.156333499000027 ], [ -2.089724499999932, 43.161941499000079 ] ] ] } },
{ "type": "Feature", "properties": { "code": "20042", "name": "Ibarra" }, "geometry": { "type": "Polygon", "coordinates": [ [ [ -2.037362, 43.144511999000031 ], [ -2.05269463299993, 43.142019515000072 ], [ -2.056270684999959, 43.135117153000067 ], [ -2.049524, 43.128913499000078 ], [ -2.059675135999953, 43.122405399000058 ], [ -2.065817, 43.122069499000077 ], [ -2.069852450999974, 43.133789412000056 ], [ -2.067411045999961, 43.138354476000075 ], [ -2.05327035199997, 43.150121940000076 ], [ -2.032810645999973, 43.15605726900003 ], [ -2.031451499999946, 43.159751999000036 ], [ -2.027195, 43.162002499000039 ], [ -2.025037499999939, 43.160068999000032 ], [ -2.025488, 43.158007999000063 ], [ -2.010696499999938, 43.15990799900004 ], [ -2.011545, 43.156944499000076 ], [ -2.032054965999976, 43.151891185000068 ], [ -2.037362, 43.144511999000031 ] ] ] } },
{ "type": "Feature", "properties": { "code": "20043", "name": "Idiazabal" }, "geometry": { "type": "Polygon", "coordinates": [ [ [ -2.230712499999925, 43.035853999000039 ], [ -2.219663499999967, 43.034984499000075 ], [ -2.220915200999968, 43.027159490000031 ], [ -2.216210842999942, 43.019705950000059 ], [ -2.215035402999945, 43.009865228000081 ], [ -2.205820499999959, 43.001373499000067 ], [ -2.202292, 42.999126499000056 ], [ -2.203799084999957, 42.99316714400004 ], [ -2.212379167999927, 42.986901146000037 ], [ -2.211524119999979, 42.981454681000059 ], [ -2.217582310999944, 42.976570231000039 ], [ -2.218647884999939, 42.965288175000069 ], [ -2.212272499999926, 42.95148849900005 ], [ -2.226911, 42.94753649900008 ], [ -2.240595, 42.94622399900004 ], [ -2.252333499999963, 42.948657999000034 ], [ -2.255884, 42.947978999000043 ], [ -2.258377, 42.946571499000072 ], [ -2.261272496999936, 42.949851717000058 ], [ -2.259541461999959, 42.959328138000046 ], [ -2.262719, 42.967967999000052 ], [ -2.244441565999978, 42.990011931000026 ], [ -2.247794, 43.025386999000034 ], [ -2.244660002999979, 43.03131399800003 ], [ -2.230712499999925, 43.035853999000039 ] ] ] } },
{ "type": "Feature", "properties": { "code": "20044", "name": "Ikaztegieta" }, "geometry": { "type": "Polygon", "coordinates": [ [ [ -2.125510499999962, 43.084125499000038 ], [ -2.133220499999936, 43.094962999000074 ], [ -2.106596388999947, 43.09493618700003 ], [ -2.106229499999927, 43.091987499000027 ], [ -2.125510499999962, 43.084125499000038 ] ] ] } },
{ "type": "Feature", "properties": { "code": "20045", "name": "Irun" }, "geometry": { "type": "Polygon", "coordinates": [ [ [ -1.760938499999952, 43.344141999000044 ], [ -1.753626002999965, 43.340890019000028 ], [ -1.750364463999972, 43.332128705000059 ], [ -1.73846932899994, 43.32987322200006 ], [ -1.740752017999966, 43.316551931000049 ], [ -1.728903, 43.296088999000062 ], [ -1.731226867999965, 43.294119591000026 ], [ -1.743439168999942, 43.294553 ], [ -1.764078706999953, 43.286920863000034 ], [ -1.772614783999927, 43.288862850000044 ], [ -1.783258499999931, 43.286773499000049 ], [ -1.792310344999976, 43.294516461000057 ], [ -1.833529081999927, 43.312847115000068 ], [ -1.852278499999954, 43.325111499000059 ], [ -1.849447, 43.330054999000026 ], [ -1.835878849999972, 43.331522677000066 ], [ -1.821308, 43.339680264000037 ], [ -1.802947769999946, 43.344814236000047 ], [ -1.789346499999965, 43.353286499000035 ], [ -1.785978, 43.350478999000075 ], [ -1.772418219999963, 43.342868685000042 ], [ -1.760938499999952, 43.344141999000044 ] ] ] } },
{ "type": "Feature", "properties": { "code": "20046", "name": "Irura" }, "geometry": { "type": "Polygon", "coordinates": [ [ [ -2.040882, 43.159309499000074 ], [ -2.066591499999959, 43.157569999000032 ], [ -2.070471454999961, 43.167160587000069 ], [ -2.057475499999953, 43.176852999000062 ], [ -2.040882, 43.159309499000074 ] ] ] } },
{ "type": "Feature", "properties": { "code": "20047", "name": "Itsasondo" }, "geometry": { "type": "Polygon", "coordinates": [ [ [ -2.206139499999949, 43.084197999000025 ], [ -2.199243499999966, 43.102260499000067 ], [ -2.190283, 43.098712999000043 ], [ -2.180088499999954, 43.097476999000037 ], [ -2.168952157999968, 43.090066849000038 ], [ -2.164216970999973, 43.077993998000068 ], [ -2.157021, 43.07639449900006 ], [ -2.158210321999945, 43.068572556000049 ], [ -2.161892499999965, 43.065056999000035 ], [ -2.172279, 43.062173499000039 ], [ -2.178951151999968, 43.062766243000056 ], [ -2.183227942999963, 43.073459232000062 ], [ -2.189004290999947, 43.079322726000044 ], [ -2.206139499999949, 43.084197999000025 ] ] ] } },
{ "type": "Feature", "properties": { "code": "20048", "name": "Larraul" }, "geometry": { "type": "Polygon", "coordinates": [ [ [ -2.147542, 43.173510499000031 ], [ -2.153603, 43.178889999000035 ], [ -2.140253995999956, 43.190981648000047 ], [ -2.134616691999952, 43.19385544000005 ], [ -2.121502810999971, 43.191677113000026 ], [ -2.109736813999973, 43.194301728000028 ], [ -2.099035422999975, 43.191549309000038 ], [ -2.088614, 43.186160999000037 ], [ -2.097694679999961, 43.181395826000028 ], [ -2.129004067999972, 43.181398056000035 ], [ -2.14221032699993, 43.177438792000032 ], [ -2.147542, 43.173510499000031 ] ] ] } },
{ "type": "Feature", "properties": { "code": "20049", "name": "Lazkao" }, "geometry": { "type": "MultiPolygon", "coordinates": [ [ [ [ -2.114995499999964, 42.990829499000029 ], [ -2.114027, 42.989108999000052 ], [ -2.124984, 42.984653499000046 ], [ -2.128682499999968, 42.985980999000049 ], [ -2.128322, 42.990661499000055 ], [ -2.13373, 42.993366499000047 ], [ -2.140868204999947, 42.995301555000026 ], [ -2.151171775999956, 43.008722056000067 ], [ -2.147742499999936, 43.01532749900008 ], [ -2.142650151999931, 43.01126062700007 ], [ -2.144039212999928, 43.006445013000075 ], [ -2.139513329999943, 42.999265826000055 ], [ -2.124030499999947, 42.995730999000045 ], [ -2.120824499999969, 42.989863999000079 ], [ -2.114995499999964, 42.990829499000029 ] ] ], [ [ [ -2.168720499999949, 43.04220949900008 ], [ -2.155567335999933, 43.028701968000064 ], [ -2.155532664999953, 43.021961056000066 ], [ -2.161633499999937, 43.018970499000034 ], [ -2.183256123999968, 43.018008221000059 ], [ -2.194096671999944, 43.002591573000075 ], [ -2.202292, 42.999126499000056 ], [ -2.205820499999959, 43.001373499000067 ], [ -2.200822090999964, 43.007607550000046 ], [ -2.20143655499993, 43.012667058000034 ], [ -2.193711023999924, 43.017832016000057 ], [ -2.191083497999955, 43.027161392000039 ], [ -2.198680499999966, 43.038122499000053 ], [ -2.193354835999969, 43.04101150200006 ], [ -2.190773465999939, 43.047586055000068 ], [ -2.186176499999931, 43.04785799900003 ], [ -2.184332216999962, 43.04428224600008 ], [ -2.174449927999945, 43.039171456000076 ], [ -2.168720499999949, 43.04220949900008 ] ] ] ] } },
{ "type": "Feature", "properties": { "code": "20050", "name": "Leaburu" }, "geometry": { "type": "MultiPolygon", "coordinates": [ [ [ [ -1.985299, 43.08914549900004 ], [ -1.990703499999938, 43.094710999000029 ], [ -1.975262499999928, 43.091262499000038 ], [ -1.975201499999969, 43.086768999000071 ], [ -1.973163, 43.084571999000048 ], [ -1.978825499999971, 43.081668999000044 ], [ -1.981353, 43.085590499000034 ], [ -1.985299, 43.08914549900004 ] ] ], [ [ [ -2.022847, 43.065150999000025 ], [ -2.033560499999965, 43.073470999000051 ], [ -2.023117560999935, 43.076129268000045 ], [ -2.020858031999978, 43.080561805000059 ], [ -2.01238, 43.07304749900004 ], [ -2.016087162999952, 43.066321047000031 ], [ -2.022847, 43.065150999000025 ] ] ], [ [ [ -2.065817, 43.122069499000077 ], [ -2.059675135999953, 43.122405399000058 ], [ -2.045333014999926, 43.131446005000043 ], [ -2.033957, 43.129626999000038 ], [ -2.038385356999925, 43.121733458000051 ], [ -2.054882499999962, 43.116016499000068 ], [ -2.065400163999925, 43.109693599000025 ], [ -2.074424, 43.11368199900005 ], [ -2.073062948999961, 43.11755925500006 ], [ -2.065817, 43.122069499000077 ] ] ] ] } },
{ "type": "Feature", "properties": { "code": "20051", "name": "Legazpi" }, "geometry": { "type": "Polygon", "coordinates": [ [ [ -2.313692, 42.996696499000052 ], [ -2.314444667999965, 42.992674257000033 ], [ -2.332339978999926, 42.981039899000052 ], [ -2.340777499999945, 42.968272999000078 ], [ -2.349193038999942, 42.974559355000054 ], [ -2.366797499999961, 42.98003649900005 ], [ -2.371395646999929, 42.989206011000078 ], [ -2.356338075999929, 42.999871964000079 ], [ -2.352655826999978, 43.007486131000064 ], [ -2.359098914999947, 43.015442885000027 ], [ -2.360577557999932, 43.023342626000044 ], [ -2.358113116999959, 43.030136891000041 ], [ -2.367413916999965, 43.03774530000004 ], [ -2.36169037999997, 43.046986119000053 ], [ -2.37230117799993, 43.054785648000063 ], [ -2.378146, 43.064967999000032 ], [ -2.373213761999978, 43.06911815400008 ], [ -2.354856825999946, 43.074692689000074 ], [ -2.349904, 43.087791499000048 ], [ -2.344857499999932, 43.087440499000081 ], [ -2.343311, 43.086169999000049 ], [ -2.335942, 43.083694499000046 ], [ -2.333148, 43.080798999000081 ], [ -2.324774499999933, 43.078136499000038 ], [ -2.329190411999946, 43.07215705200008 ], [ -2.321287, 43.065734999000028 ], [ -2.326576790999979, 43.061572703000081 ], [ -2.326643601999933, 43.058062447000054 ], [ -2.32134040699998, 43.050474115000043 ], [ -2.319666889999951, 43.041526394000073 ], [ -2.311694, 43.032874999000057 ], [ -2.315794, 43.020606999000051 ], [ -2.318939499999942, 43.015918499000065 ], [ -2.313692, 42.996696499000052 ] ] ] } },
{ "type": "Feature", "properties": { "code": "20052", "name": "Legorreta" }, "geometry": { "type": "Polygon", "coordinates": [ [ [ -2.180609499999946, 43.100749999000072 ], [ -2.172402499999976, 43.097953499000027 ], [ -2.161333, 43.106761999000071 ], [ -2.154037461999962, 43.100814318000062 ], [ -2.133220499999936, 43.094962999000074 ], [ -2.125510499999962, 43.084125499000038 ], [ -2.125704, 43.082576499000027 ], [ -2.138726033999944, 43.07795161100006 ], [ -2.142795499999977, 43.073848499000064 ], [ -2.152253152999947, 43.073389040000052 ], [ -2.157021, 43.07639449900006 ], [ -2.164216970999973, 43.077993998000068 ], [ -2.168952157999968, 43.090066849000038 ], [ -2.180088499999954, 43.097476999000037 ], [ -2.180609499999946, 43.100749999000072 ] ] ] } },
{ "type": "Feature", "properties": { "code": "20053", "name": "Lezo" }, "geometry": { "type": "Polygon", "coordinates": [ [ [ -1.889309499999968, 43.312219999000035 ], [ -1.901987036999969, 43.316968577000068 ], [ -1.90356965999996, 43.322174680000046 ], [ -1.908464, 43.322177999000075 ], [ -1.908638993999944, 43.326970281000058 ], [ -1.898251567999978, 43.331518648000042 ], [ -1.856480499999975, 43.34370399900007 ], [ -1.853029, 43.335719999000048 ], [ -1.849447, 43.330054999000026 ], [ -1.852278499999954, 43.325111499000059 ], [ -1.85878, 43.321536999000045 ], [ -1.870585499999947, 43.320693999000071 ], [ -1.872823499999924, 43.319076499000062 ], [ -1.877281499999981, 43.319480999000064 ], [ -1.88405, 43.318221999000059 ], [ -1.889294499999949, 43.315292499000066 ], [ -1.889309499999968, 43.312219999000035 ] ] ] } },
{ "type": "Feature", "properties": { "code": "20054", "name": "Lizartza" }, "geometry": { "type": "MultiPolygon", "coordinates": [ [ [ [ -1.975262499999928, 43.091262499000038 ], [ -1.973378, 43.091525999000055 ], [ -1.97162183699993, 43.08753222200005 ], [ -1.973163, 43.084571999000048 ], [ -1.975201499999969, 43.086768999000071 ], [ -1.975262499999928, 43.091262499000038 ] ] ], [ [ [ -1.985299, 43.08914549900004 ], [ -1.981353, 43.085590499000034 ], [ -1.983378, 43.084247499000071 ], [ -1.984328499999947, 43.08248099900004 ], [ -1.983734499999969, 43.080432999000038 ], [ -1.988474, 43.078395999000065 ], [ -1.992359069999964, 43.08331742300004 ], [ -1.985299, 43.08914549900004 ] ] ], [ [ [ -2.004516499999966, 43.104213999000081 ], [ -2.004352, 43.101474999000061 ], [ -2.011354499999925, 43.103950499000064 ], [ -2.004516499999966, 43.104213999000081 ] ] ], [ [ [ -2.054882499999962, 43.116016499000068 ], [ -2.036838763999924, 43.113921471000026 ], [ -2.02280963499993, 43.105077642000026 ], [ -2.013486, 43.10359949900004 ], [ -2.020767852999938, 43.098163330000034 ], [ -2.009068350999939, 43.083039694000036 ], [ -2.009892499999978, 43.073413999000024 ], [ -2.01238, 43.07304749900004 ], [ -2.020858031999978, 43.080561805000059 ], [ -2.023117560999935, 43.076129268000045 ], [ -2.033560499999965, 43.073470999000051 ], [ -2.04032049999995, 43.076320499000076 ], [ -2.049662538999939, 43.089324565000027 ], [ -2.059443, 43.11274699900008 ], [ -2.054882499999962, 43.116016499000068 ] ] ] ] } },
{ "type": "Feature", "properties": { "code": "20055", "name": "Arrasate / Mondragón" }, "geometry": { "type": "Polygon", "coordinates": [ [ [ -2.46267, 43.045780499000045 ], [ -2.474798162999946, 43.040246729000046 ], [ -2.486579829999926, 43.039198626000029 ], [ -2.495038674999932, 43.048486125000068 ], [ -2.517909719999977, 43.052789047000033 ], [ -2.528602499999977, 43.051912499000025 ], [ -2.529967499999941, 43.054977499000074 ], [ -2.534064, 43.05940799900003 ], [ -2.540786, 43.062736499000039 ], [ -2.542573, 43.06661249900003 ], [ -2.542387, 43.070134999000061 ], [ -2.548071, 43.074493999000026 ], [ -2.546015, 43.076040499000044 ], [ -2.540782, 43.076221499000042 ], [ -2.547194, 43.084492499000078 ], [ -2.544874, 43.086999999000057 ], [ -2.546387, 43.088008999000067 ], [ -2.542932839999935, 43.091518536000081 ], [ -2.526808077999931, 43.094952487000057 ], [ -2.514349266999943, 43.090596361000053 ], [ -2.501815, 43.094995999000048 ], [ -2.49522985699997, 43.092669302000047 ], [ -2.476084998999966, 43.093514833000029 ], [ -2.461935315999938, 43.076500367000051 ], [ -2.447619798999938, 43.080531806000067 ], [ -2.465219238999964, 43.058595495000077 ], [ -2.459287772999971, 43.051894871000059 ], [ -2.46267, 43.045780499000045 ] ] ] } },
{ "type": "Feature", "properties": { "code": "20056", "name": "Mutriku" }, "geometry": { "type": "Polygon", "coordinates": [ [ [ -2.438562499999932, 43.286955499000044 ], [ -2.436872071999971, 43.298845891000042 ], [ -2.412847, 43.321082999000055 ], [ -2.40667345199995, 43.322308410000062 ], [ -2.393974428999968, 43.318996170000048 ], [ -2.379055799999946, 43.308706613000027 ], [ -2.35824292999996, 43.303772863000063 ], [ -2.355701, 43.299598499000069 ], [ -2.358597384999939, 43.290216591000046 ], [ -2.367540356999939, 43.290989800000034 ], [ -2.366335288999949, 43.279775498000049 ], [ -2.374001987999975, 43.277364616000057 ], [ -2.372915499999976, 43.268043499000044 ], [ -2.396741019999979, 43.269771674000026 ], [ -2.418061, 43.267601999000078 ], [ -2.428196045999925, 43.281188599000075 ], [ -2.438562499999932, 43.286955499000044 ] ] ] } },
{ "type": "Feature", "properties": { "code": "20057", "name": "Mutiloa" }, "geometry": { "type": "Polygon", "coordinates": [ [ [ -2.24776449999996, 43.020675499000049 ], [ -2.26168, 43.017974999000046 ], [ -2.284185494999974, 43.017560047000075 ], [ -2.298099965999938, 43.023746173000063 ], [ -2.315174, 43.022288999000068 ], [ -2.311694, 43.032874999000057 ], [ -2.293398615999934, 43.035451886000033 ], [ -2.285641949999956, 43.039305179000053 ], [ -2.270726, 43.038566499000069 ], [ -2.247794, 43.025386999000034 ], [ -2.24776449999996, 43.020675499000049 ] ] ] } },
{ "type": "Feature", "properties": { "code": "20058", "name": "Olaberria" }, "geometry": { "type": "Polygon", "coordinates": [ [ [ -2.198680499999966, 43.038122499000053 ], [ -2.191083497999955, 43.027161392000039 ], [ -2.193711023999924, 43.017832016000057 ], [ -2.20143655499993, 43.012667058000034 ], [ -2.200822090999964, 43.007607550000046 ], [ -2.205820499999959, 43.001373499000067 ], [ -2.215035402999945, 43.009865228000081 ], [ -2.216210842999942, 43.019705950000059 ], [ -2.220915200999968, 43.027159490000031 ], [ -2.219663499999967, 43.034984499000075 ], [ -2.215481060999934, 43.042430140000079 ], [ -2.198680499999966, 43.038122499000053 ] ] ] } },
{ "type": "Feature", "properties": { "code": "20059", "name": "Oñati" }, "geometry": { "type": "Polygon", "coordinates": [ [ [ -2.444529499999931, 42.958019999000044 ], [ -2.452185004999933, 42.956711532000043 ], [ -2.479391, 42.965871499000059 ], [ -2.479210079999973, 42.974233823000077 ], [ -2.472534442999972, 42.986076444000048 ], [ -2.471092756999951, 42.996424967000053 ], [ -2.451702523999927, 43.025451287000067 ], [ -2.453272700999946, 43.033398875000046 ], [ -2.46267, 43.045780499000045 ], [ -2.459287772999971, 43.051894871000059 ], [ -2.465219238999964, 43.058595495000077 ], [ -2.447619798999938, 43.080531806000067 ], [ -2.412512499999934, 43.073981999000068 ], [ -2.40221330199995, 43.075568587000078 ], [ -2.391929406999964, 43.067677254000046 ], [ -2.378146, 43.064967999000032 ], [ -2.37230117799993, 43.054785648000063 ], [ -2.36169037999997, 43.046986119000053 ], [ -2.367413916999965, 43.03774530000004 ], [ -2.358113116999959, 43.030136891000041 ], [ -2.360577557999932, 43.023342626000044 ], [ -2.359098914999947, 43.015442885000027 ], [ -2.352655826999978, 43.007486131000064 ], [ -2.356338075999929, 42.999871964000079 ], [ -2.371395646999929, 42.989206011000078 ], [ -2.366797499999961, 42.98003649900005 ], [ -2.369169499999941, 42.970317999000031 ], [ -2.362178, 42.96686549900005 ], [ -2.362906, 42.962932499000033 ], [ -2.355574, 42.957011999000031 ], [ -2.354708, 42.955421499000067 ], [ -2.353742, 42.951671499000042 ], [ -2.354871499999945, 42.949671999000032 ], [ -2.363452409999979, 42.947317799000075 ], [ -2.384836, 42.951003999000079 ], [ -2.389887, 42.952781999000081 ], [ -2.394388, 42.952246999000067 ], [ -2.397726499999976, 42.953674499000044 ], [ -2.399963, 42.956678499000077 ], [ -2.404048, 42.957079499000031 ], [ -2.406023, 42.959505499000045 ], [ -2.415201, 42.95896699900004 ], [ -2.422186499999953, 42.955657999000039 ], [ -2.435782, 42.958455499000081 ], [ -2.44194, 42.958810499000037 ], [ -2.444529499999931, 42.958019999000044 ] ] ] } },
{ "type": "Feature", "properties": { "code": "20060", "name": "Orexa" }, "geometry": { "type": "MultiPolygon", "coordinates": [ [ [ [ -1.983734499999969, 43.080432999000038 ], [ -1.984328499999947, 43.08248099900004 ], [ -1.983378, 43.084247499000071 ], [ -1.981353, 43.085590499000034 ], [ -1.978825499999971, 43.081668999000044 ], [ -1.983734499999969, 43.080432999000038 ] ] ], [ [ [ -1.989771, 43.079466999000033 ], [ -2.009892499999978, 43.073413999000024 ], [ -2.009068350999939, 43.083039694000036 ], [ -2.020767852999938, 43.098163330000034 ], [ -2.013486, 43.10359949900004 ], [ -2.011354499999925, 43.103950499000064 ], [ -2.004352, 43.101474999000061 ], [ -2.004516499999966, 43.104213999000081 ], [ -1.998820499999965, 43.102309999000056 ], [ -1.985299, 43.08914549900004 ], [ -1.992359069999964, 43.08331742300004 ], [ -1.989771, 43.079466999000033 ] ] ] ] } },
{ "type": "Feature", "properties": { "code": "20061", "name": "Orio" }, "geometry": { "type": "Polygon", "coordinates": [ [ [ -2.129868, 43.287799999000072 ], [ -2.110203074999959, 43.300528629000041 ], [ -2.082975, 43.307857499000079 ], [ -2.08611824999997, 43.30018367200006 ], [ -2.084477499999934, 43.29473099900008 ], [ -2.094562950999943, 43.284487187000025 ], [ -2.093588, 43.269817499000055 ], [ -2.130938784999955, 43.275131018000025 ], [ -2.133232679999935, 43.279808396000078 ], [ -2.129868, 43.287799999000072 ] ] ] } },
{ "type": "Feature", "properties": { "code": "20062", "name": "Ormaiztegi" }, "geometry": { "type": "Polygon", "coordinates": [ [ [ -2.270726, 43.038566499000069 ], [ -2.262059, 43.053794999000047 ], [ -2.25788560999996, 43.057133814000053 ], [ -2.246630499999981, 43.058288999000069 ], [ -2.240644689999954, 43.046878523000032 ], [ -2.231948145999979, 43.040722226000071 ], [ -2.230712499999925, 43.035853999000039 ], [ -2.244660002999979, 43.03131399800003 ], [ -2.247794, 43.025386999000034 ], [ -2.270726, 43.038566499000069 ] ] ] } },
{ "type": "Feature", "properties": { "code": "20063", "name": "Oiartzun" }, "geometry": { "type": "Polygon", "coordinates": [ [ [ -1.875938, 43.231032999000035 ], [ -1.866634137999938, 43.232197696000071 ], [ -1.850585596999963, 43.244017149000058 ], [ -1.84988994899993, 43.262468159000036 ], [ -1.891236837999941, 43.283479744000033 ], [ -1.896094454999968, 43.294135202000064 ], [ -1.882714029999931, 43.308427183000049 ], [ -1.889309499999968, 43.312219999000035 ], [ -1.889294499999949, 43.315292499000066 ], [ -1.886424, 43.317138999000065 ], [ -1.877281499999981, 43.319480999000064 ], [ -1.872823499999924, 43.319076499000062 ], [ -1.870585499999947, 43.320693999000071 ], [ -1.85878, 43.321536999000045 ], [ -1.852278499999954, 43.325111499000059 ], [ -1.833529081999927, 43.312847115000068 ], [ -1.792310344999976, 43.294516461000057 ], [ -1.783258499999931, 43.286773499000049 ], [ -1.793436921999955, 43.275327470000036 ], [ -1.794975499999964, 43.246929499000032 ], [ -1.807795526999939, 43.239745893000077 ], [ -1.820085740999957, 43.237795155000072 ], [ -1.825793318999956, 43.228895097000077 ], [ -1.841159611999956, 43.224533085000076 ], [ -1.851254670999936, 43.226195195000059 ], [ -1.854431122999927, 43.217323684000064 ], [ -1.859409654999979, 43.217253089000053 ], [ -1.861652065999976, 43.21335709400006 ], [ -1.865924869999958, 43.218459505000055 ], [ -1.867482476999953, 43.228882080000062 ], [ -1.872971503999963, 43.228111127000034 ], [ -1.875938, 43.231032999000035 ] ] ] } },
{ "type": "Feature", "properties": { "code": "20064", "name": "Pasaia" }, "geometry": { "type": "Polygon", "coordinates": [ [ [ -1.871130499999936, 43.368034499000032 ], [ -1.86594249999996, 43.360996499000066 ], [ -1.856480499999975, 43.34370399900007 ], [ -1.898251567999978, 43.331518648000042 ], [ -1.908638993999944, 43.326970281000058 ], [ -1.908464, 43.322177999000075 ], [ -1.90991, 43.319915499000047 ], [ -1.913584499999956, 43.319885499000065 ], [ -1.915992499999959, 43.316325999000071 ], [ -1.918035615999941, 43.315329743000063 ], [ -1.923880011999927, 43.321216867000032 ], [ -1.937821302999964, 43.320790381000052 ], [ -1.937974525999948, 43.32736959600004 ], [ -1.931166499999961, 43.332916499000078 ], [ -1.925297946999933, 43.332115009000063 ], [ -1.925457570999924, 43.335531337000077 ], [ -1.901908659999947, 43.341942406000044 ], [ -1.885164851999946, 43.349828432000038 ], [ -1.871130499999936, 43.368034499000032 ] ] ] } },
{ "type": "Feature", "properties": { "code": "20065", "name": "Soraluze-Placencia de las Armas" }, "geometry": { "type": "Polygon", "coordinates": [ [ [ -2.373479, 43.175796499000057 ], [ -2.378213670999969, 43.16898569600005 ], [ -2.395892389999972, 43.162467112000058 ], [ -2.418957040999942, 43.163661420000039 ], [ -2.44389949999993, 43.169914499000072 ], [ -2.436809499999924, 43.19276049900003 ], [ -2.422620306999931, 43.196167136000042 ], [ -2.38860363799995, 43.184092394000061 ], [ -2.373479, 43.175796499000057 ] ] ] } },
{ "type": "Feature", "properties": { "code": "20066", "name": "Errezil" }, "geometry": { "type": "MultiPolygon", "coordinates": [ [ [ [ -2.193359, 43.147990999000058 ], [ -2.198282578999965, 43.150893719000067 ], [ -2.208894, 43.150630999000043 ], [ -2.205727269999954, 43.155048535000049 ], [ -2.225306620999959, 43.170069263000073 ], [ -2.222651615999951, 43.174064713000064 ], [ -2.225367917999961, 43.179198602000042 ], [ -2.21949004399994, 43.187488431000077 ], [ -2.228281, 43.197337999000069 ], [ -2.215518070999963, 43.200223176000065 ], [ -2.19449816499997, 43.198106798000026 ], [ -2.181366897999965, 43.206444592000025 ], [ -2.172585, 43.208430999000029 ], [ -2.158150126999942, 43.195265735000078 ], [ -2.148385, 43.193954499000029 ], [ -2.151479499999937, 43.187339999000073 ], [ -2.149428499999942, 43.185264499000027 ], [ -2.150391499999955, 43.181441999000072 ], [ -2.153603, 43.178889999000035 ], [ -2.147542, 43.173510499000031 ], [ -2.151560854999957, 43.170398145000036 ], [ -2.147753, 43.167728499000077 ], [ -2.156322050999961, 43.15233127700003 ], [ -2.177169188999926, 43.146751455000071 ], [ -2.187765253999942, 43.14953014300005 ], [ -2.193359, 43.147990999000058 ] ] ], [ [ [ -2.183038499999952, 43.10749449900004 ], [ -2.173177521999946, 43.102269706000072 ], [ -2.172402499999976, 43.097953499000027 ], [ -2.180609499999946, 43.100749999000072 ], [ -2.182518, 43.104167999000026 ], [ -2.183038499999952, 43.10749449900004 ] ] ] ] } },
{ "type": "Feature", "properties": { "code": "20067", "name": "Errenteria" }, "geometry": { "type": "Polygon", "coordinates": [ [ [ -1.915992499999959, 43.316325999000071 ], [ -1.913584499999956, 43.319885499000065 ], [ -1.90991, 43.319915499000047 ], [ -1.908464, 43.322177999000075 ], [ -1.90356965999996, 43.322174680000046 ], [ -1.901987036999969, 43.316968577000068 ], [ -1.889309499999968, 43.312219999000035 ], [ -1.882714029999931, 43.308427183000049 ], [ -1.896094454999968, 43.294135202000064 ], [ -1.891236837999941, 43.283479744000033 ], [ -1.84988994899993, 43.262468159000036 ], [ -1.850585596999963, 43.244017149000058 ], [ -1.866634137999938, 43.232197696000071 ], [ -1.875938, 43.231032999000035 ], [ -1.878980134999949, 43.227542578000055 ], [ -1.875724567999953, 43.219841575000032 ], [ -1.879637603999925, 43.217748924000034 ], [ -1.875912190999941, 43.213465929000051 ], [ -1.879272499999956, 43.211543999000071 ], [ -1.882018081999945, 43.206002370000078 ], [ -1.886063599999943, 43.212328199000069 ], [ -1.891371998999944, 43.209270119000053 ], [ -1.899942648999968, 43.210807971000065 ], [ -1.909965499999942, 43.222965499000054 ], [ -1.895030126999927, 43.218389488000071 ], [ -1.889166415999966, 43.220065411000064 ], [ -1.891892713999937, 43.226124268000035 ], [ -1.898137580999958, 43.229636192000044 ], [ -1.900484499999948, 43.237140499000077 ], [ -1.892914889999929, 43.245278207000069 ], [ -1.895129, 43.250766499000065 ], [ -1.894591554999977, 43.259313503000044 ], [ -1.897625882999932, 43.265320813000073 ], [ -1.912825, 43.263458999000079 ], [ -1.91764825599995, 43.273355996000078 ], [ -1.91396380499998, 43.28316495100006 ], [ -1.930839372999969, 43.297713544000032 ], [ -1.926302499999963, 43.301524999000037 ], [ -1.914914604999979, 43.295565947000057 ], [ -1.915992499999959, 43.316325999000071 ] ] ] } },
{ "type": "Feature", "properties": { "code": "20068", "name": "Leintz-Gatzaga" }, "geometry": { "type": "Polygon", "coordinates": [ [ [ -2.548246, 42.953473999000039 ], [ -2.551095, 42.958874999000045 ], [ -2.579334554999946, 42.963892893000036 ], [ -2.59699349999994, 42.976206499000057 ], [ -2.602719, 42.982248499000036 ], [ -2.593162, 42.986900999000056 ], [ -2.576480783999955, 42.992585897000026 ], [ -2.561187420999943, 42.992924624000068 ], [ -2.54044868099993, 42.982639564000067 ], [ -2.534695, 42.973282999000048 ], [ -2.535630499999968, 42.970150999000055 ], [ -2.538069499999949, 42.968801499000051 ], [ -2.540326499999935, 42.965208499000028 ], [ -2.538962499999968, 42.962899999000058 ], [ -2.538035499999978, 42.95745449900005 ], [ -2.542128, 42.950132499000063 ], [ -2.544890499999951, 42.950475999000048 ], [ -2.548246, 42.953473999000039 ] ] ] } },
{ "type": "Feature", "properties": { "code": "20069", "name": "Donostia / San Sebastián" }, "geometry": { "type": "MultiPolygon", "coordinates": [ [ [ [ -1.900484499999948, 43.237140499000077 ], [ -1.898137580999958, 43.229636192000044 ], [ -1.891892713999937, 43.226124268000035 ], [ -1.889166415999966, 43.220065411000064 ], [ -1.895030126999927, 43.218389488000071 ], [ -1.909965499999942, 43.222965499000054 ], [ -1.910899499999971, 43.227180499000042 ], [ -1.908765794999965, 43.235107673000073 ], [ -1.900484499999948, 43.237140499000077 ] ] ], [ [ [ -1.912825, 43.263458999000079 ], [ -1.897625882999932, 43.265320813000073 ], [ -1.894591554999977, 43.259313503000044 ], [ -1.895129, 43.250766499000065 ], [ -1.902887011999951, 43.251890079000077 ], [ -1.905994788999976, 43.255857303000028 ], [ -1.91459344499998, 43.254678974000058 ], [ -1.918903, 43.259788999000079 ], [ -1.912825, 43.263458999000079 ] ] ], [ [ [ -2.017252499999927, 43.279460999000037 ], [ -2.02134069899995, 43.281244083000047 ], [ -2.029341323999972, 43.293099192000057 ], [ -2.037062177999928, 43.295767651000062 ], [ -2.051066232999972, 43.298108802000058 ], [ -2.084477499999934, 43.29473099900008 ], [ -2.08611824999997, 43.30018367200006 ], [ -2.082975, 43.307857499000079 ], [ -2.012704343999928, 43.323102272000028 ], [ -2.005146598999943, 43.320318893000035 ], [ -1.99844492099993, 43.322805236000079 ], [ -2.001055656999938, 43.317808080000077 ], [ -1.993068968999978, 43.316624607000051 ], [ -1.988244774999941, 43.319957267000063 ], [ -1.990500151999925, 43.325573564000081 ], [ -1.975791951999952, 43.326865640000051 ], [ -1.971330071999944, 43.334335557000031 ], [ -1.962986911999963, 43.336828853000043 ], [ -1.948846442999979, 43.333032618000061 ], [ -1.937306895999939, 43.334959045000062 ], [ -1.931166499999961, 43.332916499000078 ], [ -1.937974525999948, 43.32736959600004 ], [ -1.937821302999964, 43.320790381000052 ], [ -1.923880011999927, 43.321216867000032 ], [ -1.918035615999941, 43.315329743000063 ], [ -1.915992499999959, 43.316325999000071 ], [ -1.914914604999979, 43.295565947000057 ], [ -1.926302499999963, 43.301524999000037 ], [ -1.941292597999961, 43.301695430000052 ], [ -1.943740822999928, 43.297667650000051 ], [ -1.941585602999965, 43.291418775000068 ], [ -1.953174483999931, 43.285008134000066 ], [ -1.957629, 43.276941499000031 ], [ -1.965840576999938, 43.276015137000059 ], [ -1.983219105999979, 43.283101216000034 ], [ -1.991460050999933, 43.27877783100007 ], [ -2.010260499999958, 43.27751149900007 ], [ -2.017252499999927, 43.279460999000037 ] ] ], [ [ [ -2.05069, 43.243835499000056 ], [ -2.055795, 43.245837999000059 ], [ -2.057877702999974, 43.24945813100004 ], [ -2.050259435999976, 43.261309876000041 ], [ -2.043509084999926, 43.265161649000049 ], [ -2.034933639999963, 43.26112485200008 ], [ -2.036950422999951, 43.269647747000079 ], [ -2.032613030999926, 43.273813616000041 ], [ -2.028054, 43.272945499000059 ], [ -2.020191767999961, 43.261405969000066 ], [ -2.021383901999968, 43.249176528000078 ], [ -2.024814, 43.244399999000052 ], [ -2.029667424999957, 43.242317822000075 ], [ -2.040061570999967, 43.245526065000035 ], [ -2.04229092099996, 43.242290056000058 ], [ -2.046376875999954, 43.24492723600008 ], [ -2.05069, 43.243835499000056 ] ] ] ] } },
{ "type": "Feature", "properties": { "code": "20070", "name": "Segura" }, "geometry": { "type": "Polygon", "coordinates": [ [ [ -2.282354, 42.996150999000065 ], [ -2.278259639999931, 43.004981390000069 ], [ -2.259398146999956, 43.009320586000058 ], [ -2.258348771999977, 43.015703234000057 ], [ -2.26168, 43.017974999000046 ], [ -2.24776449999996, 43.020675499000049 ], [ -2.244441565999978, 42.990011931000026 ], [ -2.262719, 42.967967999000052 ], [ -2.271956015999933, 42.99231665700006 ], [ -2.282354, 42.996150999000065 ] ] ] } },
{ "type": "Feature", "properties": { "code": "20071", "name": "Tolosa" }, "geometry": { "type": "MultiPolygon", "coordinates": [ [ [ [ -2.00926, 43.162021499000048 ], [ -2.010696499999938, 43.15990799900004 ], [ -2.025488, 43.158007999000063 ], [ -2.025037499999939, 43.160068999000032 ], [ -2.022434, 43.158946999000079 ], [ -2.019283, 43.159110999000063 ], [ -2.015953499999966, 43.160395999000059 ], [ -2.013554499999941, 43.162715999000056 ], [ -2.00926, 43.162021499000048 ] ] ], [ [ [ -2.071209, 43.088153999000042 ], [ -2.061264693999931, 43.084207503000073 ], [ -2.049818506999941, 43.074100230000056 ], [ -2.04032049999995, 43.076320499000076 ], [ -2.033560499999965, 43.073470999000051 ], [ -2.022847, 43.065150999000025 ], [ -2.018639748999931, 43.055323220000048 ], [ -2.020145778999961, 43.048013961000038 ], [ -2.03234987299993, 43.032155733000025 ], [ -2.041417, 43.029658999000048 ], [ -2.044237861999932, 43.059095391000028 ], [ -2.074113849999947, 43.063702590000048 ], [ -2.06803, 43.078063999000051 ], [ -2.071209, 43.088153999000042 ] ] ], [ [ [ -2.066591499999959, 43.157569999000032 ], [ -2.031451499999946, 43.159751999000036 ], [ -2.032810645999973, 43.15605726900003 ], [ -2.05327035199997, 43.150121940000076 ], [ -2.067411045999961, 43.138354476000075 ], [ -2.069852450999974, 43.133789412000056 ], [ -2.065817, 43.122069499000077 ], [ -2.073062948999961, 43.11755925500006 ], [ -2.074424, 43.11368199900005 ], [ -2.081529007999961, 43.112146050000035 ], [ -2.086755356999959, 43.113366170000063 ], [ -2.089638499999978, 43.112090499000033 ], [ -2.108602378999933, 43.116954986000053 ], [ -2.121850026999937, 43.114698851000071 ], [ -2.122593227999971, 43.108848321000039 ], [ -2.115117, 43.095271999000033 ], [ -2.133220499999936, 43.094962999000074 ], [ -2.154037461999962, 43.100814318000062 ], [ -2.161333, 43.106761999000071 ], [ -2.156578741999965, 43.11191062100005 ], [ -2.14270154899998, 43.116985373000034 ], [ -2.12752392799996, 43.117767164000043 ], [ -2.12156637399994, 43.123952425000027 ], [ -2.113758531999963, 43.125912618000029 ], [ -2.112150940999925, 43.138631507000071 ], [ -2.122080533999963, 43.147923867000031 ], [ -2.123427499999934, 43.156424499000025 ], [ -2.120852, 43.156333499000027 ], [ -2.120106173999943, 43.152134550000028 ], [ -2.114995216999944, 43.149964969000052 ], [ -2.089406938999957, 43.146948376000068 ], [ -2.072034499999972, 43.149787999000068 ], [ -2.066591499999959, 43.157569999000032 ] ] ] ] } },
{ "type": "Feature", "properties": { "code": "20072", "name": "Urnieta" }, "geometry": { "type": "Polygon", "coordinates": [ [ [ -1.999980499999936, 43.260978499000032 ], [ -1.979848619999927, 43.257624461000034 ], [ -1.973655532999942, 43.246842686000036 ], [ -1.946372288999953, 43.229296497000064 ], [ -1.935364271999958, 43.22532489200006 ], [ -1.947275090999938, 43.215814901000044 ], [ -1.942096982999942, 43.20625999400005 ], [ -1.945128275999934, 43.195660887000031 ], [ -1.958782499999927, 43.189208999000073 ], [ -1.96623, 43.194957499000054 ], [ -1.964859444999945, 43.19855474600007 ], [ -1.974045900999954, 43.205110859000058 ], [ -1.977224207999939, 43.213926322000077 ], [ -1.994699935999961, 43.226242715000069 ], [ -2.009096499999941, 43.243751499000041 ], [ -2.005569499999979, 43.247684499000059 ], [ -2.002978499999926, 43.252540499000077 ], [ -2.004297, 43.257755499000041 ], [ -2.000040499999955, 43.258827999000061 ], [ -1.999980499999936, 43.260978499000032 ] ] ] } },
{ "type": "Feature", "properties": { "code": "20073", "name": "Usurbil" }, "geometry": { "type": "Polygon", "coordinates": [ [ [ -2.082104, 43.242732999000054 ], [ -2.092285713999956, 43.259284581000031 ], [ -2.094562950999943, 43.284487187000025 ], [ -2.084477499999934, 43.29473099900008 ], [ -2.051066232999972, 43.298108802000058 ], [ -2.037062177999928, 43.295767651000062 ], [ -2.029341323999972, 43.293099192000057 ], [ -2.02134069899995, 43.281244083000047 ], [ -2.017252499999927, 43.279460999000037 ], [ -2.019828766999979, 43.275518399000077 ], [ -2.028054, 43.272945499000059 ], [ -2.032613030999926, 43.273813616000041 ], [ -2.036950422999951, 43.269647747000079 ], [ -2.034933639999963, 43.26112485200008 ], [ -2.043509084999926, 43.265161649000049 ], [ -2.050259435999976, 43.261309876000041 ], [ -2.057877702999974, 43.24945813100004 ], [ -2.055795, 43.245837999000059 ], [ -2.058445499999948, 43.244986999000048 ], [ -2.059934, 43.243407999000055 ], [ -2.063507, 43.243407999000055 ], [ -2.06521, 43.242324999000061 ], [ -2.066512, 43.239364499000033 ], [ -2.073119, 43.240001999000071 ], [ -2.078017, 43.242606999000031 ], [ -2.082104, 43.242732999000054 ] ] ] } },
{ "type": "Feature", "properties": { "code": "20074", "name": "Bergara" }, "geometry": { "type": "Polygon", "coordinates": [ [ [ -2.373479, 43.175796499000057 ], [ -2.367417499999931, 43.176627999000061 ], [ -2.361934691999977, 43.165164253000057 ], [ -2.365278357999955, 43.143642929000066 ], [ -2.35916268099993, 43.138227199000028 ], [ -2.358396051999932, 43.133492354000055 ], [ -2.351734137999927, 43.13169210500007 ], [ -2.350038, 43.126786999000046 ], [ -2.36023735699996, 43.123706341000059 ], [ -2.380101522999951, 43.126943194000035 ], [ -2.387497397999937, 43.124847586000044 ], [ -2.398153883999953, 43.116673355000046 ], [ -2.401955345999966, 43.112534746000051 ], [ -2.407654609999952, 43.089834135000046 ], [ -2.406597541999929, 43.078493318000028 ], [ -2.412512499999934, 43.073981999000068 ], [ -2.447619798999938, 43.080531806000067 ], [ -2.461935315999938, 43.076500367000051 ], [ -2.476084998999966, 43.093514833000029 ], [ -2.49522985699997, 43.092669302000047 ], [ -2.501815, 43.094995999000048 ], [ -2.504716250999934, 43.098557302000074 ], [ -2.501911096999947, 43.115552078000064 ], [ -2.496248, 43.12335949900006 ], [ -2.472903, 43.121875999000054 ], [ -2.463988, 43.135017499000071 ], [ -2.466211499999929, 43.140773999000032 ], [ -2.464389, 43.141105499000048 ], [ -2.455999, 43.151221999000029 ], [ -2.457263499999954, 43.155631999000036 ], [ -2.459514, 43.156985999000028 ], [ -2.460175499999934, 43.162921999000048 ], [ -2.451782, 43.170348999000055 ], [ -2.44389949999993, 43.169914499000072 ], [ -2.418957040999942, 43.163661420000039 ], [ -2.395892389999972, 43.162467112000058 ], [ -2.378213670999969, 43.16898569600005 ], [ -2.373479, 43.175796499000057 ] ] ] } },
{ "type": "Feature", "properties": { "code": "20075", "name": "Villabona" }, "geometry": { "type": "Polygon", "coordinates": [ [ [ -2.025037499999939, 43.160068999000032 ], [ -2.027195, 43.162002499000039 ], [ -2.031451499999946, 43.159751999000036 ], [ -2.037998499999958, 43.158855499000026 ], [ -2.040882, 43.159309499000074 ], [ -2.057475499999953, 43.176852999000062 ], [ -2.073495, 43.180843499000048 ], [ -2.066503446999945, 43.186410527000078 ], [ -2.055237638999927, 43.187464285000033 ], [ -2.05483049999998, 43.195865499000035 ], [ -2.042978050999977, 43.197190156000033 ], [ -2.038922499999956, 43.202514999000073 ], [ -2.02068948799996, 43.195966089000081 ], [ -2.013490918999935, 43.197349663000068 ], [ -2.004627156999959, 43.187443405000067 ], [ -1.996899499999927, 43.186775499000078 ], [ -1.995593483999926, 43.180888688000039 ], [ -2.003383624999969, 43.17563976200006 ], [ -2.003724148999936, 43.167870980000032 ], [ -2.00926, 43.162021499000048 ], [ -2.013554499999941, 43.162715999000056 ], [ -2.015953499999966, 43.160395999000059 ], [ -2.019283, 43.159110999000063 ], [ -2.022434, 43.158946999000079 ], [ -2.025037499999939, 43.160068999000032 ] ] ] } },
{ "type": "Feature", "properties": { "code": "20076", "name": "Ordizia" }, "geometry": { "type": "Polygon", "coordinates": [ [ [ -2.168720499999949, 43.04220949900008 ], [ -2.174449927999945, 43.039171456000076 ], [ -2.184332216999962, 43.04428224600008 ], [ -2.186176499999931, 43.04785799900003 ], [ -2.192097106999938, 43.072897570000066 ], [ -2.206139499999949, 43.084197999000025 ], [ -2.189004290999947, 43.079322726000044 ], [ -2.183227942999963, 43.073459232000062 ], [ -2.178951151999968, 43.062766243000056 ], [ -2.172279, 43.062173499000039 ], [ -2.162783499999932, 43.052834999000027 ], [ -2.168720499999949, 43.04220949900008 ] ] ] } },
{ "type": "Feature", "properties": { "code": "20077", "name": "Urretxu" }, "geometry": { "type": "Polygon", "coordinates": [ [ [ -2.349904, 43.087791499000048 ], [ -2.35014549999994, 43.090549499000076 ], [ -2.345795499999952, 43.099788499000056 ], [ -2.343521499999952, 43.100937499000054 ], [ -2.346643, 43.103278999000054 ], [ -2.346649, 43.107349499000065 ], [ -2.337873, 43.11205299900007 ], [ -2.325974168999949, 43.113436733000071 ], [ -2.31693331799994, 43.106755404000069 ], [ -2.316984523999963, 43.099687838000079 ], [ -2.313162399999953, 43.093110791000072 ], [ -2.321353172999977, 43.086312810000038 ], [ -2.324774499999933, 43.078136499000038 ], [ -2.333148, 43.080798999000081 ], [ -2.335942, 43.083694499000046 ], [ -2.343311, 43.086169999000049 ], [ -2.344857499999932, 43.087440499000081 ], [ -2.349904, 43.087791499000048 ] ] ] } },
{ "type": "Feature", "properties": { "code": "20078", "name": "Zaldibia" }, "geometry": { "type": "MultiPolygon", "coordinates": [ [ [ [ -2.168720499999949, 43.04220949900008 ], [ -2.162783499999932, 43.052834999000027 ], [ -2.154943499999945, 43.055073499000059 ], [ -2.148826499999927, 43.052551999000059 ], [ -2.140730578999978, 43.041926315000069 ], [ -2.129463832999932, 43.043218681000042 ], [ -2.12163849999996, 43.040397499000051 ], [ -2.11366849999996, 43.031951999000057 ], [ -2.118416, 43.030368999000075 ], [ -2.114335, 43.00001499900003 ], [ -2.114995499999964, 42.990829499000029 ], [ -2.120824499999969, 42.989863999000079 ], [ -2.122458, 42.993305999000029 ], [ -2.117102050999961, 42.995062976000042 ], [ -2.118267387999936, 42.998331654000026 ], [ -2.122538980999934, 43.000167674000068 ], [ -2.124030499999947, 42.995730999000045 ], [ -2.139513329999943, 42.999265826000055 ], [ -2.144039212999928, 43.006445013000075 ], [ -2.142650151999931, 43.01126062700007 ], [ -2.150171898999929, 43.018065456000045 ], [ -2.161633499999937, 43.018970499000034 ], [ -2.155532664999953, 43.021961056000066 ], [ -2.155567335999933, 43.028701968000064 ], [ -2.168720499999949, 43.04220949900008 ] ], [ [ -2.140124644999958, 43.005126051000047 ], [ -2.132918106999966, 43.001207771000054 ], [ -2.127044033999937, 43.002338144000078 ], [ -2.13241859599998, 43.006808017000026 ], [ -2.140124644999958, 43.005126051000047 ] ] ], [ [ [ -2.128682499999968, 42.985980999000049 ], [ -2.132502252999927, 42.986983834000057 ], [ -2.131933169999968, 42.991110254000034 ], [ -2.13373, 42.993366499000047 ], [ -2.128322, 42.990661499000055 ], [ -2.128682499999968, 42.985980999000049 ] ] ] ] } },
{ "type": "Feature", "properties": { "code": "20079", "name": "Zarautz" }, "geometry": { "type": "MultiPolygon", "coordinates": [ [ [ [ -2.141333, 43.293056499000045 ], [ -2.145637339999951, 43.266314874000045 ], [ -2.159941766999964, 43.261903651000068 ], [ -2.180855219999955, 43.244425908000039 ], [ -2.183944211999972, 43.245513913000025 ], [ -2.180226588999972, 43.261072823000063 ], [ -2.181370954999977, 43.268517940000038 ], [ -2.193682499999966, 43.275752999000076 ], [ -2.189533499999925, 43.292182999000033 ], [ -2.183003140999972, 43.293755344000033 ], [ -2.174663232999933, 43.287973333000025 ], [ -2.141333, 43.293056499000045 ] ] ], [ [ [ -2.199680874999956, 43.269464307000078 ], [ -2.19879810599997, 43.271228111000028 ], [ -2.195829765999974, 43.272162058000049 ], [ -2.190095068999938, 43.269981358000052 ], [ -2.191987199999971, 43.268620300000066 ], [ -2.199680874999956, 43.269464307000078 ] ] ], [ [ [ -2.208156552999981, 43.262821024000061 ], [ -2.200932257999966, 43.265290724000067 ], [ -2.198148504999949, 43.257857472000069 ], [ -2.203352106999944, 43.257345103000034 ], [ -2.208156552999981, 43.262821024000061 ] ] ], [ [ [ -2.198828, 43.273357499000042 ], [ -2.203415506999931, 43.269423346000053 ], [ -2.206801499999926, 43.269424499000081 ], [ -2.205603499999938, 43.272659499000042 ], [ -2.198828, 43.273357499000042 ] ] ] ] } },
{ "type": "Feature", "properties": { "code": "20080", "name": "Zumarraga" }, "geometry": { "type": "Polygon", "coordinates": [ [ [ -2.280521, 43.106708499000035 ], [ -2.306747499999972, 43.066737999000054 ], [ -2.321287, 43.065734999000028 ], [ -2.329190411999946, 43.07215705200008 ], [ -2.324774499999933, 43.078136499000038 ], [ -2.321353172999977, 43.086312810000038 ], [ -2.313162399999953, 43.093110791000072 ], [ -2.316984523999963, 43.099687838000079 ], [ -2.31693331799994, 43.106755404000069 ], [ -2.325974168999949, 43.113436733000071 ], [ -2.337873, 43.11205299900007 ], [ -2.341469831999973, 43.114756164000028 ], [ -2.34211, 43.119789999000034 ], [ -2.336877457999947, 43.12114086400004 ], [ -2.328329637999957, 43.130297864000056 ], [ -2.306594, 43.131248499000037 ], [ -2.280521, 43.106708499000035 ] ] ] } },
{ "type": "Feature", "properties": { "code": "20081", "name": "Zumaia" }, "geometry": { "type": "Polygon", "coordinates": [ [ [ -2.207287, 43.273036999000055 ], [ -2.226259390999928, 43.270831092000037 ], [ -2.235704947999977, 43.27507892400007 ], [ -2.253685, 43.267875999000069 ], [ -2.254203582999935, 43.28057990800005 ], [ -2.262653521999937, 43.277619536000032 ], [ -2.265983780999932, 43.282842367000057 ], [ -2.265562545999956, 43.288270632000035 ], [ -2.268688, 43.289928499000041 ], [ -2.285051, 43.294723499000042 ], [ -2.263046856999949, 43.299862472000029 ], [ -2.258766922999939, 43.303213191000054 ], [ -2.24568, 43.302390999000067 ], [ -2.240197131999935, 43.29620125200006 ], [ -2.214709219999975, 43.282985444000076 ], [ -2.212811226999975, 43.275273178000077 ], [ -2.207287, 43.273036999000055 ] ] ] } },
{ "type": "Feature", "properties": { "code": "20901", "name": "Mendaro" }, "geometry": { "type": "Polygon", "coordinates": [ [ [ -2.418061, 43.267601999000078 ], [ -2.396741019999979, 43.269771674000026 ], [ -2.372915499999976, 43.268043499000044 ], [ -2.362603441999966, 43.262192987000049 ], [ -2.350456005999945, 43.249044038000079 ], [ -2.346683905999953, 43.239652416000069 ], [ -2.33246749999995, 43.230102499000054 ], [ -2.340292277999936, 43.217258017000063 ], [ -2.35926349999994, 43.21276399900006 ], [ -2.358653879999963, 43.216925672000059 ], [ -2.365609836999965, 43.22736859500003 ], [ -2.382785443999978, 43.237303783000073 ], [ -2.400449546999937, 43.243372964000059 ], [ -2.436825, 43.243442499000025 ], [ -2.439006499999948, 43.251831499000048 ], [ -2.425014949999934, 43.259474235000027 ], [ -2.418061, 43.267601999000078 ] ] ] } },
{ "type": "Feature", "properties": { "code": "20902", "name": "Lasarte-Oria" }, "geometry": { "type": "Polygon", "coordinates": [ [ [ -1.999980499999936, 43.260978499000032 ], [ -2.000040499999955, 43.258827999000061 ], [ -2.004297, 43.257755499000041 ], [ -2.002978499999926, 43.252540499000077 ], [ -2.005569499999979, 43.247684499000059 ], [ -2.009096499999941, 43.243751499000041 ], [ -2.020589059999963, 43.239688446000059 ], [ -2.024814, 43.244399999000052 ], [ -2.021383901999968, 43.249176528000078 ], [ -2.020191767999961, 43.261405969000066 ], [ -2.028054, 43.272945499000059 ], [ -2.019828766999979, 43.275518399000077 ], [ -2.017252499999927, 43.279460999000037 ], [ -2.010260499999958, 43.27751149900007 ], [ -2.005603, 43.277423999000064 ], [ -1.999980499999936, 43.260978499000032 ] ] ] } },
{ "type": "Feature", "properties": { "code": "20903", "name": "Astigarraga" }, "geometry": { "type": "Polygon", "coordinates": [ [ [ -1.912825, 43.263458999000079 ], [ -1.918903, 43.259788999000079 ], [ -1.937042537999957, 43.253514670000072 ], [ -1.941151003999948, 43.265936900000042 ], [ -1.95213718399998, 43.26853720500003 ], [ -1.957877869999948, 43.273319598000057 ], [ -1.957629, 43.276941499000031 ], [ -1.953174483999931, 43.285008134000066 ], [ -1.941585602999965, 43.291418775000068 ], [ -1.943740822999928, 43.297667650000051 ], [ -1.941292597999961, 43.301695430000052 ], [ -1.926302499999963, 43.301524999000037 ], [ -1.930839372999969, 43.297713544000032 ], [ -1.91396380499998, 43.28316495100006 ], [ -1.91764825599995, 43.273355996000078 ], [ -1.912825, 43.263458999000079 ] ] ] } },
{ "type": "Feature", "properties": { "code": "20904", "name": "Baliarrain" }, "geometry": { "type": "Polygon", "coordinates": [ [ [ -2.125704, 43.082576499000027 ], [ -2.120597499999974, 43.068538499000056 ], [ -2.140458, 43.062664999000049 ], [ -2.142795499999977, 43.073848499000064 ], [ -2.138726033999944, 43.07795161100006 ], [ -2.125704, 43.082576499000027 ] ] ] } },
{ "type": "Feature", "properties": { "code": "20905", "name": "Orendain" }, "geometry": { "type": "Polygon", "coordinates": [ [ [ -2.120597499999974, 43.068538499000056 ], [ -2.125704, 43.082576499000027 ], [ -2.125510499999962, 43.084125499000038 ], [ -2.106229499999927, 43.091987499000027 ], [ -2.093856698999957, 43.088075888000049 ], [ -2.089149499999962, 43.081283499000051 ], [ -2.087977191999926, 43.075762431000044 ], [ -2.097655152999948, 43.069819778000067 ], [ -2.098684499999933, 43.065280999000038 ], [ -2.118058, 43.06495299900007 ], [ -2.120597499999974, 43.068538499000056 ] ] ] } },
{ "type": "Feature", "properties": { "code": "20906", "name": "Altzaga" }, "geometry": { "type": "Polygon", "coordinates": [ [ [ -2.157021, 43.07639449900006 ], [ -2.152253152999947, 43.073389040000052 ], [ -2.142795499999977, 43.073848499000064 ], [ -2.140458, 43.062664999000049 ], [ -2.148826499999927, 43.052551999000059 ], [ -2.154943499999945, 43.055073499000059 ], [ -2.161892499999965, 43.065056999000035 ], [ -2.158210321999945, 43.068572556000049 ], [ -2.157021, 43.07639449900006 ] ] ] } },
{ "type": "Feature", "properties": { "code": "20907", "name": "Gaztelu" }, "geometry": { "type": "Polygon", "coordinates": [ [ [ -2.004516499999966, 43.104213999000081 ], [ -2.013486, 43.10359949900004 ], [ -2.02280963499993, 43.105077642000026 ], [ -2.036838763999924, 43.113921471000026 ], [ -2.054882499999962, 43.116016499000068 ], [ -2.038385356999925, 43.121733458000051 ], [ -2.033957, 43.129626999000038 ], [ -2.016472499999963, 43.12897349900004 ], [ -2.017928499999925, 43.126888499000074 ], [ -2.008856499999979, 43.12084949900003 ], [ -2.005527, 43.11762999900003 ], [ -1.997073499999942, 43.100917999000046 ], [ -1.998820499999965, 43.102309999000056 ], [ -2.004516499999966, 43.104213999000081 ] ] ] } }
]
}
