{
"type": "FeatureCollection",
"crs": { "type": "name", "properties": { "name": "urn:ogc:def:crs:OGC:1.3:CRS84" } },
"features": [
{ "type": "Feature", "properties": { "code": "30001", "name": "Abanilla" }, "geometry": { "type": "Polygon", "coordinates": [ [ [ -0.989337, 38.320712499000024 ], [ -0.984273492999932, 38.307292916000051 ], [ -0.971008005999977, 38.288271295000072 ], [ -0.967824087999929, 38.275532244000033 ], [ -0.968509234999942, 38.257622551000054 ], [ -0.978034749999949, 38.237160548000077 ], [ -0.988775683999961, 38.19986129800003 ], [ -1.004963, 38.172149999000055 ], [ -1.00907849999993, 38.166710499000033 ], [ -1.036702499999933, 38.137717999000074 ], [ -1.092297091999967, 38.184948258000077 ], [ -1.101312703999952, 38.200090329000034 ], [ -1.111187567999934, 38.210119834000068 ], [ -1.130594077999945, 38.250888989000032 ], [ -1.141155, 38.316215499000066 ], [ -1.119872511999972, 38.321964377000029 ], [ -1.084330499999965, 38.346217999000032 ], [ -1.058521499999927, 38.34555799900005 ], [ -1.055125, 38.344039499000075 ], [ -1.028020499999968, 38.338410499000076 ], [ -1.010939, 38.33135549900004 ], [ -0.989337, 38.320712499000024 ] ] ] } },
{ "type": "Feature", "properties": { "code": "30002", "name": "Abarán" }, "geometry": { "type": "Polygon", "coordinates": [ [ [ -1.213083499999925, 38.271682499000065 ], [ -1.225875649999978, 38.269683780000037 ], [ -1.230850310999926, 38.262128232000066 ], [ -1.244307310999943, 38.254379243000074 ], [ -1.302324063999947, 38.250417667000079 ], [ -1.327217938999979, 38.232850086000042 ], [ -1.351675164999961, 38.203660231000072 ], [ -1.370977448999952, 38.195905812000035 ], [ -1.385192797999935, 38.199989149000032 ], [ -1.385367832999975, 38.19589202800006 ], [ -1.391869066999959, 38.189203205000069 ], [ -1.399893733999932, 38.188031131000059 ], [ -1.40429649999993, 38.179107499000054 ], [ -1.427337553999962, 38.170851190000064 ], [ -1.449314285999947, 38.172050377000062 ], [ -1.465432143999976, 38.182859164000035 ], [ -1.466910499999926, 38.194350499000052 ], [ -1.456725063999954, 38.196078610000029 ], [ -1.433099338999966, 38.212757416000045 ], [ -1.408864779999931, 38.213908379000031 ], [ -1.388164178999943, 38.222258428000032 ], [ -1.366853033999973, 38.22494813600008 ], [ -1.366045284999927, 38.231719765000037 ], [ -1.361350844999947, 38.234552890000032 ], [ -1.357447853999929, 38.242932243000041 ], [ -1.341668733999938, 38.256885255000043 ], [ -1.339322632999938, 38.268731645000059 ], [ -1.340907185999924, 38.27677754900003 ], [ -1.322195124999951, 38.295087158000058 ], [ -1.318832499999928, 38.313457499000037 ], [ -1.296028548999971, 38.314778419000049 ], [ -1.284585252999932, 38.319144410000035 ], [ -1.265272955999933, 38.316357889000074 ], [ -1.251718957999969, 38.31930836500004 ], [ -1.236103550999928, 38.307750708000071 ], [ -1.210055410999928, 38.300837389000037 ], [ -1.198035, 38.287872499000059 ], [ -1.209854499999949, 38.277995999000041 ], [ -1.213083499999925, 38.271682499000065 ] ] ] } },
{ "type": "Feature", "properties": { "code": "30003", "name": "Águilas" }, "geometry": { "type": "MultiPolygon", "coordinates": [ [ [ [ -1.468520499999954, 37.473701499000072 ], [ -1.474662916999932, 37.465471430000036 ], [ -1.482578352999951, 37.445108344000062 ], [ -1.483605193999949, 37.435373284000036 ], [ -1.477343237999946, 37.431748782000057 ], [ -1.480504405999966, 37.427016432000073 ], [ -1.493976152999949, 37.421894917000031 ], [ -1.502799775999961, 37.431234390000043 ], [ -1.517687447999947, 37.431626293000079 ], [ -1.548011885999927, 37.412005683000075 ], [ -1.558690556999977, 37.411372565000079 ], [ -1.560815979999973, 37.404630479000048 ], [ -1.57225860799997, 37.407703764000075 ], [ -1.580569457999957, 37.401167968000038 ], [ -1.592434383999944, 37.401194502000067 ], [ -1.604405778999933, 37.393993446000025 ], [ -1.612852522999958, 37.384800743000028 ], [ -1.625645923999969, 37.37971402200003 ], [ -1.627131859999963, 37.374822846000029 ], [ -1.630033, 37.37518299900006 ], [ -1.640825, 37.382381499000076 ], [ -1.665922, 37.400855999000044 ], [ -1.704973499999937, 37.421020499000065 ], [ -1.688143455999978, 37.430531024000061 ], [ -1.695769588999951, 37.446891745000073 ], [ -1.696681461999958, 37.456151243000079 ], [ -1.691737879999948, 37.46338352500004 ], [ -1.693427115999953, 37.466874878000056 ], [ -1.690762896999956, 37.476335572000039 ], [ -1.685874432999981, 37.479264759000046 ], [ -1.674897883999961, 37.498072871000034 ], [ -1.650755407999952, 37.51240791500004 ], [ -1.647312302999978, 37.526607327000079 ], [ -1.633090907999929, 37.534155714000065 ], [ -1.623098585999969, 37.53158944200004 ], [ -1.620716862999927, 37.526808205000066 ], [ -1.611140699999964, 37.528211730000066 ], [ -1.608026146999975, 37.53501581900008 ], [ -1.587844590999964, 37.545937439000056 ], [ -1.583952068999963, 37.551225186000067 ], [ -1.547027023999931, 37.56603519500004 ], [ -1.536861588999955, 37.563887454000053 ], [ -1.52430985899997, 37.555441538000025 ], [ -1.526019257999963, 37.543001547000074 ], [ -1.521138186999963, 37.526290263000078 ], [ -1.526970132999963, 37.519976419000045 ], [ -1.523521166999956, 37.509854860000075 ], [ -1.509800151999968, 37.496907634000024 ], [ -1.491964063999944, 37.49075646600005 ], [ -1.468520499999954, 37.473701499000072 ] ] ], [ [ [ -1.544383676999928, 37.406477561000031 ], [ -1.550634222999975, 37.408258945000057 ], [ -1.544178786999964, 37.410948179000059 ], [ -1.541556643999968, 37.409400378000043 ], [ -1.544383676999928, 37.406477561000031 ] ] ] ] } },
{ "type": "Feature", "properties": { "code": "30004", "name": "Albudeite" }, "geometry": { "type": "Polygon", "coordinates": [ [ [ -1.388781, 38.050891999000044 ], [ -1.383655504999979, 38.053617043000031 ], [ -1.373260627999969, 38.053961468000068 ], [ -1.36807375799998, 38.051981847000036 ], [ -1.368303792999939, 38.045045728000048 ], [ -1.358732547999978, 38.036810975000037 ], [ -1.354876530999945, 38.023984662000032 ], [ -1.398177, 38.000514999000075 ], [ -1.403201499999966, 38.020862499000032 ], [ -1.404657499999928, 38.039401999000063 ], [ -1.400345499999958, 38.045867999000052 ], [ -1.388781, 38.050891999000044 ] ] ] } },
{ "type": "Feature", "properties": { "code": "30005", "name": "Alcantarilla" }, "geometry": { "type": "Polygon", "coordinates": [ [ [ -1.27399595299994, 37.982528262000073 ], [ -1.25694746299996, 37.99173640600003 ], [ -1.236173042999951, 37.980668942000079 ], [ -1.214081109999938, 37.984971312000027 ], [ -1.212741652999966, 37.98001021400006 ], [ -1.200260885999967, 37.978253777000077 ], [ -1.197331331999976, 37.974919188000058 ], [ -1.195668219999959, 37.96962529700005 ], [ -1.202619923999976, 37.965002836000053 ], [ -1.201672397999971, 37.960745607000035 ], [ -1.192772183999978, 37.96184265100004 ], [ -1.191060084999947, 37.959018910000054 ], [ -1.19866628799997, 37.950105632000032 ], [ -1.218675537999957, 37.958387884000047 ], [ -1.227578691999952, 37.966810212000041 ], [ -1.249487219999935, 37.957087284000067 ], [ -1.27399595299994, 37.982528262000073 ] ] ] } },
{ "type": "Feature", "properties": { "code": "30006", "name": "Aledo" }, "geometry": { "type": "Polygon", "coordinates": [ [ [ -1.66061, 37.797835999000029 ], [ -1.652847, 37.821250999000029 ], [ -1.631757499999935, 37.821918499000049 ], [ -1.587210499999969, 37.81702049900008 ], [ -1.560347499999978, 37.804969999000036 ], [ -1.559095, 37.791183499000056 ], [ -1.564869, 37.786704999000051 ], [ -1.570704, 37.786304499000039 ], [ -1.574797, 37.770709999000076 ], [ -1.586263499999973, 37.770774999000025 ], [ -1.612019499999974, 37.763221499000053 ], [ -1.624362, 37.763694999000052 ], [ -1.642954499999973, 37.759616999000059 ], [ -1.658907499999941, 37.753745999000046 ], [ -1.663717943999927, 37.770839925000075 ], [ -1.659367771999939, 37.790491796000026 ], [ -1.66061, 37.797835999000029 ] ] ] } },
{ "type": "Feature", "properties": { "code": "30007", "name": "Alguazas" }, "geometry": { "type": "Polygon", "coordinates": [ [ [ -1.31916949999993, 38.060729999000046 ], [ -1.310600214999965, 38.071871324000028 ], [ -1.310867499999972, 38.077831499000069 ], [ -1.26273570799998, 38.07066304500006 ], [ -1.254979499999934, 38.074455499000067 ], [ -1.249310499999979, 38.069331999000042 ], [ -1.240655871999934, 38.067484139000044 ], [ -1.231474016999925, 38.049608523000074 ], [ -1.215628372999959, 38.048000693000063 ], [ -1.216294448999975, 38.043756054000028 ], [ -1.22435749999994, 38.038192999000046 ], [ -1.229219672999932, 38.044375474000049 ], [ -1.241069404999962, 38.048543963000043 ], [ -1.251475032999963, 38.045251780000058 ], [ -1.257701428999951, 38.03680496700008 ], [ -1.265110491999963, 38.040859307000062 ], [ -1.279110351999975, 38.043040025000039 ], [ -1.289637265999943, 38.040535853000051 ], [ -1.303801499999963, 38.04615349900007 ], [ -1.312471499999958, 38.056163999000034 ], [ -1.31916949999993, 38.060729999000046 ] ] ] } },
{ "type": "Feature", "properties": { "code": "30008", "name": "Alhama de Murcia" }, "geometry": { "type": "Polygon", "coordinates": [ [ [ -1.369476, 37.721475499000064 ], [ -1.409003, 37.75267799900007 ], [ -1.42796, 37.764645999000038 ], [ -1.434739499999978, 37.773312499000042 ], [ -1.465285, 37.796088999000062 ], [ -1.468158499999959, 37.800994999000068 ], [ -1.481748, 37.809623499000054 ], [ -1.488920499999949, 37.815561999000067 ], [ -1.564501, 37.886479999000073 ], [ -1.540593586999933, 37.884392168000034 ], [ -1.527979178999942, 37.887794432000078 ], [ -1.503632925999966, 37.887744832000067 ], [ -1.468293890999973, 37.898378630000025 ], [ -1.410711499999934, 37.905914999000061 ], [ -1.401113917999965, 37.901115928000024 ], [ -1.388616053999954, 37.889278723000075 ], [ -1.363320460999944, 37.880257703000041 ], [ -1.357058219999942, 37.871197325000026 ], [ -1.359719859999927, 37.861138967000045 ], [ -1.348025402999951, 37.862249524000049 ], [ -1.331918357999939, 37.873292863000074 ], [ -1.316579071999968, 37.875949981000076 ], [ -1.307949568999959, 37.887986849000072 ], [ -1.298192276999941, 37.890649876000055 ], [ -1.292305725999938, 37.89854286700006 ], [ -1.282566499999973, 37.904589999000052 ], [ -1.273192499999936, 37.875050999000052 ], [ -1.268361499999969, 37.848377499000037 ], [ -1.285556926999959, 37.826201457000025 ], [ -1.289934378999931, 37.801054264000072 ], [ -1.288289493999969, 37.788220698000032 ], [ -1.276968125999929, 37.764810818000058 ], [ -1.275102939999954, 37.742078290000052 ], [ -1.302728362999972, 37.730355836000058 ], [ -1.340933499999949, 37.723859499000071 ], [ -1.369476, 37.721475499000064 ] ] ] } },
{ "type": "Feature", "properties": { "code": "30009", "name": "Archena" }, "geometry": { "type": "Polygon", "coordinates": [ [ [ -1.306376499999942, 38.086219999000036 ], [ -1.32529928699995, 38.092331046000027 ], [ -1.321478523999929, 38.106185129000039 ], [ -1.310530728999936, 38.115665553000042 ], [ -1.309411499999953, 38.128143499000032 ], [ -1.305282691999935, 38.129727949000028 ], [ -1.294561834999968, 38.125207037000052 ], [ -1.273507499999937, 38.140289999000061 ], [ -1.265715, 38.13299949900005 ], [ -1.27233, 38.106487499000025 ], [ -1.275315, 38.107631499000036 ], [ -1.278689499999928, 38.107661999000072 ], [ -1.276974, 38.10399699900006 ], [ -1.289114705999964, 38.099398587000053 ], [ -1.293458286999964, 38.093556297000077 ], [ -1.306376499999942, 38.086219999000036 ] ] ] } },
{ "type": "Feature", "properties": { "code": "30010", "name": "Beniel" }, "geometry": { "type": "Polygon", "coordinates": [ [ [ -0.998401499999943, 38.051709499000026 ], [ -0.965958499999942, 38.012683999000046 ], [ -0.992260821999935, 38.006013065000047 ], [ -1.001460126999973, 38.024538311000072 ], [ -1.013710233999973, 38.034707963000074 ], [ -1.012833003999958, 38.045231736000062 ], [ -0.998401499999943, 38.051709499000026 ] ] ] } },
{ "type": "Feature", "properties": { "code": "30011", "name": "Blanca" }, "geometry": { "type": "Polygon", "coordinates": [ [ [ -1.236738, 38.198272999000039 ], [ -1.255103721999944, 38.199497567000037 ], [ -1.328568913999959, 38.175574650000044 ], [ -1.334545, 38.163879499000075 ], [ -1.338697366999952, 38.160305027000049 ], [ -1.352431, 38.161826999000027 ], [ -1.369451143999925, 38.166345876000037 ], [ -1.37960428699995, 38.17565320600005 ], [ -1.387208351999959, 38.177375042000051 ], [ -1.389796049999973, 38.181846302000054 ], [ -1.40429649999993, 38.179107499000054 ], [ -1.399893733999932, 38.188031131000059 ], [ -1.391869066999959, 38.189203205000069 ], [ -1.385367832999975, 38.19589202800006 ], [ -1.385192797999935, 38.199989149000032 ], [ -1.370977448999952, 38.195905812000035 ], [ -1.351675164999961, 38.203660231000072 ], [ -1.327217938999979, 38.232850086000042 ], [ -1.302324063999947, 38.250417667000079 ], [ -1.244307310999943, 38.254379243000074 ], [ -1.230850310999926, 38.262128232000066 ], [ -1.225875649999978, 38.269683780000037 ], [ -1.213083499999925, 38.271682499000065 ], [ -1.220299499999953, 38.238296499000057 ], [ -1.219224, 38.223411499000065 ], [ -1.233000499999946, 38.211166499000058 ], [ -1.235442499999976, 38.20604699900008 ], [ -1.236738, 38.198272999000039 ] ] ] } },
{ "type": "Feature", "properties": { "code": "30012", "name": "Bullas" }, "geometry": { "type": "Polygon", "coordinates": [ [ [ -1.625643, 38.089679499000056 ], [ -1.615887206999957, 38.05763657600005 ], [ -1.624079341999959, 38.040439081000045 ], [ -1.673517599999968, 37.987443691000067 ], [ -1.714343, 37.965522499000031 ], [ -1.710491617999935, 37.972031998000034 ], [ -1.708529262999946, 37.994216456000061 ], [ -1.721974491999958, 38.024387624000042 ], [ -1.719822904999944, 38.058278677000033 ], [ -1.701037588999952, 38.075412211000071 ], [ -1.666916633999961, 38.095180302000074 ], [ -1.645523824999941, 38.095692764000034 ], [ -1.625643, 38.089679499000056 ] ] ] } },
{ "type": "Feature", "properties": { "code": "30013", "name": "Calasparra" }, "geometry": { "type": "Polygon", "coordinates": [ [ [ -1.744809499999974, 38.185439999000039 ], [ -1.745514197999967, 38.212783969000043 ], [ -1.738713030999975, 38.245613568000067 ], [ -1.721313065999936, 38.261537655000041 ], [ -1.723217903999966, 38.265803729000027 ], [ -1.729311413999937, 38.269000169000037 ], [ -1.731293597999979, 38.278348483000059 ], [ -1.711359581999943, 38.280717780000032 ], [ -1.711737845999949, 38.288622346000068 ], [ -1.709197972999959, 38.291497100000072 ], [ -1.701330512999959, 38.290125279000051 ], [ -1.69788590099995, 38.283779529000071 ], [ -1.693392020999966, 38.282888127000035 ], [ -1.684628741999973, 38.29630459200007 ], [ -1.673544424999932, 38.299502781000058 ], [ -1.669711499999949, 38.311773999000025 ], [ -1.630007564999971, 38.309095895000041 ], [ -1.602018852999947, 38.313652998000066 ], [ -1.59034676999994, 38.312191197000061 ], [ -1.589496499999939, 38.309900999000035 ], [ -1.595187, 38.305206499000064 ], [ -1.583504, 38.275166499000079 ], [ -1.579641, 38.243458499000042 ], [ -1.578277, 38.221241999000028 ], [ -1.588484, 38.190414499000042 ], [ -1.62257649999998, 38.171804499000075 ], [ -1.632838499999934, 38.163815499000066 ], [ -1.646409499999947, 38.162452999000038 ], [ -1.652034499999957, 38.165655499000025 ], [ -1.698155499999928, 38.17960049900006 ], [ -1.717068499999925, 38.184318499000028 ], [ -1.729248499999926, 38.186194999000065 ], [ -1.744809499999974, 38.185439999000039 ] ] ] } },
{ "type": "Feature", "properties": { "code": "30014", "name": "Campos del Río" }, "geometry": { "type": "Polygon", "coordinates": [ [ [ -1.388781, 38.050891999000044 ], [ -1.419399, 38.081405999000026 ], [ -1.431959, 38.097076499000025 ], [ -1.440363499999933, 38.110011999000051 ], [ -1.434437, 38.113490999000078 ], [ -1.417946499999971, 38.106456999000045 ], [ -1.396008713999947, 38.098656862000041 ], [ -1.39502312299993, 38.088228947000061 ], [ -1.384529688999976, 38.076531465000073 ], [ -1.331047499999954, 38.06128699900006 ], [ -1.31916949999993, 38.060729999000046 ], [ -1.312471499999958, 38.056163999000034 ], [ -1.303801499999963, 38.04615349900007 ], [ -1.301546453999947, 38.035853308000071 ], [ -1.312401499999964, 38.024493999000072 ], [ -1.318341, 38.029273999000054 ], [ -1.33442, 38.022636499000043 ], [ -1.350123, 38.01788349900005 ], [ -1.351898, 38.008796499000027 ], [ -1.36088, 37.995216499000037 ], [ -1.388806530999943, 37.990506022000034 ], [ -1.398177, 38.000514999000075 ], [ -1.354876530999945, 38.023984662000032 ], [ -1.358732547999978, 38.036810975000037 ], [ -1.368303792999939, 38.045045728000048 ], [ -1.36807375799998, 38.051981847000036 ], [ -1.373260627999969, 38.053961468000068 ], [ -1.383655504999979, 38.053617043000031 ], [ -1.388781, 38.050891999000044 ] ] ] } },
{ "type": "Feature", "properties": { "code": "30015", "name": "Caravaca de la Cruz" }, "geometry": { "type": "Polygon", "coordinates": [ [ [ -2.207789, 37.916247999000063 ], [ -2.247281209999926, 37.934433776000049 ], [ -2.258623464999971, 37.949285778000046 ], [ -2.27682065099998, 37.96086593800004 ], [ -2.29618389999996, 37.988098011000034 ], [ -2.298366499999929, 38.00280249900004 ], [ -2.286720815999956, 38.001161283000044 ], [ -2.267549951999968, 38.004408218000037 ], [ -2.212303841999926, 38.031689173000075 ], [ -2.194204633999959, 38.049208775000068 ], [ -2.186378791999971, 38.050134685000046 ], [ -2.132472819999975, 38.08213289400004 ], [ -2.108747835999964, 38.099856507000027 ], [ -2.05210638799997, 38.120961515000033 ], [ -2.03934542899998, 38.122850437000068 ], [ -2.027073043999962, 38.129372980000028 ], [ -1.992931790999933, 38.138033561000043 ], [ -1.962331217999974, 38.134057130000031 ], [ -1.922132992999934, 38.139602595000042 ], [ -1.909524561999945, 38.144056202000058 ], [ -1.876672674999952, 38.140226359000053 ], [ -1.810025, 38.146598499000049 ], [ -1.817085517999942, 38.128976332000036 ], [ -1.812874502999932, 38.121527355000069 ], [ -1.813478661999966, 38.110354891000043 ], [ -1.828362529999936, 38.098077945000057 ], [ -1.832902381999929, 38.065548499000045 ], [ -1.832171457999948, 38.041883917000064 ], [ -1.824384026999951, 38.008179792000078 ], [ -1.828061115999958, 37.985909564000053 ], [ -1.826341481999975, 37.976875331000031 ], [ -1.829711499999974, 37.966907499000058 ], [ -1.849709607999955, 37.959326948000069 ], [ -1.890404510999929, 37.929813612000032 ], [ -1.970759323999971, 37.881135100000051 ], [ -1.974224, 37.868471999000064 ], [ -1.994650713999931, 37.879203326000038 ], [ -2.000323039999955, 37.876255219000029 ], [ -2.006197311999927, 37.879029339000056 ], [ -2.022237609999934, 37.86894182900005 ], [ -2.046778272999973, 37.875093907000064 ], [ -2.054962530999944, 37.880356720000066 ], [ -2.099329533999935, 37.877952864000065 ], [ -2.107671589999939, 37.881766366000079 ], [ -2.110582930999954, 37.889913638000053 ], [ -2.124890783999945, 37.899857911000026 ], [ -2.149188088999949, 37.897444405000044 ], [ -2.156775727999957, 37.89258347100008 ], [ -2.17252366799994, 37.889731409000035 ], [ -2.186696945999927, 37.904762183000059 ], [ -2.207789, 37.916247999000063 ] ] ] } },
{ "type": "Feature", "properties": { "code": "30016", "name": "Cartagena" }, "geometry": { "type": "MultiPolygon", "coordinates": [ [ [ [ -0.870923, 37.576083999000048 ], [ -0.876626246999933, 37.576084165000054 ], [ -0.88313433999997, 37.569825711000078 ], [ -0.919963398999926, 37.556375180000032 ], [ -0.952631922999956, 37.559529746000067 ], [ -0.958444019999945, 37.562579993000043 ], [ -0.950870613999939, 37.570897409000054 ], [ -0.973461069999928, 37.578083058000061 ], [ -0.976742408999939, 37.583366909000063 ], [ -0.975766801999953, 37.595040835000077 ], [ -0.989280786999927, 37.598566414000061 ], [ -0.989386415999945, 37.585013870000068 ], [ -1.005406238999967, 37.584680885000068 ], [ -1.01625, 37.575380783000071 ], [ -1.050126751999926, 37.581770799000026 ], [ -1.073614094999925, 37.582296582000026 ], [ -1.093573467999931, 37.571958223000024 ], [ -1.11133393199998, 37.566834707000055 ], [ -1.120040683999946, 37.560681201000079 ], [ -1.124228154999969, 37.552343294000025 ], [ -1.122469602999956, 37.547129742000038 ], [ -1.111110354999937, 37.538032977000057 ], [ -1.114980273999947, 37.535296409000068 ], [ -1.129773880999949, 37.539576078000039 ], [ -1.164271655999926, 37.542640390000031 ], [ -1.171594853999977, 37.54908954800004 ], [ -1.172023659999979, 37.559494878000066 ], [ -1.179893557999947, 37.56559313300005 ], [ -1.202593759999957, 37.573004026000035 ], [ -1.225873, 37.573364499000036 ], [ -1.22230048199998, 37.588415763000057 ], [ -1.210202841999944, 37.603054704000044 ], [ -1.211955422999949, 37.607423361000031 ], [ -1.209588665999945, 37.621843739000042 ], [ -1.215714499999933, 37.630366999000046 ], [ -1.209040266999978, 37.633784560000038 ], [ -1.188146243999938, 37.633987619000038 ], [ -1.177789983999958, 37.640782387000058 ], [ -1.175500264999926, 37.644255452000039 ], [ -1.175564716999929, 37.659238246000029 ], [ -1.143552599999964, 37.689096322000069 ], [ -1.130781470999978, 37.694891798000072 ], [ -1.123290243999975, 37.703265552000062 ], [ -1.11922584499996, 37.729916164000031 ], [ -1.112617176999947, 37.72997532200003 ], [ -1.105322109999975, 37.722140774000025 ], [ -1.084497499999941, 37.716003499000067 ], [ -1.066714347999948, 37.717411969000068 ], [ -1.050763, 37.72356049900003 ], [ -1.020196537999936, 37.726062950000028 ], [ -1.002802618999965, 37.720393122000075 ], [ -0.987581280999962, 37.724427614000035 ], [ -0.963642361999973, 37.721584600000028 ], [ -0.935681461999934, 37.724131724000074 ], [ -0.913901, 37.720974499000079 ], [ -0.859979499999952, 37.721446999000079 ], [ -0.856507664999924, 37.712827664000031 ], [ -0.840754370999946, 37.69734862200005 ], [ -0.82429123199995, 37.674562305000052 ], [ -0.807672232999948, 37.660902802000066 ], [ -0.793385171999944, 37.653404876000025 ], [ -0.752199813999937, 37.641585336000048 ], [ -0.745179553999947, 37.634042647000058 ], [ -0.732307264999974, 37.63313819900003 ], [ -0.72496999699996, 37.637629510000068 ], [ -0.721743474999926, 37.649145717000067 ], [ -0.726145868999936, 37.660136996000062 ], [ -0.739286756999945, 37.659821022000074 ], [ -0.732843499999944, 37.668330999000034 ], [ -0.726541499999939, 37.669055999000079 ], [ -0.704125403999967, 37.636634377000064 ], [ -0.697414160999926, 37.633241792000035 ], [ -0.689006252999945, 37.634736673000077 ], [ -0.691955434999954, 37.631117963000065 ], [ -0.701348654999947, 37.629777664000073 ], [ -0.720554920999973, 37.606728682000039 ], [ -0.73376202399993, 37.60141548200005 ], [ -0.782077048999952, 37.594449055000041 ], [ -0.78963650399993, 37.588188032000062 ], [ -0.80487100199997, 37.58544370900006 ], [ -0.819356029999938, 37.575874020000072 ], [ -0.840215, 37.577625499000078 ], [ -0.84182549999997, 37.580661999000029 ], [ -0.841489434999971, 37.602240829000039 ], [ -0.852584602999968, 37.609007973000075 ], [ -0.85570927699996, 37.616913757000077 ], [ -0.876767417999929, 37.629585603000066 ], [ -0.882514284999957, 37.638289816000054 ], [ -0.905914887999927, 37.645041794000065 ], [ -0.926835820999941, 37.635803407000026 ], [ -0.926451569999927, 37.62561127400005 ], [ -0.923208686999942, 37.61965688500004 ], [ -0.90222906799994, 37.62319123900005 ], [ -0.887446072999978, 37.599909225000033 ], [ -0.87265991299995, 37.594073450000053 ], [ -0.870923, 37.576083999000048 ] ] ], [ [ [ -0.965014663999966, 37.558077279000031 ], [ -0.97402375799993, 37.55902657300004 ], [ -0.96747308099998, 37.561862809000047 ], [ -0.96438642399994, 37.56059917400006 ], [ -0.965014663999966, 37.558077279000031 ] ] ] ] } },
{ "type": "Feature", "properties": { "code": "30017", "name": "Cehegín" }, "geometry": { "type": "Polygon", "coordinates": [ [ [ -1.714343, 37.965522499000031 ], [ -1.721559, 37.959716499000081 ], [ -1.724427499999933, 37.954482999000049 ], [ -1.726062499999955, 37.953365499000029 ], [ -1.729641, 37.952484499000036 ], [ -1.733043499999951, 37.94916149900007 ], [ -1.745805, 37.944980499000053 ], [ -1.780015, 37.950000999000054 ], [ -1.792658499999959, 37.954185499000062 ], [ -1.808137, 37.96205149900004 ], [ -1.819453, 37.969897999000068 ], [ -1.822578499999963, 37.970187999000075 ], [ -1.829711499999974, 37.966907499000058 ], [ -1.826341481999975, 37.976875331000031 ], [ -1.828061115999958, 37.985909564000053 ], [ -1.824384026999951, 38.008179792000078 ], [ -1.832171457999948, 38.041883917000064 ], [ -1.832902381999929, 38.065548499000045 ], [ -1.828362529999936, 38.098077945000057 ], [ -1.813478661999966, 38.110354891000043 ], [ -1.812874502999932, 38.121527355000069 ], [ -1.817085517999942, 38.128976332000036 ], [ -1.810025, 38.146598499000049 ], [ -1.801105745999962, 38.147374814000045 ], [ -1.779717950999952, 38.158924300000081 ], [ -1.764912607999975, 38.175213825000071 ], [ -1.744809499999974, 38.185439999000039 ], [ -1.729248499999926, 38.186194999000065 ], [ -1.717068499999925, 38.184318499000028 ], [ -1.698155499999928, 38.17960049900006 ], [ -1.652034499999957, 38.165655499000025 ], [ -1.646409499999947, 38.162452999000038 ], [ -1.632838499999934, 38.163815499000066 ], [ -1.629111, 38.116973999000038 ], [ -1.625643, 38.089679499000056 ], [ -1.645523824999941, 38.095692764000034 ], [ -1.666916633999961, 38.095180302000074 ], [ -1.701037588999952, 38.075412211000071 ], [ -1.719822904999944, 38.058278677000033 ], [ -1.721974491999958, 38.024387624000042 ], [ -1.708529262999946, 37.994216456000061 ], [ -1.710491617999935, 37.972031998000034 ], [ -1.714343, 37.965522499000031 ] ] ] } },
{ "type": "Feature", "properties": { "code": "30018", "name": "Ceutí" }, "geometry": { "type": "Polygon", "coordinates": [ [ [ -1.276974, 38.10399699900006 ], [ -1.26330704999998, 38.094280540000057 ], [ -1.263896397999929, 38.090575564000062 ], [ -1.259349401999941, 38.085732553000071 ], [ -1.260257760999934, 38.077168030000053 ], [ -1.254979499999934, 38.074455499000067 ], [ -1.26273570799998, 38.07066304500006 ], [ -1.310867499999972, 38.077831499000069 ], [ -1.311140499999965, 38.081313999000031 ], [ -1.305805499999963, 38.082786499000065 ], [ -1.306376499999942, 38.086219999000036 ], [ -1.293458286999964, 38.093556297000077 ], [ -1.289114705999964, 38.099398587000053 ], [ -1.276974, 38.10399699900006 ] ] ] } },
{ "type": "Feature", "properties": { "code": "30019", "name": "Cieza" }, "geometry": { "type": "Polygon", "coordinates": [ [ [ -1.466910499999926, 38.194350499000052 ], [ -1.501087029999951, 38.183450974000039 ], [ -1.51625649999994, 38.161443999000028 ], [ -1.553247110999962, 38.167067259000078 ], [ -1.570627958999978, 38.177389169000037 ], [ -1.58637687199996, 38.181994739000061 ], [ -1.588484, 38.190414499000042 ], [ -1.578277, 38.221241999000028 ], [ -1.579641, 38.243458499000042 ], [ -1.583504, 38.275166499000079 ], [ -1.595187, 38.305206499000064 ], [ -1.589496499999939, 38.309900999000035 ], [ -1.556418580999946, 38.326695082000072 ], [ -1.53925411299997, 38.344335722000039 ], [ -1.505270547999942, 38.359998885000039 ], [ -1.487660148999964, 38.373258793000048 ], [ -1.478434, 38.376438999000072 ], [ -1.450680400999943, 38.371969040000067 ], [ -1.386785329999952, 38.343922277000047 ], [ -1.354594308999935, 38.334720894000043 ], [ -1.318832499999928, 38.313457499000037 ], [ -1.322195124999951, 38.295087158000058 ], [ -1.340907185999924, 38.27677754900003 ], [ -1.339322632999938, 38.268731645000059 ], [ -1.341668733999938, 38.256885255000043 ], [ -1.357447853999929, 38.242932243000041 ], [ -1.361350844999947, 38.234552890000032 ], [ -1.366045284999927, 38.231719765000037 ], [ -1.366853033999973, 38.22494813600008 ], [ -1.388164178999943, 38.222258428000032 ], [ -1.408864779999931, 38.213908379000031 ], [ -1.433099338999966, 38.212757416000045 ], [ -1.456725063999954, 38.196078610000029 ], [ -1.466910499999926, 38.194350499000052 ] ] ] } },
{ "type": "Feature", "properties": { "code": "30020", "name": "Fortuna" }, "geometry": { "type": "Polygon", "coordinates": [ [ [ -1.141155, 38.316215499000066 ], [ -1.130594077999945, 38.250888989000032 ], [ -1.111187567999934, 38.210119834000068 ], [ -1.101312703999952, 38.200090329000034 ], [ -1.092297091999967, 38.184948258000077 ], [ -1.036702499999933, 38.137717999000074 ], [ -1.03068849999994, 38.115723499000069 ], [ -1.054689, 38.123676999000054 ], [ -1.071635499999957, 38.119424499000047 ], [ -1.101412499999981, 38.113933499000041 ], [ -1.119449065999959, 38.114439478000065 ], [ -1.131480499999952, 38.117894499000045 ], [ -1.141344793999963, 38.141812207000044 ], [ -1.15315712599994, 38.151483907000056 ], [ -1.190117541999939, 38.208071976000042 ], [ -1.213083499999925, 38.271682499000065 ], [ -1.209854499999949, 38.277995999000041 ], [ -1.198035, 38.287872499000059 ], [ -1.141155, 38.316215499000066 ] ] ] } },
{ "type": "Feature", "properties": { "code": "30021", "name": "Fuente Álamo de Murcia" }, "geometry": { "type": "Polygon", "coordinates": [ [ [ -1.070801499999959, 37.774223499000072 ], [ -1.06327, 37.760013499000024 ], [ -1.095428591999962, 37.74089593900004 ], [ -1.084497499999941, 37.716003499000067 ], [ -1.105322109999975, 37.722140774000025 ], [ -1.112617176999947, 37.72997532200003 ], [ -1.11922584499996, 37.729916164000031 ], [ -1.123290243999975, 37.703265552000062 ], [ -1.130781470999978, 37.694891798000072 ], [ -1.143552599999964, 37.689096322000069 ], [ -1.175564716999929, 37.659238246000029 ], [ -1.175500264999926, 37.644255452000039 ], [ -1.177789983999958, 37.640782387000058 ], [ -1.188146243999938, 37.633987619000038 ], [ -1.209040266999978, 37.633784560000038 ], [ -1.215714499999933, 37.630366999000046 ], [ -1.216387499999939, 37.632522499000061 ], [ -1.22429, 37.635207999000045 ], [ -1.225815499999953, 37.637775499000043 ], [ -1.24952049999996, 37.658271999000078 ], [ -1.293287, 37.673312999000075 ], [ -1.311896, 37.677249999000026 ], [ -1.319793, 37.692603999000028 ], [ -1.326130499999977, 37.698855999000045 ], [ -1.340933499999949, 37.723859499000071 ], [ -1.302728362999972, 37.730355836000058 ], [ -1.275102939999954, 37.742078290000052 ], [ -1.276968125999929, 37.764810818000058 ], [ -1.288289493999969, 37.788220698000032 ], [ -1.289934378999931, 37.801054264000072 ], [ -1.285556926999959, 37.826201457000025 ], [ -1.268361499999969, 37.848377499000037 ], [ -1.260480629999961, 37.845760170000062 ], [ -1.247272131999978, 37.832274593000079 ], [ -1.23135646999998, 37.826601461000052 ], [ -1.218742267999971, 37.811068715000033 ], [ -1.222527056999979, 37.803396778000035 ], [ -1.208965893999959, 37.800675838000075 ], [ -1.186990467999976, 37.810931369000059 ], [ -1.161555739999926, 37.790503050000041 ], [ -1.163811224999961, 37.77385117700004 ], [ -1.141890235999938, 37.752575427000068 ], [ -1.12940214899993, 37.755954443000064 ], [ -1.124765185999934, 37.764308948000064 ], [ -1.101313144999949, 37.774286362000055 ], [ -1.096299940999927, 37.779848249000054 ], [ -1.079631370999948, 37.773591065000062 ], [ -1.070801499999959, 37.774223499000072 ] ] ] } },
{ "type": "Feature", "properties": { "code": "30022", "name": "Jumilla" }, "geometry": { "type": "Polygon", "coordinates": [ [ [ -1.198035, 38.287872499000059 ], [ -1.210055410999928, 38.300837389000037 ], [ -1.236103550999928, 38.307750708000071 ], [ -1.251718957999969, 38.31930836500004 ], [ -1.265272955999933, 38.316357889000074 ], [ -1.284585252999932, 38.319144410000035 ], [ -1.296028548999971, 38.314778419000049 ], [ -1.318832499999928, 38.313457499000037 ], [ -1.354594308999935, 38.334720894000043 ], [ -1.386785329999952, 38.343922277000047 ], [ -1.450680400999943, 38.371969040000067 ], [ -1.478434, 38.376438999000072 ], [ -1.477983, 38.385513499000069 ], [ -1.475526499999944, 38.398376499000051 ], [ -1.474845, 38.408992499000078 ], [ -1.477658, 38.421283499000026 ], [ -1.476484, 38.447165999000049 ], [ -1.479888499999959, 38.466785499000025 ], [ -1.479832, 38.479842999000027 ], [ -1.481534499999952, 38.489345499000081 ], [ -1.490851499999962, 38.516212999000061 ], [ -1.498696, 38.532062499000062 ], [ -1.490924499999949, 38.555870499000036 ], [ -1.487658499999952, 38.563316499000052 ], [ -1.467179, 38.575592499000038 ], [ -1.451963499999977, 38.581466499000044 ], [ -1.447759499999961, 38.615585499000076 ], [ -1.443254, 38.636932499000068 ], [ -1.447655, 38.649528499000041 ], [ -1.428171, 38.667987999000047 ], [ -1.42163, 38.677001999000026 ], [ -1.402179499999932, 38.690803499000026 ], [ -1.395840499999963, 38.692519999000069 ], [ -1.390671499999939, 38.695892499000024 ], [ -1.382852, 38.699477999000067 ], [ -1.366627499999936, 38.70400999900005 ], [ -1.343076, 38.677408999000079 ], [ -1.300752, 38.622428999000078 ], [ -1.29380649999996, 38.61504749900007 ], [ -1.279915, 38.606544499000051 ], [ -1.247562499999958, 38.577789499000062 ], [ -1.229502, 38.549853999000049 ], [ -1.214331499999957, 38.534625499000072 ], [ -1.18383149999994, 38.500556999000025 ], [ -1.155352, 38.471534999000028 ], [ -1.140123499999959, 38.452632999000059 ], [ -1.122789499999953, 38.44712049900005 ], [ -1.114275, 38.441863999000077 ], [ -1.094109499999945, 38.437930999000059 ], [ -1.080677578999939, 38.431695378000029 ], [ -1.085287277999953, 38.42738440800008 ], [ -1.087741741999935, 38.403692725000042 ], [ -1.087898057999951, 38.368073086000038 ], [ -1.084330499999965, 38.346217999000032 ], [ -1.119872511999972, 38.321964377000029 ], [ -1.141155, 38.316215499000066 ], [ -1.198035, 38.287872499000059 ] ] ] } },
{ "type": "Feature", "properties": { "code": "30023", "name": "Librilla" }, "geometry": { "type": "Polygon", "coordinates": [ [ [ -1.410711499999934, 37.905914999000061 ], [ -1.370211499999925, 37.928779499000029 ], [ -1.361609791999967, 37.928886391000049 ], [ -1.356548540999938, 37.938408081000034 ], [ -1.336645464999947, 37.941474711000069 ], [ -1.325881213999935, 37.935537174000046 ], [ -1.31364149999996, 37.934506783000074 ], [ -1.298942925999938, 37.929021281000075 ], [ -1.27737360499998, 37.916274978000047 ], [ -1.273259443999962, 37.910975805000078 ], [ -1.292305725999938, 37.89854286700006 ], [ -1.298192276999941, 37.890649876000055 ], [ -1.307949568999959, 37.887986849000072 ], [ -1.316579071999968, 37.875949981000076 ], [ -1.331918357999939, 37.873292863000074 ], [ -1.348025402999951, 37.862249524000049 ], [ -1.359719859999927, 37.861138967000045 ], [ -1.357058219999942, 37.871197325000026 ], [ -1.363320460999944, 37.880257703000041 ], [ -1.388616053999954, 37.889278723000075 ], [ -1.401113917999965, 37.901115928000024 ], [ -1.410711499999934, 37.905914999000061 ] ] ] } },
{ "type": "Feature", "properties": { "code": "30024", "name": "Lorca" }, "geometry": { "type": "Polygon", "coordinates": [ [ [ -1.974224, 37.868471999000064 ], [ -1.970759323999971, 37.881135100000051 ], [ -1.890404510999929, 37.929813612000032 ], [ -1.849709607999955, 37.959326948000069 ], [ -1.822578499999963, 37.970187999000075 ], [ -1.819453, 37.969897999000068 ], [ -1.808137, 37.96205149900004 ], [ -1.792658499999959, 37.954185499000062 ], [ -1.780015, 37.950000999000054 ], [ -1.745805, 37.944980499000053 ], [ -1.733043499999951, 37.94916149900007 ], [ -1.703555596999934, 37.926720370000055 ], [ -1.691551809999964, 37.909884619000024 ], [ -1.67618439499995, 37.898937690000025 ], [ -1.678840119999961, 37.880502872000079 ], [ -1.665221, 37.864097499000025 ], [ -1.67094356399997, 37.822710733000065 ], [ -1.66061, 37.797835999000029 ], [ -1.659367771999939, 37.790491796000026 ], [ -1.663717943999927, 37.770839925000075 ], [ -1.658907499999941, 37.753745999000046 ], [ -1.644747973999927, 37.737414350000051 ], [ -1.635925798999949, 37.739851135000038 ], [ -1.630031152999948, 37.745056372000079 ], [ -1.622889913999927, 37.743366949000063 ], [ -1.608067081999934, 37.749644534000026 ], [ -1.565582064999944, 37.738331706000054 ], [ -1.551629853999941, 37.726311657000053 ], [ -1.543402472999958, 37.70657103700006 ], [ -1.512945534999972, 37.668452216000048 ], [ -1.476949181999942, 37.68009401200004 ], [ -1.462118499999974, 37.679660999000077 ], [ -1.453593723999973, 37.666181056000028 ], [ -1.455887673999939, 37.658506258000045 ], [ -1.450896646999979, 37.652471148000075 ], [ -1.453626548999978, 37.637961472000029 ], [ -1.455889430999946, 37.634538448000058 ], [ -1.473011706999955, 37.628331654000078 ], [ -1.460838015999968, 37.619421826000064 ], [ -1.446926069999961, 37.583421504000057 ], [ -1.451681793999967, 37.574878550000051 ], [ -1.458135953999943, 37.570740803000035 ], [ -1.460838055999943, 37.561802242000056 ], [ -1.447687529999939, 37.551670046000027 ], [ -1.44074296499997, 37.540428817000077 ], [ -1.430909860999975, 37.539940543000057 ], [ -1.396235499999932, 37.517516999000065 ], [ -1.403257487999952, 37.507536079000033 ], [ -1.43021856699994, 37.502424060000067 ], [ -1.453263624999977, 37.491182059000039 ], [ -1.468520499999954, 37.473701499000072 ], [ -1.491964063999944, 37.49075646600005 ], [ -1.509800151999968, 37.496907634000024 ], [ -1.523521166999956, 37.509854860000075 ], [ -1.526970132999963, 37.519976419000045 ], [ -1.521138186999963, 37.526290263000078 ], [ -1.526019257999963, 37.543001547000074 ], [ -1.52430985899997, 37.555441538000025 ], [ -1.536861588999955, 37.563887454000053 ], [ -1.547027023999931, 37.56603519500004 ], [ -1.583952068999963, 37.551225186000067 ], [ -1.587844590999964, 37.545937439000056 ], [ -1.608026146999975, 37.53501581900008 ], [ -1.611140699999964, 37.528211730000066 ], [ -1.620716862999927, 37.526808205000066 ], [ -1.623098585999969, 37.53158944200004 ], [ -1.633090907999929, 37.534155714000065 ], [ -1.647312302999978, 37.526607327000079 ], [ -1.650755407999952, 37.51240791500004 ], [ -1.674897883999961, 37.498072871000034 ], [ -1.685874432999981, 37.479264759000046 ], [ -1.690762896999956, 37.476335572000039 ], [ -1.693427115999953, 37.466874878000056 ], [ -1.691737879999948, 37.46338352500004 ], [ -1.696681461999958, 37.456151243000079 ], [ -1.695769588999951, 37.446891745000073 ], [ -1.688143455999978, 37.430531024000061 ], [ -1.704973499999937, 37.421020499000065 ], [ -1.737035499999934, 37.442630999000073 ], [ -1.779795499999977, 37.446975499000075 ], [ -1.796261499999957, 37.452190499000039 ], [ -1.811719, 37.451553499000056 ], [ -1.80890549999998, 37.433471499000063 ], [ -1.845223499999975, 37.454826499000035 ], [ -1.848386499999947, 37.46097749900008 ], [ -1.834559880999961, 37.468377937000071 ], [ -1.827166499999976, 37.480308486000069 ], [ -1.810597548999965, 37.493842349000033 ], [ -1.808786494999936, 37.501936362000038 ], [ -1.794734061999975, 37.516969980000056 ], [ -1.781712392999964, 37.522087003000024 ], [ -1.772871214999952, 37.531862806000049 ], [ -1.761804088999952, 37.535548535000032 ], [ -1.753846431999932, 37.534340531000055 ], [ -1.751653658999942, 37.557268764000071 ], [ -1.71658944099994, 37.563261759000056 ], [ -1.713190815999951, 37.579621811000038 ], [ -1.70271809999997, 37.584248072000037 ], [ -1.71802615699994, 37.605190649000065 ], [ -1.762644333999958, 37.600079607000055 ], [ -1.796978870999965, 37.605365028000051 ], [ -1.817527225999925, 37.589215008000053 ], [ -1.837947803999953, 37.577750593000076 ], [ -1.862873341999943, 37.58371074400003 ], [ -1.872057839999968, 37.58193863300005 ], [ -1.88222961799994, 37.575211723000052 ], [ -1.890177161999929, 37.560102418000042 ], [ -1.900012086999936, 37.558399739000038 ], [ -1.907528164999974, 37.547504127000025 ], [ -1.916385499999933, 37.544852999000057 ], [ -1.952852794999956, 37.587299263000034 ], [ -1.956015137999941, 37.600663523000037 ], [ -1.96465772099998, 37.605280084000071 ], [ -1.97712298099998, 37.620273877000045 ], [ -1.985977230999936, 37.642933277000054 ], [ -1.992739, 37.64330299900007 ], [ -2.011192804999951, 37.673551359000044 ], [ -2.011781655999926, 37.701299386000073 ], [ -2.00739138199998, 37.718696985000065 ], [ -1.996466779999935, 37.728649310000037 ], [ -2.00826531599995, 37.776151326000047 ], [ -1.997168772999942, 37.817539938000039 ], [ -1.99888293999993, 37.824252066000042 ], [ -1.995122113999969, 37.841057125000077 ], [ -1.98876856499993, 37.852467798000077 ], [ -1.977495423999926, 37.860848115000067 ], [ -1.974224, 37.868471999000064 ] ] ] } },
{ "type": "Feature", "properties": { "code": "30025", "name": "Lorquí" }, "geometry": { "type": "Polygon", "coordinates": [ [ [ -1.249310499999979, 38.069331999000042 ], [ -1.254979499999934, 38.074455499000067 ], [ -1.260257760999934, 38.077168030000053 ], [ -1.259349401999941, 38.085732553000071 ], [ -1.263896397999929, 38.090575564000062 ], [ -1.26330704999998, 38.094280540000057 ], [ -1.276974, 38.10399699900006 ], [ -1.278689499999928, 38.107661999000072 ], [ -1.275315, 38.107631499000036 ], [ -1.27233, 38.106487499000025 ], [ -1.26650049999995, 38.129211499000064 ], [ -1.240918757999964, 38.118803410000055 ], [ -1.226386339999976, 38.106772737000028 ], [ -1.228142176999938, 38.09657588500005 ], [ -1.249310499999979, 38.069331999000042 ] ] ] } },
{ "type": "Feature", "properties": { "code": "30026", "name": "Mazarrón" }, "geometry": { "type": "Polygon", "coordinates": [ [ [ -1.225873, 37.573364499000036 ], [ -1.230774604999965, 37.576142980000043 ], [ -1.24544831399993, 37.575711802000058 ], [ -1.256073886999957, 37.56741827500008 ], [ -1.255913502999931, 37.56000922100003 ], [ -1.264142310999944, 37.559225021000032 ], [ -1.266740952999953, 37.554182974000071 ], [ -1.27047732799997, 37.559591239000042 ], [ -1.287336032999974, 37.557139377000055 ], [ -1.308800079999969, 37.562298287000033 ], [ -1.326609431999941, 37.561446011000044 ], [ -1.354724408999971, 37.549644226000055 ], [ -1.372666031999927, 37.533000974000061 ], [ -1.389179492999972, 37.524727057000064 ], [ -1.396235499999932, 37.517516999000065 ], [ -1.430909860999975, 37.539940543000057 ], [ -1.44074296499997, 37.540428817000077 ], [ -1.447687529999939, 37.551670046000027 ], [ -1.460838055999943, 37.561802242000056 ], [ -1.458135953999943, 37.570740803000035 ], [ -1.451681793999967, 37.574878550000051 ], [ -1.446926069999961, 37.583421504000057 ], [ -1.460838015999968, 37.619421826000064 ], [ -1.473011706999955, 37.628331654000078 ], [ -1.455889430999946, 37.634538448000058 ], [ -1.453626548999978, 37.637961472000029 ], [ -1.450896646999979, 37.652471148000075 ], [ -1.455887673999939, 37.658506258000045 ], [ -1.453593723999973, 37.666181056000028 ], [ -1.462118499999974, 37.679660999000077 ], [ -1.435197499999958, 37.692016499000033 ], [ -1.396194, 37.70516199900004 ], [ -1.369476, 37.721475499000064 ], [ -1.340933499999949, 37.723859499000071 ], [ -1.326130499999977, 37.698855999000045 ], [ -1.319793, 37.692603999000028 ], [ -1.311896, 37.677249999000026 ], [ -1.293287, 37.673312999000075 ], [ -1.24952049999996, 37.658271999000078 ], [ -1.225815499999953, 37.637775499000043 ], [ -1.22429, 37.635207999000045 ], [ -1.216387499999939, 37.632522499000061 ], [ -1.215714499999933, 37.630366999000046 ], [ -1.209588665999945, 37.621843739000042 ], [ -1.211955422999949, 37.607423361000031 ], [ -1.210202841999944, 37.603054704000044 ], [ -1.22230048199998, 37.588415763000057 ], [ -1.225873, 37.573364499000036 ] ] ] } },
{ "type": "Feature", "properties": { "code": "30027", "name": "Molina de Segura" }, "geometry": { "type": "Polygon", "coordinates": [ [ [ -1.273507499999937, 38.140289999000061 ], [ -1.269361330999971, 38.152297968000028 ], [ -1.24871643299997, 38.168283683000027 ], [ -1.241864745999976, 38.177386428000034 ], [ -1.237025948999928, 38.185815131000027 ], [ -1.236738, 38.198272999000039 ], [ -1.235442499999976, 38.20604699900008 ], [ -1.233000499999946, 38.211166499000058 ], [ -1.219224, 38.223411499000065 ], [ -1.220299499999953, 38.238296499000057 ], [ -1.213083499999925, 38.271682499000065 ], [ -1.190117541999939, 38.208071976000042 ], [ -1.15315712599994, 38.151483907000056 ], [ -1.141344793999963, 38.141812207000044 ], [ -1.131480499999952, 38.117894499000045 ], [ -1.137559522999936, 38.08162192900005 ], [ -1.15285395099994, 38.07396310300004 ], [ -1.153044739999928, 38.066492483000047 ], [ -1.159480104999943, 38.062797086000046 ], [ -1.158459379999954, 38.056032483000024 ], [ -1.177668598999958, 38.037096805000033 ], [ -1.178019914999936, 38.020342088000064 ], [ -1.194396045999952, 38.013390634000075 ], [ -1.199912274999974, 38.004828455000052 ], [ -1.204506700999957, 38.002539624000065 ], [ -1.217253669999934, 38.003997243000072 ], [ -1.215039499999932, 38.012668499000029 ], [ -1.218366414999934, 38.013706331000037 ], [ -1.218384545999925, 38.016534771000067 ], [ -1.212620296999944, 38.021737244000064 ], [ -1.217813201999945, 38.027301246000036 ], [ -1.217085933999954, 38.032806679000032 ], [ -1.22435749999994, 38.038192999000046 ], [ -1.216294448999975, 38.043756054000028 ], [ -1.215628372999959, 38.048000693000063 ], [ -1.231474016999925, 38.049608523000074 ], [ -1.240655871999934, 38.067484139000044 ], [ -1.249310499999979, 38.069331999000042 ], [ -1.228142176999938, 38.09657588500005 ], [ -1.226386339999976, 38.106772737000028 ], [ -1.240918757999964, 38.118803410000055 ], [ -1.26650049999995, 38.129211499000064 ], [ -1.265715, 38.13299949900005 ], [ -1.273507499999937, 38.140289999000061 ] ] ] } },
{ "type": "Feature", "properties": { "code": "30028", "name": "Moratalla" }, "geometry": { "type": "Polygon", "coordinates": [ [ [ -2.298366499999929, 38.00280249900004 ], [ -2.341195499999969, 38.025868999000068 ], [ -2.343624154999929, 38.030319613000074 ], [ -2.342178555999965, 38.037165478000077 ], [ -2.328765780999959, 38.067249462000063 ], [ -2.312200265999934, 38.079747705000045 ], [ -2.294793777999928, 38.087201289000063 ], [ -2.266275886999949, 38.109209499000031 ], [ -2.252269711999929, 38.128137492000064 ], [ -2.250971006999976, 38.13783748700007 ], [ -2.244493118999969, 38.14965516400008 ], [ -2.230339900999979, 38.163210676000062 ], [ -2.213288499999976, 38.202052999000045 ], [ -2.187377925999954, 38.214040768000075 ], [ -2.172419084999945, 38.22470217700004 ], [ -2.11285694999998, 38.238131853000027 ], [ -2.083081418999939, 38.26538832600005 ], [ -2.075518837999937, 38.282834036000054 ], [ -2.064381417999925, 38.296101371000077 ], [ -2.048572499999977, 38.305693999000027 ], [ -2.03306943299998, 38.300186023000037 ], [ -2.022088516999929, 38.300424086000078 ], [ -2.000881006999975, 38.284431315000063 ], [ -1.983916960999977, 38.281477887000051 ], [ -1.909504828999957, 38.29744906500008 ], [ -1.89445070499994, 38.302186396000025 ], [ -1.871792926999944, 38.315548599000067 ], [ -1.851392448999945, 38.33276173400003 ], [ -1.826217036999935, 38.333924014000047 ], [ -1.810896768999953, 38.35082222300008 ], [ -1.78779762399995, 38.355044970000051 ], [ -1.786679980999963, 38.357222086000036 ], [ -1.793271003999962, 38.363393775000077 ], [ -1.794512, 38.368942999000069 ], [ -1.771550872999967, 38.364755641000045 ], [ -1.770210154999972, 38.378679187000046 ], [ -1.754061112999977, 38.375325170000053 ], [ -1.745007083999951, 38.380307849000076 ], [ -1.736532602999944, 38.375835469000037 ], [ -1.734117409999953, 38.371087187000057 ], [ -1.720568600999968, 38.368251368000074 ], [ -1.716492365999954, 38.363326015000041 ], [ -1.712917965999964, 38.370943320000038 ], [ -1.70114786399995, 38.373779834000061 ], [ -1.682270887999948, 38.359163448000061 ], [ -1.684896394999953, 38.352163222000058 ], [ -1.682713235999927, 38.349237965000043 ], [ -1.691013444999953, 38.346562765000044 ], [ -1.691431346999934, 38.338847100000066 ], [ -1.683588769999972, 38.326707580000061 ], [ -1.672816343999955, 38.320896963000052 ], [ -1.669711499999949, 38.311773999000025 ], [ -1.673544424999932, 38.299502781000058 ], [ -1.684628741999973, 38.29630459200007 ], [ -1.693392020999966, 38.282888127000035 ], [ -1.69788590099995, 38.283779529000071 ], [ -1.701330512999959, 38.290125279000051 ], [ -1.709197972999959, 38.291497100000072 ], [ -1.711737845999949, 38.288622346000068 ], [ -1.711359581999943, 38.280717780000032 ], [ -1.731293597999979, 38.278348483000059 ], [ -1.729311413999937, 38.269000169000037 ], [ -1.723217903999966, 38.265803729000027 ], [ -1.721313065999936, 38.261537655000041 ], [ -1.738713030999975, 38.245613568000067 ], [ -1.745514197999967, 38.212783969000043 ], [ -1.744809499999974, 38.185439999000039 ], [ -1.764912607999975, 38.175213825000071 ], [ -1.779717950999952, 38.158924300000081 ], [ -1.801105745999962, 38.147374814000045 ], [ -1.876672674999952, 38.140226359000053 ], [ -1.909524561999945, 38.144056202000058 ], [ -1.922132992999934, 38.139602595000042 ], [ -1.962331217999974, 38.134057130000031 ], [ -1.992931790999933, 38.138033561000043 ], [ -2.027073043999962, 38.129372980000028 ], [ -2.03934542899998, 38.122850437000068 ], [ -2.05210638799997, 38.120961515000033 ], [ -2.108747835999964, 38.099856507000027 ], [ -2.132472819999975, 38.08213289400004 ], [ -2.186378791999971, 38.050134685000046 ], [ -2.194204633999959, 38.049208775000068 ], [ -2.212303841999926, 38.031689173000075 ], [ -2.267549951999968, 38.004408218000037 ], [ -2.286720815999956, 38.001161283000044 ], [ -2.298366499999929, 38.00280249900004 ] ] ] } },
{ "type": "Feature", "properties": { "code": "30029", "name": "Mula" }, "geometry": { "type": "Polygon", "coordinates": [ [ [ -1.370211499999925, 37.928779499000029 ], [ -1.410711499999934, 37.905914999000061 ], [ -1.468293890999973, 37.898378630000025 ], [ -1.503632925999966, 37.887744832000067 ], [ -1.527979178999942, 37.887794432000078 ], [ -1.540593586999933, 37.884392168000034 ], [ -1.564501, 37.886479999000073 ], [ -1.575182499999926, 37.894199499000024 ], [ -1.588446499999975, 37.896457499000064 ], [ -1.596678499999939, 37.894763999000077 ], [ -1.606041, 37.891646999000045 ], [ -1.611596499999962, 37.888946499000042 ], [ -1.614086499999928, 37.886516499000038 ], [ -1.620253, 37.883857499000044 ], [ -1.640963499999941, 37.867721499000027 ], [ -1.643595, 37.866779499000074 ], [ -1.653706, 37.860244999000031 ], [ -1.665221, 37.864097499000025 ], [ -1.678840119999961, 37.880502872000079 ], [ -1.67618439499995, 37.898937690000025 ], [ -1.691551809999964, 37.909884619000024 ], [ -1.703555596999934, 37.926720370000055 ], [ -1.733043499999951, 37.94916149900007 ], [ -1.729641, 37.952484499000036 ], [ -1.724427499999933, 37.954482999000049 ], [ -1.721559, 37.959716499000081 ], [ -1.714343, 37.965522499000031 ], [ -1.673517599999968, 37.987443691000067 ], [ -1.624079341999959, 38.040439081000045 ], [ -1.615887206999957, 38.05763657600005 ], [ -1.625643, 38.089679499000056 ], [ -1.629111, 38.116973999000038 ], [ -1.632838499999934, 38.163815499000066 ], [ -1.62257649999998, 38.171804499000075 ], [ -1.588484, 38.190414499000042 ], [ -1.58637687199996, 38.181994739000061 ], [ -1.570627958999978, 38.177389169000037 ], [ -1.553247110999962, 38.167067259000078 ], [ -1.51625649999994, 38.161443999000028 ], [ -1.505673499999943, 38.142017499000076 ], [ -1.495823, 38.12882249900008 ], [ -1.491270499999928, 38.120517499000073 ], [ -1.485708, 38.116985499000066 ], [ -1.479957, 38.118110499000068 ], [ -1.477833499999974, 38.11487549900005 ], [ -1.462287499999945, 38.11644749900006 ], [ -1.434437, 38.113490999000078 ], [ -1.440363499999933, 38.110011999000051 ], [ -1.431959, 38.097076499000025 ], [ -1.419399, 38.081405999000026 ], [ -1.388781, 38.050891999000044 ], [ -1.400345499999958, 38.045867999000052 ], [ -1.404657499999928, 38.039401999000063 ], [ -1.403201499999966, 38.020862499000032 ], [ -1.398177, 38.000514999000075 ], [ -1.388806530999943, 37.990506022000034 ], [ -1.36088, 37.995216499000037 ], [ -1.358700584999951, 37.960307048000061 ], [ -1.362251116999971, 37.956892530000061 ], [ -1.36794974999998, 37.957273034000025 ], [ -1.372236657999963, 37.951281754000036 ], [ -1.383993765999946, 37.947730798000066 ], [ -1.382313158999978, 37.94065932500007 ], [ -1.370211499999925, 37.928779499000029 ] ], [ [ -1.538332857999933, 37.96461570300005 ], [ -1.53418153299998, 37.951687609000032 ], [ -1.518317648999925, 37.947413924000045 ], [ -1.508769506999954, 37.95166110200006 ], [ -1.499197968999965, 37.94815176700007 ], [ -1.467474902999925, 37.960783801000048 ], [ -1.477214081999932, 37.974602759000049 ], [ -1.47744767599994, 37.988345357000071 ], [ -1.481708255999933, 37.999370846000033 ], [ -1.50225766899996, 38.012701149000065 ], [ -1.512938455999972, 38.013922450000052 ], [ -1.524008911999942, 38.007972522000046 ], [ -1.521805951999966, 38.001284248000047 ], [ -1.524236371999962, 37.981144473000029 ], [ -1.538332857999933, 37.96461570300005 ] ] ] } },
{ "type": "Feature", "properties": { "code": "30030", "name": "Murcia" }, "geometry": { "type": "MultiPolygon", "coordinates": [ [ [ [ -0.851237, 37.881739999000047 ], [ -0.854349040999978, 37.865525073000072 ], [ -0.865444108999952, 37.863656305000063 ], [ -0.88521123299995, 37.849795977000042 ], [ -0.896868523999956, 37.849205684000026 ], [ -0.911772, 37.843017499000041 ], [ -0.918720675999964, 37.837458946000027 ], [ -0.938202309999951, 37.83017368000003 ], [ -0.979948038999964, 37.823341736000032 ], [ -0.991228965999937, 37.83930375500006 ], [ -1.001865419999945, 37.848214890000065 ], [ -1.019174843999963, 37.836488903000031 ], [ -1.02912287099997, 37.816196292000029 ], [ -1.057866141999966, 37.800564106000024 ], [ -1.074051683999926, 37.786608869000077 ], [ -1.070801499999959, 37.774223499000072 ], [ -1.079631370999948, 37.773591065000062 ], [ -1.096299940999927, 37.779848249000054 ], [ -1.101313144999949, 37.774286362000055 ], [ -1.124765185999934, 37.764308948000064 ], [ -1.12940214899993, 37.755954443000064 ], [ -1.141890235999938, 37.752575427000068 ], [ -1.163811224999961, 37.77385117700004 ], [ -1.161555739999926, 37.790503050000041 ], [ -1.186990467999976, 37.810931369000059 ], [ -1.208965893999959, 37.800675838000075 ], [ -1.222527056999979, 37.803396778000035 ], [ -1.218742267999971, 37.811068715000033 ], [ -1.23135646999998, 37.826601461000052 ], [ -1.247272131999978, 37.832274593000079 ], [ -1.260480629999961, 37.845760170000062 ], [ -1.268361499999969, 37.848377499000037 ], [ -1.273192499999936, 37.875050999000052 ], [ -1.282566499999973, 37.904589999000052 ], [ -1.273259443999962, 37.910975805000078 ], [ -1.27737360499998, 37.916274978000047 ], [ -1.298942925999938, 37.929021281000075 ], [ -1.31364149999996, 37.934506783000074 ], [ -1.325881213999935, 37.935537174000046 ], [ -1.336645464999947, 37.941474711000069 ], [ -1.356548540999938, 37.938408081000034 ], [ -1.361609791999967, 37.928886391000049 ], [ -1.370211499999925, 37.928779499000029 ], [ -1.382313158999978, 37.94065932500007 ], [ -1.383993765999946, 37.947730798000066 ], [ -1.372236657999963, 37.951281754000036 ], [ -1.36794974999998, 37.957273034000025 ], [ -1.362251116999971, 37.956892530000061 ], [ -1.358700584999951, 37.960307048000061 ], [ -1.36088, 37.995216499000037 ], [ -1.351898, 38.008796499000027 ], [ -1.350123, 38.01788349900005 ], [ -1.33442, 38.022636499000043 ], [ -1.318341, 38.029273999000054 ], [ -1.312401499999964, 38.024493999000072 ], [ -1.321973449999973, 38.020315034000078 ], [ -1.326846013999955, 38.011662523000041 ], [ -1.316729782999971, 38.004826182000045 ], [ -1.293707081999969, 37.998864910000066 ], [ -1.244993790999956, 37.996408931000076 ], [ -1.24084591299993, 38.003001184000027 ], [ -1.226393433999931, 38.010538057000076 ], [ -1.215039499999932, 38.012668499000029 ], [ -1.217253669999934, 38.003997243000072 ], [ -1.204506700999957, 38.002539624000065 ], [ -1.199912274999974, 38.004828455000052 ], [ -1.194396045999952, 38.013390634000075 ], [ -1.178019914999936, 38.020342088000064 ], [ -1.177668598999958, 38.037096805000033 ], [ -1.158459379999954, 38.056032483000024 ], [ -1.159480104999943, 38.062797086000046 ], [ -1.153044739999928, 38.066492483000047 ], [ -1.15285395099994, 38.07396310300004 ], [ -1.137559522999936, 38.08162192900005 ], [ -1.131480499999952, 38.117894499000045 ], [ -1.119449065999959, 38.114439478000065 ], [ -1.101412499999981, 38.113933499000041 ], [ -1.104396219999956, 38.105903826000031 ], [ -1.08950348999997, 38.087733402000026 ], [ -1.092408475999946, 38.081278560000044 ], [ -1.088476630999935, 38.06803375100003 ], [ -1.065646597999944, 38.061561623000046 ], [ -1.049007439999968, 38.041113403000054 ], [ -1.010314, 38.059649499000045 ], [ -0.998401499999943, 38.051709499000026 ], [ -1.012833003999958, 38.045231736000062 ], [ -1.013710233999973, 38.034707963000074 ], [ -1.001460126999973, 38.024538311000072 ], [ -0.992260821999935, 38.006013065000047 ], [ -0.965958499999942, 38.012683999000046 ], [ -0.957647, 37.99695949900007 ], [ -0.934119, 37.968883499000071 ], [ -0.921123, 37.944232999000064 ], [ -0.900112, 37.923125999000035 ], [ -0.857151499999929, 37.885207999000045 ], [ -0.854177499999935, 37.884261999000046 ], [ -0.851237, 37.881739999000047 ] ], [ [ -1.27399595299994, 37.982528262000073 ], [ -1.249487219999935, 37.957087284000067 ], [ -1.227578691999952, 37.966810212000041 ], [ -1.218675537999957, 37.958387884000047 ], [ -1.19866628799997, 37.950105632000032 ], [ -1.191060084999947, 37.959018910000054 ], [ -1.192772183999978, 37.96184265100004 ], [ -1.201672397999971, 37.960745607000035 ], [ -1.202619923999976, 37.965002836000053 ], [ -1.195668219999959, 37.96962529700005 ], [ -1.197331331999976, 37.974919188000058 ], [ -1.200260885999967, 37.978253777000077 ], [ -1.212741652999966, 37.98001021400006 ], [ -1.214081109999938, 37.984971312000027 ], [ -1.236173042999951, 37.980668942000079 ], [ -1.25694746299996, 37.99173640600003 ], [ -1.27399595299994, 37.982528262000073 ] ] ], [ [ [ -1.050763, 37.72356049900003 ], [ -1.066714347999948, 37.717411969000068 ], [ -1.084497499999941, 37.716003499000067 ], [ -1.095428591999962, 37.74089593900004 ], [ -1.06327, 37.760013499000024 ], [ -1.050763, 37.72356049900003 ] ] ] ] } },
{ "type": "Feature", "properties": { "code": "30031", "name": "Ojós" }, "geometry": { "type": "Polygon", "coordinates": [ [ [ -1.333453, 38.134578499000042 ], [ -1.329683672999977, 38.125491910000051 ], [ -1.336326309999947, 38.109937822000063 ], [ -1.335407139999973, 38.086810606000029 ], [ -1.327247590999946, 38.074483340000029 ], [ -1.331047499999954, 38.06128699900006 ], [ -1.384529688999976, 38.076531465000073 ], [ -1.39502312299993, 38.088228947000061 ], [ -1.396008713999947, 38.098656862000041 ], [ -1.417946499999971, 38.106456999000045 ], [ -1.405634119999945, 38.122677760000045 ], [ -1.374210361999928, 38.127027201000033 ], [ -1.349782686999959, 38.135257600000045 ], [ -1.348267337999971, 38.139888839000037 ], [ -1.352431, 38.161826999000027 ], [ -1.338697366999952, 38.160305027000049 ], [ -1.334545, 38.163879499000075 ], [ -1.325314274999926, 38.158195545000069 ], [ -1.324347151999973, 38.148009887000057 ], [ -1.336998456999936, 38.140670895000028 ], [ -1.333453, 38.134578499000042 ] ] ] } },
{ "type": "Feature", "properties": { "code": "30032", "name": "Pliego" }, "geometry": { "type": "Polygon", "coordinates": [ [ [ -1.538332857999933, 37.96461570300005 ], [ -1.524236371999962, 37.981144473000029 ], [ -1.521805951999966, 38.001284248000047 ], [ -1.524008911999942, 38.007972522000046 ], [ -1.512938455999972, 38.013922450000052 ], [ -1.50225766899996, 38.012701149000065 ], [ -1.481708255999933, 37.999370846000033 ], [ -1.47744767599994, 37.988345357000071 ], [ -1.477214081999932, 37.974602759000049 ], [ -1.467474902999925, 37.960783801000048 ], [ -1.499197968999965, 37.94815176700007 ], [ -1.508769506999954, 37.95166110200006 ], [ -1.518317648999925, 37.947413924000045 ], [ -1.53418153299998, 37.951687609000032 ], [ -1.538332857999933, 37.96461570300005 ] ] ] } },
{ "type": "Feature", "properties": { "code": "30033", "name": "Puerto Lumbreras" }, "geometry": { "type": "Polygon", "coordinates": [ [ [ -1.916385499999933, 37.544852999000057 ], [ -1.907528164999974, 37.547504127000025 ], [ -1.900012086999936, 37.558399739000038 ], [ -1.890177161999929, 37.560102418000042 ], [ -1.88222961799994, 37.575211723000052 ], [ -1.872057839999968, 37.58193863300005 ], [ -1.862873341999943, 37.58371074400003 ], [ -1.837947803999953, 37.577750593000076 ], [ -1.817527225999925, 37.589215008000053 ], [ -1.796978870999965, 37.605365028000051 ], [ -1.762644333999958, 37.600079607000055 ], [ -1.71802615699994, 37.605190649000065 ], [ -1.70271809999997, 37.584248072000037 ], [ -1.713190815999951, 37.579621811000038 ], [ -1.71658944099994, 37.563261759000056 ], [ -1.751653658999942, 37.557268764000071 ], [ -1.753846431999932, 37.534340531000055 ], [ -1.761804088999952, 37.535548535000032 ], [ -1.772871214999952, 37.531862806000049 ], [ -1.781712392999964, 37.522087003000024 ], [ -1.794734061999975, 37.516969980000056 ], [ -1.808786494999936, 37.501936362000038 ], [ -1.810597548999965, 37.493842349000033 ], [ -1.827166499999976, 37.480308486000069 ], [ -1.834559880999961, 37.468377937000071 ], [ -1.848386499999947, 37.46097749900008 ], [ -1.859696071999963, 37.480683506000048 ], [ -1.871052539999937, 37.489637805000029 ], [ -1.916385499999933, 37.544852999000057 ] ] ] } },
{ "type": "Feature", "properties": { "code": "30034", "name": "Ricote" }, "geometry": { "type": "Polygon", "coordinates": [ [ [ -1.434437, 38.113490999000078 ], [ -1.462287499999945, 38.11644749900006 ], [ -1.477833499999974, 38.11487549900005 ], [ -1.479957, 38.118110499000068 ], [ -1.485708, 38.116985499000066 ], [ -1.491270499999928, 38.120517499000073 ], [ -1.495823, 38.12882249900008 ], [ -1.505673499999943, 38.142017499000076 ], [ -1.51625649999994, 38.161443999000028 ], [ -1.501087029999951, 38.183450974000039 ], [ -1.466910499999926, 38.194350499000052 ], [ -1.465432143999976, 38.182859164000035 ], [ -1.449314285999947, 38.172050377000062 ], [ -1.427337553999962, 38.170851190000064 ], [ -1.40429649999993, 38.179107499000054 ], [ -1.389796049999973, 38.181846302000054 ], [ -1.387208351999959, 38.177375042000051 ], [ -1.37960428699995, 38.17565320600005 ], [ -1.369451143999925, 38.166345876000037 ], [ -1.352431, 38.161826999000027 ], [ -1.348267337999971, 38.139888839000037 ], [ -1.349782686999959, 38.135257600000045 ], [ -1.374210361999928, 38.127027201000033 ], [ -1.405634119999945, 38.122677760000045 ], [ -1.417946499999971, 38.106456999000045 ], [ -1.434437, 38.113490999000078 ] ] ] } },
{ "type": "Feature", "properties": { "code": "30035", "name": "San Javier" }, "geometry": { "type": "MultiPolygon", "coordinates": [ [ [ [ -0.705411458999947, 37.731581214000073 ], [ -0.705736247999937, 37.726083379000045 ], [ -0.70862417799998, 37.724920605000079 ], [ -0.710093809999933, 37.729608274000043 ], [ -0.705411458999947, 37.731581214000073 ] ] ], [ [ [ -0.732843499999944, 37.668330999000034 ], [ -0.744876258999966, 37.706959669000071 ], [ -0.739653551999936, 37.736184037000044 ], [ -0.744458146999932, 37.745620356000074 ], [ -0.742944031999969, 37.753398556000036 ], [ -0.756280484999934, 37.780079133000072 ], [ -0.758676739999942, 37.787330482000073 ], [ -0.75696045899997, 37.791024935000053 ], [ -0.761912499999937, 37.794574499000078 ], [ -0.74812049999997, 37.790668499000049 ], [ -0.754932984999925, 37.786026869000068 ], [ -0.742502073999958, 37.776495842000031 ], [ -0.746126698999944, 37.76566359900005 ], [ -0.74428151799998, 37.758379255000079 ], [ -0.735963460999926, 37.750104945000032 ], [ -0.728512983999963, 37.749120514000026 ], [ -0.726418792999937, 37.746223428000064 ], [ -0.73353954199996, 37.743661560000078 ], [ -0.737916635999966, 37.735229093000044 ], [ -0.740642527999967, 37.711163795000061 ], [ -0.726541499999939, 37.669055999000079 ], [ -0.732843499999944, 37.668330999000034 ] ] ], [ [ [ -0.769921769999939, 37.702889154000047 ], [ -0.764774668999962, 37.695383210000045 ], [ -0.768496994999964, 37.689525838000066 ], [ -0.776813803999971, 37.696350819000031 ], [ -0.774582944999963, 37.701788693000026 ], [ -0.769921769999939, 37.702889154000047 ] ] ], [ [ [ -0.841054499999927, 37.87235799900003 ], [ -0.840461344999937, 37.867012385000066 ], [ -0.82193308799998, 37.853514443000051 ], [ -0.824480508999955, 37.844848760000048 ], [ -0.810569417999943, 37.834818245000065 ], [ -0.810405203999949, 37.822040141000059 ], [ -0.802895320999937, 37.817819161000045 ], [ -0.797133207999934, 37.818957855000065 ], [ -0.789908499999967, 37.813945499000056 ], [ -0.796310191999964, 37.810116979000043 ], [ -0.802785834999952, 37.798788110000032 ], [ -0.801326139999958, 37.781858596000063 ], [ -0.817721499999948, 37.765151999000068 ], [ -0.829159970999967, 37.768158130000074 ], [ -0.834536885999967, 37.766264278000051 ], [ -0.841460427999948, 37.772249140000042 ], [ -0.846616525999934, 37.761562133000041 ], [ -0.852814795999961, 37.762289882000061 ], [ -0.86081872799997, 37.758889611000029 ], [ -0.866321, 37.765502999000034 ], [ -0.868382019999956, 37.769880056000034 ], [ -0.851457135999965, 37.792801146000045 ], [ -0.870876640999938, 37.807746761000033 ], [ -0.892213905999938, 37.816784144000053 ], [ -0.911772, 37.843017499000041 ], [ -0.896868523999956, 37.849205684000026 ], [ -0.88521123299995, 37.849795977000042 ], [ -0.865444108999952, 37.863656305000063 ], [ -0.854349040999978, 37.865525073000072 ], [ -0.851237, 37.881739999000047 ], [ -0.847458499999959, 37.877570999000056 ], [ -0.841054499999927, 37.87235799900003 ] ] ], [ [ [ -0.796369590999973, 37.697681130000035 ], [ -0.797531407999941, 37.696119550000049 ], [ -0.804349675999958, 37.702649399000052 ], [ -0.797759277999944, 37.703187943000046 ], [ -0.796369590999973, 37.697681130000035 ] ] ] ] } },
{ "type": "Feature", "properties": { "code": "30036", "name": "San Pedro del Pinatar" }, "geometry": { "type": "Polygon", "coordinates": [ [ [ -0.74812049999997, 37.790668499000049 ], [ -0.761912499999937, 37.794574499000078 ], [ -0.762638119999963, 37.80069962500005 ], [ -0.775957696999967, 37.81888930000008 ], [ -0.782638640999949, 37.819203075000075 ], [ -0.785667125999964, 37.814508261000071 ], [ -0.789908499999967, 37.813945499000056 ], [ -0.797133207999934, 37.818957855000065 ], [ -0.802895320999937, 37.817819161000045 ], [ -0.810405203999949, 37.822040141000059 ], [ -0.810569417999943, 37.834818245000065 ], [ -0.824480508999955, 37.844848760000048 ], [ -0.82193308799998, 37.853514443000051 ], [ -0.840461344999937, 37.867012385000066 ], [ -0.841054499999927, 37.87235799900003 ], [ -0.828675093999948, 37.864072859000032 ], [ -0.804185681999968, 37.859027554000079 ], [ -0.784147960999974, 37.845653715000026 ], [ -0.771176327999967, 37.844149617000028 ], [ -0.762135499999943, 37.847007999000027 ], [ -0.756817832999957, 37.813556505000065 ], [ -0.74812049999997, 37.790668499000049 ] ] ] } },
{ "type": "Feature", "properties": { "code": "30037", "name": "Torre-Pacheco" }, "geometry": { "type": "Polygon", "coordinates": [ [ [ -0.866321, 37.765502999000034 ], [ -0.874843063999947, 37.761466658000074 ], [ -0.893159054999956, 37.737178566000068 ], [ -0.913901, 37.720974499000079 ], [ -0.935681461999934, 37.724131724000074 ], [ -0.963642361999973, 37.721584600000028 ], [ -0.987581280999962, 37.724427614000035 ], [ -1.002802618999965, 37.720393122000075 ], [ -1.020196537999936, 37.726062950000028 ], [ -1.050763, 37.72356049900003 ], [ -1.06327, 37.760013499000024 ], [ -1.070801499999959, 37.774223499000072 ], [ -1.074051683999926, 37.786608869000077 ], [ -1.057866141999966, 37.800564106000024 ], [ -1.02912287099997, 37.816196292000029 ], [ -1.019174843999963, 37.836488903000031 ], [ -1.001865419999945, 37.848214890000065 ], [ -0.991228965999937, 37.83930375500006 ], [ -0.979948038999964, 37.823341736000032 ], [ -0.938202309999951, 37.83017368000003 ], [ -0.918720675999964, 37.837458946000027 ], [ -0.911772, 37.843017499000041 ], [ -0.892213905999938, 37.816784144000053 ], [ -0.870876640999938, 37.807746761000033 ], [ -0.851457135999965, 37.792801146000045 ], [ -0.868382019999956, 37.769880056000034 ], [ -0.866321, 37.765502999000034 ] ] ] } },
{ "type": "Feature", "properties": { "code": "30038", "name": "Torres de Cotillas, Las" }, "geometry": { "type": "Polygon", "coordinates": [ [ [ -1.303801499999963, 38.04615349900007 ], [ -1.289637265999943, 38.040535853000051 ], [ -1.279110351999975, 38.043040025000039 ], [ -1.265110491999963, 38.040859307000062 ], [ -1.257701428999951, 38.03680496700008 ], [ -1.251475032999963, 38.045251780000058 ], [ -1.241069404999962, 38.048543963000043 ], [ -1.229219672999932, 38.044375474000049 ], [ -1.22435749999994, 38.038192999000046 ], [ -1.217085933999954, 38.032806679000032 ], [ -1.217813201999945, 38.027301246000036 ], [ -1.212620296999944, 38.021737244000064 ], [ -1.218384545999925, 38.016534771000067 ], [ -1.218366414999934, 38.013706331000037 ], [ -1.215039499999932, 38.012668499000029 ], [ -1.226393433999931, 38.010538057000076 ], [ -1.24084591299993, 38.003001184000027 ], [ -1.244993790999956, 37.996408931000076 ], [ -1.293707081999969, 37.998864910000066 ], [ -1.316729782999971, 38.004826182000045 ], [ -1.326846013999955, 38.011662523000041 ], [ -1.321973449999973, 38.020315034000078 ], [ -1.312401499999964, 38.024493999000072 ], [ -1.301546453999947, 38.035853308000071 ], [ -1.303801499999963, 38.04615349900007 ] ] ] } },
{ "type": "Feature", "properties": { "code": "30039", "name": "Totana" }, "geometry": { "type": "Polygon", "coordinates": [ [ [ -1.66061, 37.797835999000029 ], [ -1.67094356399997, 37.822710733000065 ], [ -1.665221, 37.864097499000025 ], [ -1.653706, 37.860244999000031 ], [ -1.643595, 37.866779499000074 ], [ -1.640963499999941, 37.867721499000027 ], [ -1.620253, 37.883857499000044 ], [ -1.614086499999928, 37.886516499000038 ], [ -1.611596499999962, 37.888946499000042 ], [ -1.601172, 37.893535499000052 ], [ -1.588446499999975, 37.896457499000064 ], [ -1.575182499999926, 37.894199499000024 ], [ -1.564501, 37.886479999000073 ], [ -1.488920499999949, 37.815561999000067 ], [ -1.481748, 37.809623499000054 ], [ -1.468158499999959, 37.800994999000068 ], [ -1.465285, 37.796088999000062 ], [ -1.434739499999978, 37.773312499000042 ], [ -1.42796, 37.764645999000038 ], [ -1.409003, 37.75267799900007 ], [ -1.369476, 37.721475499000064 ], [ -1.396194, 37.70516199900004 ], [ -1.435197499999958, 37.692016499000033 ], [ -1.462118499999974, 37.679660999000077 ], [ -1.476949181999942, 37.68009401200004 ], [ -1.512945534999972, 37.668452216000048 ], [ -1.543402472999958, 37.70657103700006 ], [ -1.551629853999941, 37.726311657000053 ], [ -1.565582064999944, 37.738331706000054 ], [ -1.608067081999934, 37.749644534000026 ], [ -1.622889913999927, 37.743366949000063 ], [ -1.630031152999948, 37.745056372000079 ], [ -1.635925798999949, 37.739851135000038 ], [ -1.644747973999927, 37.737414350000051 ], [ -1.658907499999941, 37.753745999000046 ], [ -1.642954499999973, 37.759616999000059 ], [ -1.624362, 37.763694999000052 ], [ -1.612019499999974, 37.763221499000053 ], [ -1.586263499999973, 37.770774999000025 ], [ -1.574797, 37.770709999000076 ], [ -1.570704, 37.786304499000039 ], [ -1.564869, 37.786704999000051 ], [ -1.559095, 37.791183499000056 ], [ -1.560347499999978, 37.804969999000036 ], [ -1.587210499999969, 37.81702049900008 ], [ -1.631757499999935, 37.821918499000049 ], [ -1.652847, 37.821250999000029 ], [ -1.66061, 37.797835999000029 ] ] ] } },
{ "type": "Feature", "properties": { "code": "30040", "name": "Ulea" }, "geometry": { "type": "Polygon", "coordinates": [ [ [ -1.236738, 38.198272999000039 ], [ -1.237025948999928, 38.185815131000027 ], [ -1.241864745999976, 38.177386428000034 ], [ -1.24871643299997, 38.168283683000027 ], [ -1.269361330999971, 38.152297968000028 ], [ -1.273507499999937, 38.140289999000061 ], [ -1.294561834999968, 38.125207037000052 ], [ -1.305282691999935, 38.129727949000028 ], [ -1.309411499999953, 38.128143499000032 ], [ -1.321915674999957, 38.14120190400007 ], [ -1.333453, 38.134578499000042 ], [ -1.336998456999936, 38.140670895000028 ], [ -1.324347151999973, 38.148009887000057 ], [ -1.325314274999926, 38.158195545000069 ], [ -1.334545, 38.163879499000075 ], [ -1.328568913999959, 38.175574650000044 ], [ -1.255103721999944, 38.199497567000037 ], [ -1.236738, 38.198272999000039 ] ] ] } },
{ "type": "Feature", "properties": { "code": "30041", "name": "Unión, La" }, "geometry": { "type": "MultiPolygon", "coordinates": [ [ [ [ -0.840215, 37.577625499000078 ], [ -0.842314499999929, 37.577426999000068 ], [ -0.841987499999959, 37.578601999000057 ], [ -0.843471, 37.580180999000049 ], [ -0.842398, 37.581207499000072 ], [ -0.840215, 37.577625499000078 ] ] ], [ [ [ -0.841544499999941, 37.585281499000075 ], [ -0.851129181999966, 37.587153031000071 ], [ -0.853943562999973, 37.581073777000029 ], [ -0.865934633999927, 37.579654324000046 ], [ -0.870923, 37.576083999000048 ], [ -0.87265991299995, 37.594073450000053 ], [ -0.887446072999978, 37.599909225000033 ], [ -0.90222906799994, 37.62319123900005 ], [ -0.923208686999942, 37.61965688500004 ], [ -0.926451569999927, 37.62561127400005 ], [ -0.926835820999941, 37.635803407000026 ], [ -0.905914887999927, 37.645041794000065 ], [ -0.882514284999957, 37.638289816000054 ], [ -0.876767417999929, 37.629585603000066 ], [ -0.85570927699996, 37.616913757000077 ], [ -0.852584602999968, 37.609007973000075 ], [ -0.841489434999971, 37.602240829000039 ], [ -0.841544499999941, 37.585281499000075 ] ] ] ] } },
{ "type": "Feature", "properties": { "code": "30042", "name": "Villanueva del Río Segura" }, "geometry": { "type": "Polygon", "coordinates": [ [ [ -1.306376499999942, 38.086219999000036 ], [ -1.305805499999963, 38.082786499000065 ], [ -1.311140499999965, 38.081313999000031 ], [ -1.310600214999965, 38.071871324000028 ], [ -1.31916949999993, 38.060729999000046 ], [ -1.331047499999954, 38.06128699900006 ], [ -1.327247590999946, 38.074483340000029 ], [ -1.335407139999973, 38.086810606000029 ], [ -1.336326309999947, 38.109937822000063 ], [ -1.329683672999977, 38.125491910000051 ], [ -1.333453, 38.134578499000042 ], [ -1.321915674999957, 38.14120190400007 ], [ -1.309411499999953, 38.128143499000032 ], [ -1.310530728999936, 38.115665553000042 ], [ -1.321478523999929, 38.106185129000039 ], [ -1.32529928699995, 38.092331046000027 ], [ -1.306376499999942, 38.086219999000036 ] ] ] } },
{ "type": "Feature", "properties": { "code": "30043", "name": "Yecla" }, "geometry": { "type": "Polygon", "coordinates": [ [ [ -1.119623499999932, 38.73772449900008 ], [ -1.113767356999972, 38.710074278000036 ], [ -1.04484305699998, 38.662589387000025 ], [ -1.02687, 38.655509499000061 ], [ -1.023599674999957, 38.640652893000038 ], [ -1.015808635999974, 38.633460179000053 ], [ -1.011780852999948, 38.605687562000071 ], [ -1.002085156999954, 38.573691219000068 ], [ -1.016046869999968, 38.537263771000028 ], [ -1.025254922999977, 38.522954350000077 ], [ -1.013821499999949, 38.497062499000037 ], [ -1.034680885999933, 38.474791999000047 ], [ -1.058347972999968, 38.456465136000077 ], [ -1.08095429499997, 38.441843262000077 ], [ -1.094109499999945, 38.437930999000059 ], [ -1.114275, 38.441863999000077 ], [ -1.122789499999953, 38.44712049900005 ], [ -1.140123499999959, 38.452632999000059 ], [ -1.155352, 38.471534999000028 ], [ -1.18383149999994, 38.500556999000025 ], [ -1.214331499999957, 38.534625499000072 ], [ -1.229502, 38.549853999000049 ], [ -1.247562499999958, 38.577789499000062 ], [ -1.279915, 38.606544499000051 ], [ -1.29380649999996, 38.61504749900007 ], [ -1.300752, 38.622428999000078 ], [ -1.343076, 38.677408999000079 ], [ -1.330738363999956, 38.681823210000061 ], [ -1.312338595999961, 38.695053845000075 ], [ -1.283887749999963, 38.707314187000065 ], [ -1.263753579999957, 38.729121132000046 ], [ -1.250871614999937, 38.737715493000053 ], [ -1.183777499999962, 38.755084499000077 ], [ -1.17677, 38.752624499000035 ], [ -1.119623499999932, 38.73772449900008 ] ] ] } },
{ "type": "Feature", "properties": { "code": "30901", "name": "Santomera" }, "geometry": { "type": "Polygon", "coordinates": [ [ [ -1.010314, 38.059649499000045 ], [ -1.049007439999968, 38.041113403000054 ], [ -1.065646597999944, 38.061561623000046 ], [ -1.088476630999935, 38.06803375100003 ], [ -1.092408475999946, 38.081278560000044 ], [ -1.08950348999997, 38.087733402000026 ], [ -1.104396219999956, 38.105903826000031 ], [ -1.101412499999981, 38.113933499000041 ], [ -1.071635499999957, 38.119424499000047 ], [ -1.054689, 38.123676999000054 ], [ -1.03068849999994, 38.115723499000069 ], [ -1.031700499999943, 38.10631599900006 ], [ -1.030335499999978, 38.097078499000077 ], [ -1.026587499999948, 38.090175999000053 ], [ -1.022599499999956, 38.075690499000075 ], [ -1.01751349999995, 38.067728499000054 ], [ -1.010314, 38.059649499000045 ] ] ] } },
{ "type": "Feature", "properties": { "code": "30902", "name": "Alcázares, Los" }, "geometry": { "type": "Polygon", "coordinates": [ [ [ -0.913901, 37.720974499000079 ], [ -0.893159054999956, 37.737178566000068 ], [ -0.874843063999947, 37.761466658000074 ], [ -0.866321, 37.765502999000034 ], [ -0.86081872799997, 37.758889611000029 ], [ -0.852814795999961, 37.762289882000061 ], [ -0.846616525999934, 37.761562133000041 ], [ -0.841460427999948, 37.772249140000042 ], [ -0.834536885999967, 37.766264278000051 ], [ -0.829159970999967, 37.768158130000074 ], [ -0.817721499999948, 37.765151999000068 ], [ -0.828476737999949, 37.75546193200006 ], [ -0.839127235999968, 37.752988910000056 ], [ -0.845127808999962, 37.748244252000063 ], [ -0.852018857999951, 37.730603331000054 ], [ -0.859979499999952, 37.721446999000079 ], [ -0.913901, 37.720974499000079 ] ] ] } }
]
}
