{
"type": "FeatureCollection",
"crs": { "type": "name", "properties": { "name": "urn:ogc:def:crs:OGC:1.3:CRS84" } },
"features": [
{ "type": "Feature", "properties": { "code": "35001", "name": "Agaete" }, "geometry": { "type": "Polygon", "coordinates": [ [ [ -15.745963, 28.050878499000078 ], [ -15.738258300999973, 28.055227815000023 ], [ -15.734017541999947, 28.063235492000047 ], [ -15.721391212999947, 28.070478497000067 ], [ -15.709184925999978, 28.08682071100003 ], [ -15.70773662299996, 28.095227264000073 ], [ -15.712024462999977, 28.103565085000071 ], [ -15.706801760999952, 28.108911928000055 ], [ -15.704846499999974, 28.117685499000061 ], [ -15.690185698999926, 28.114532541000074 ], [ -15.680021746999955, 28.10516113500006 ], [ -15.671638308999945, 28.091933660000052 ], [ -15.66024041999998, 28.082610404000036 ], [ -15.65851035999998, 28.073783436000042 ], [ -15.653008427999964, 28.068456402000038 ], [ -15.652037736999944, 28.058353655000076 ], [ -15.663624570999957, 28.050129946000027 ], [ -15.669213, 28.049503499000025 ], [ -15.679367723999974, 28.055154426000058 ], [ -15.688867630999937, 28.048635651000041 ], [ -15.696488560999967, 28.051376726000058 ], [ -15.716397692999976, 28.033613307000053 ], [ -15.732754773999943, 28.029106954000042 ], [ -15.741989659999945, 28.031128343000034 ], [ -15.747594407999941, 28.045657194000057 ], [ -15.745963, 28.050878499000078 ] ] ] } },
{ "type": "Feature", "properties": { "code": "35002", "name": "Agüimes" }, "geometry": { "type": "Polygon", "coordinates": [ [ [ -15.386477499999955, 27.902265499000066 ], [ -15.39322094399995, 27.888959227000043 ], [ -15.390055376999953, 27.88088846100004 ], [ -15.381991045999939, 27.875069318000044 ], [ -15.386030117999951, 27.868647062000036 ], [ -15.386135104999937, 27.857691720000048 ], [ -15.397590937999951, 27.854911388000062 ], [ -15.403858945999957, 27.848450928000034 ], [ -15.409513499999946, 27.847474499000043 ], [ -15.411561302999928, 27.853623047000042 ], [ -15.424567169999932, 27.86077788700004 ], [ -15.455411033999951, 27.868281144000036 ], [ -15.49461476099998, 27.873548486000061 ], [ -15.510302381999963, 27.880114554000045 ], [ -15.513768244999937, 27.884638251000069 ], [ -15.519016246999968, 27.906976615000076 ], [ -15.518779781999967, 27.931658379000055 ], [ -15.543301499999927, 27.950049999000043 ], [ -15.544107127999951, 27.953042603000029 ], [ -15.522995342999934, 27.944365900000037 ], [ -15.511262084999942, 27.935228972000061 ], [ -15.50491068599996, 27.937149017000024 ], [ -15.469634952999968, 27.933520729000065 ], [ -15.445601536999959, 27.908869645000038 ], [ -15.432204544999934, 27.907137688000034 ], [ -15.41920264099997, 27.911401792000049 ], [ -15.412102119999929, 27.907547893000071 ], [ -15.386477499999955, 27.902265499000066 ] ] ] } },
{ "type": "Feature", "properties": { "code": "35003", "name": "Antigua" }, "geometry": { "type": "Polygon", "coordinates": [ [ [ -14.017075, 28.449952999000061 ], [ -14.006692752999982, 28.447246793000033 ], [ -13.978531834999956, 28.452783006000061 ], [ -13.969406902999935, 28.450026973000035 ], [ -13.946735563999937, 28.454225894000047 ], [ -13.899025836999954, 28.432682991000036 ], [ -13.850657499999954, 28.420457499000065 ], [ -13.84905114999998, 28.410561021000035 ], [ -13.853560060999939, 28.393494923000048 ], [ -13.859363770999948, 28.392645529000049 ], [ -13.866640753999945, 28.373031661000027 ], [ -13.876868932999969, 28.355605038000078 ], [ -13.879282659999944, 28.339369610000062 ], [ -13.886799726999982, 28.32600536800004 ], [ -13.894602181999971, 28.32356240200005 ], [ -13.894199321999963, 28.314874986000063 ], [ -13.902533357999971, 28.301800160000028 ], [ -13.898052611999958, 28.290344235000077 ], [ -13.898420810999937, 28.283405026000025 ], [ -13.902146478999953, 28.275859228000058 ], [ -13.910018260999948, 28.273014506000038 ], [ -13.915103779999981, 28.257754011000031 ], [ -13.922949, 28.247462999000049 ], [ -13.921807, 28.252670499000033 ], [ -13.980568, 28.334336999000072 ], [ -14.059646499999928, 28.377933999000049 ], [ -14.057356278999976, 28.389736411000058 ], [ -14.045340025999963, 28.406729560000031 ], [ -14.046333015999949, 28.439308304000065 ], [ -14.04105668099993, 28.443651493000061 ], [ -14.017075, 28.449952999000061 ] ] ] } },
{ "type": "Feature", "properties": { "code": "35004", "name": "Arrecife" }, "geometry": { "type": "Polygon", "coordinates": [ [ [ -13.584675, 29.003445999000064 ], [ -13.557161986999972, 29.006240138000067 ], [ -13.552676088999931, 29.00265199200004 ], [ -13.553783993999957, 28.994227126000055 ], [ -13.547810241999969, 28.983914880000043 ], [ -13.515876, 28.981170499000029 ], [ -13.524103894999939, 28.97402611800004 ], [ -13.527403977999938, 28.966656795000063 ], [ -13.527446011999928, 28.971718642000042 ], [ -13.53162427999996, 28.972094748000075 ], [ -13.539557233999972, 28.961283739000066 ], [ -13.548960166999962, 28.955146875000025 ], [ -13.56073994299993, 28.957158023000034 ], [ -13.584258, 28.951766999000029 ], [ -13.588948263999953, 29.001486621000026 ], [ -13.584675, 29.003445999000064 ] ] ] } },
{ "type": "Feature", "properties": { "code": "35005", "name": "Artenara" }, "geometry": { "type": "Polygon", "coordinates": [ [ [ -15.613826, 28.018655999000032 ], [ -15.622784237999952, 28.016595057000075 ], [ -15.638836965999928, 28.004139320000036 ], [ -15.648307646999967, 28.001832966000052 ], [ -15.669033054999943, 28.004227563000029 ], [ -15.679455718999975, 27.993858010000054 ], [ -15.692813242999932, 27.988756464000062 ], [ -15.700738721999926, 27.992480310000076 ], [ -15.708303282999964, 27.99241068300006 ], [ -15.719648308999979, 27.98743147600004 ], [ -15.726800682999965, 27.980760095000051 ], [ -15.749592, 27.988005999000052 ], [ -15.746811419999972, 28.004335239000056 ], [ -15.749886328999935, 28.015575686000034 ], [ -15.772488499999952, 28.03224349900006 ], [ -15.765613781999946, 28.045457954000028 ], [ -15.745963, 28.050878499000078 ], [ -15.747594407999941, 28.045657194000057 ], [ -15.741989659999945, 28.031128343000034 ], [ -15.732754773999943, 28.029106954000042 ], [ -15.716397692999976, 28.033613307000053 ], [ -15.696488560999967, 28.051376726000058 ], [ -15.688867630999937, 28.048635651000041 ], [ -15.679367723999974, 28.055154426000058 ], [ -15.639543272999958, 28.031660095000063 ], [ -15.623284854999952, 28.026568170000075 ], [ -15.615612, 28.019411499000057 ], [ -15.613826, 28.018655999000032 ] ] ] } },
{ "type": "Feature", "properties": { "code": "35006", "name": "Arucas" }, "geometry": { "type": "Polygon", "coordinates": [ [ [ -15.562899499999958, 28.134045999000023 ], [ -15.564043962999961, 28.13771745400004 ], [ -15.559669644999929, 28.141799407000065 ], [ -15.559577, 28.146707499000058 ], [ -15.544293625999956, 28.147218513000041 ], [ -15.527420313999926, 28.15461736900005 ], [ -15.517723971999942, 28.147982515000024 ], [ -15.508002792999946, 28.147478431000025 ], [ -15.490408058999947, 28.140774743000065 ], [ -15.484609499999976, 28.135186999000041 ], [ -15.495505273999981, 28.120418258000029 ], [ -15.499798597999927, 28.106197922000035 ], [ -15.503880281999955, 28.104185424000036 ], [ -15.504503, 28.100374499000054 ], [ -15.514921397999956, 28.094652562000078 ], [ -15.52276586499994, 28.084325663000072 ], [ -15.54941249999996, 28.084920999000076 ], [ -15.550864444999945, 28.090882715000077 ], [ -15.544603245999951, 28.104589809000061 ], [ -15.548075393999966, 28.11194679700003 ], [ -15.541837330999954, 28.126204598000072 ], [ -15.543956048999974, 28.139980104000074 ], [ -15.547197633999929, 28.14361830200005 ], [ -15.552863735999949, 28.143729552000025 ], [ -15.562190490999967, 28.138747326000043 ], [ -15.562899499999958, 28.134045999000023 ] ] ] } },
{ "type": "Feature", "properties": { "code": "35007", "name": "Betancuria" }, "geometry": { "type": "Polygon", "coordinates": [ [ [ -14.062657499999943, 28.375589999000056 ], [ -14.073425671999928, 28.379731550000031 ], [ -14.090499044999945, 28.376421985000036 ], [ -14.103501651999977, 28.387091270000042 ], [ -14.121816502999934, 28.388459721000061 ], [ -14.134954028999971, 28.403775108000048 ], [ -14.155061, 28.405456499000024 ], [ -14.157755174999977, 28.41156249200003 ], [ -14.150517643999933, 28.422167935000061 ], [ -14.150621385999955, 28.429568467000024 ], [ -14.145703651999952, 28.438707648000047 ], [ -14.100994928999967, 28.475787829000069 ], [ -14.08981, 28.494817999000077 ], [ -14.074668005999968, 28.491664965000041 ], [ -14.059936584999946, 28.494202241000039 ], [ -14.051704821999977, 28.489078343000074 ], [ -14.043422257999964, 28.488394663000065 ], [ -14.04096973299994, 28.481607453000038 ], [ -14.042768311999964, 28.471949040000027 ], [ -14.017075, 28.449952999000061 ], [ -14.04105668099993, 28.443651493000061 ], [ -14.046333015999949, 28.439308304000065 ], [ -14.045340025999963, 28.406729560000031 ], [ -14.057356278999976, 28.389736411000058 ], [ -14.059646499999928, 28.377933999000049 ], [ -14.062657499999943, 28.375589999000056 ] ] ] } },
{ "type": "Feature", "properties": { "code": "35008", "name": "Firgas" }, "geometry": { "type": "Polygon", "coordinates": [ [ [ -15.55621, 28.078245999000046 ], [ -15.577106, 28.077881999000056 ], [ -15.573182663999944, 28.10373161900003 ], [ -15.561367895999979, 28.128395214000079 ], [ -15.562899499999958, 28.134045999000023 ], [ -15.562190490999967, 28.138747326000043 ], [ -15.552863735999949, 28.143729552000025 ], [ -15.547197633999929, 28.14361830200005 ], [ -15.543956048999974, 28.139980104000074 ], [ -15.541837330999954, 28.126204598000072 ], [ -15.548075393999966, 28.11194679700003 ], [ -15.544603245999951, 28.104589809000061 ], [ -15.550864444999945, 28.090882715000077 ], [ -15.54941249999996, 28.084920999000076 ], [ -15.55621, 28.078245999000046 ] ] ] } },
{ "type": "Feature", "properties": { "code": "35009", "name": "Gáldar" }, "geometry": { "type": "Polygon", "coordinates": [ [ [ -15.61865, 28.03862699900003 ], [ -15.617277, 28.02089649900006 ], [ -15.623284854999952, 28.026568170000075 ], [ -15.639543272999958, 28.031660095000063 ], [ -15.669213, 28.049503499000025 ], [ -15.663624570999957, 28.050129946000027 ], [ -15.652037736999944, 28.058353655000076 ], [ -15.653008427999964, 28.068456402000038 ], [ -15.65851035999998, 28.073783436000042 ], [ -15.66024041999998, 28.082610404000036 ], [ -15.671638308999945, 28.091933660000052 ], [ -15.680021746999955, 28.10516113500006 ], [ -15.690185698999926, 28.114532541000074 ], [ -15.704846499999974, 28.117685499000061 ], [ -15.708115203999967, 28.121469749000028 ], [ -15.699933572999953, 28.133502113000077 ], [ -15.702884946999973, 28.143135408000035 ], [ -15.697165039999959, 28.151096131000031 ], [ -15.706693606999977, 28.158664593000026 ], [ -15.708207180999977, 28.165321285000061 ], [ -15.697449008999968, 28.163946949000035 ], [ -15.684077190999972, 28.170023675000039 ], [ -15.678211517999955, 28.162366227000064 ], [ -15.667376596999929, 28.158747049000056 ], [ -15.654971050999961, 28.164820593000059 ], [ -15.648327, 28.164649999000062 ], [ -15.64105387799998, 28.152112050000028 ], [ -15.640486497999973, 28.143040391000056 ], [ -15.635952645999964, 28.138830463000033 ], [ -15.642777907999971, 28.134297815000025 ], [ -15.637837143999946, 28.114894631000027 ], [ -15.632056471999931, 28.110492226000076 ], [ -15.636640953999972, 28.102401559000043 ], [ -15.636818775999927, 28.06656487500004 ], [ -15.630104581999944, 28.059735450000062 ], [ -15.628350878999981, 28.051030749000063 ], [ -15.61865, 28.03862699900003 ] ] ] } },
{ "type": "Feature", "properties": { "code": "35010", "name": "Haría" }, "geometry": { "type": "Polygon", "coordinates": [ [ [ -13.530454499999962, 29.135709499000029 ], [ -13.524104394999938, 29.144799857000066 ], [ -13.52184353399997, 29.168117898000048 ], [ -13.512941536999961, 29.180438140000035 ], [ -13.505161029999954, 29.202083691000041 ], [ -13.497540665999963, 29.208546592000062 ], [ -13.496162141999946, 29.218123984000044 ], [ -13.480842093999968, 29.226474762000066 ], [ -13.470102953999969, 29.237492755000062 ], [ -13.463936780999973, 29.226316356000041 ], [ -13.454618552999932, 29.22591133800006 ], [ -13.437459955999941, 29.21600352300004 ], [ -13.431877189999966, 29.209861063000062 ], [ -13.424619320999966, 29.208164601000078 ], [ -13.419626450999942, 29.200254311000037 ], [ -13.420476243999929, 29.184067484000025 ], [ -13.428477015999931, 29.155846654000072 ], [ -13.445269393999979, 29.147303855000075 ], [ -13.464338786999974, 29.127544565000051 ], [ -13.463110571999948, 29.115359366000064 ], [ -13.449473940999951, 29.099950715000034 ], [ -13.448111457999971, 29.089411043000041 ], [ -13.451899499999968, 29.081239499000048 ], [ -13.480975638999951, 29.092186747000028 ], [ -13.506696880999982, 29.11142456400006 ], [ -13.526952823999977, 29.119378496000024 ], [ -13.530454499999962, 29.135709499000029 ] ] ] } },
{ "type": "Feature", "properties": { "code": "35011", "name": "Ingenio" }, "geometry": { "type": "Polygon", "coordinates": [ [ [ -15.382511, 27.929456499000025 ], [ -15.386477499999955, 27.902265499000066 ], [ -15.412102119999929, 27.907547893000071 ], [ -15.41920264099997, 27.911401792000049 ], [ -15.432204544999934, 27.907137688000034 ], [ -15.445601536999959, 27.908869645000038 ], [ -15.469634952999968, 27.933520729000065 ], [ -15.50491068599996, 27.937149017000024 ], [ -15.511262084999942, 27.935228972000061 ], [ -15.522995342999934, 27.944365900000037 ], [ -15.544107127999951, 27.953042603000029 ], [ -15.540590870999949, 27.955902255000069 ], [ -15.531949, 27.955254999000033 ], [ -15.525289116999943, 27.95159011100003 ], [ -15.508409942999947, 27.951935237000043 ], [ -15.492647901999931, 27.948712428000078 ], [ -15.462538313999971, 27.951127245000066 ], [ -15.45402787699993, 27.947288698000079 ], [ -15.439325309999958, 27.946540861000074 ], [ -15.424054783999964, 27.937405128000023 ], [ -15.405584716999954, 27.940924619000043 ], [ -15.389334955999971, 27.937268881000023 ], [ -15.382504953999955, 27.932941072000062 ], [ -15.382511, 27.929456499000025 ] ] ] } },
{ "type": "Feature", "properties": { "code": "35012", "name": "Mogán" }, "geometry": { "type": "Polygon", "coordinates": [ [ [ -15.679747499999962, 27.755678499000055 ], [ -15.690914247999956, 27.771162910000044 ], [ -15.699325218999945, 27.771346902000062 ], [ -15.70302617699997, 27.776499204000061 ], [ -15.721677711999973, 27.786909084000058 ], [ -15.729336648999947, 27.796829742000057 ], [ -15.739391993999959, 27.799816300000032 ], [ -15.753876739999953, 27.814165801000058 ], [ -15.771798620999959, 27.820841354000038 ], [ -15.787915510999937, 27.835463719000074 ], [ -15.799146499999949, 27.858966999000074 ], [ -15.780375308999965, 27.869803692000062 ], [ -15.767402122999954, 27.889612198000066 ], [ -15.752798028999962, 27.903424953000069 ], [ -15.75291322299995, 27.918819519000067 ], [ -15.734614, 27.939129499000046 ], [ -15.722780169999965, 27.948250463000079 ], [ -15.711086976999979, 27.945714854000073 ], [ -15.689952725999945, 27.948516820000066 ], [ -15.682906724999953, 27.940517041000078 ], [ -15.68774721799997, 27.923907009000061 ], [ -15.683835958999964, 27.910587645000078 ], [ -15.67862785799997, 27.90956994000004 ], [ -15.672344259999932, 27.916908965000061 ], [ -15.663288499999965, 27.91208799900005 ], [ -15.669839373999935, 27.900624717000028 ], [ -15.670900672999949, 27.872709010000051 ], [ -15.662499712999931, 27.859308521000059 ], [ -15.659343014999934, 27.834589743000038 ], [ -15.66500466399998, 27.824048810000079 ], [ -15.664202776999957, 27.815296955000065 ], [ -15.671719186999951, 27.794424483000057 ], [ -15.667048737999949, 27.770896829000037 ], [ -15.672041813999954, 27.761004585000023 ], [ -15.679747499999962, 27.755678499000055 ] ] ] } },
{ "type": "Feature", "properties": { "code": "35013", "name": "Moya" }, "geometry": { "type": "Polygon", "coordinates": [ [ [ -15.61865, 28.03862699900003 ], [ -15.624010818999977, 28.052779021000049 ], [ -15.621522341999935, 28.067244079000034 ], [ -15.586085456999967, 28.106267684000045 ], [ -15.590334230999929, 28.118071152000027 ], [ -15.588684, 28.147064499000066 ], [ -15.577284861999942, 28.143890497000029 ], [ -15.559577, 28.146707499000058 ], [ -15.559669644999929, 28.141799407000065 ], [ -15.564043962999961, 28.13771745400004 ], [ -15.561367895999979, 28.128395214000079 ], [ -15.573182663999944, 28.10373161900003 ], [ -15.577106, 28.077881999000056 ], [ -15.588711820999947, 28.069086732000073 ], [ -15.599907766999934, 28.040217177000045 ], [ -15.613826, 28.018655999000032 ], [ -15.617277, 28.02089649900006 ], [ -15.61865, 28.03862699900003 ] ] ] } },
{ "type": "Feature", "properties": { "code": "35014", "name": "Oliva, La" }, "geometry": { "type": "MultiPolygon", "coordinates": [ [ [ [ -13.812256131999959, 28.765257346000055 ], [ -13.811026120999941, 28.754367344000059 ], [ -13.813465070999939, 28.742280720000053 ], [ -13.820929049999961, 28.735969738000051 ], [ -13.829256819999955, 28.739994949000049 ], [ -13.835133036999935, 28.750705437000079 ], [ -13.812256131999959, 28.765257346000055 ] ] ], [ [ [ -13.828708499999948, 28.564534999000045 ], [ -13.886065489999964, 28.57290951300007 ], [ -13.899784149999959, 28.569092652000052 ], [ -13.90712502699995, 28.570874769000056 ], [ -13.910993933999976, 28.575008586000024 ], [ -13.936612497999931, 28.570030118000034 ], [ -13.95319597799994, 28.573044838000044 ], [ -13.980810718999976, 28.567037144000039 ], [ -13.998722247999979, 28.56632858100005 ], [ -14.024745742999926, 28.569482433000076 ], [ -14.044528, 28.577562499000067 ], [ -14.033755216999964, 28.595442757000058 ], [ -14.038227479999932, 28.616283365000072 ], [ -14.032966080999927, 28.623761043000059 ], [ -14.030965100999936, 28.632913175000056 ], [ -14.026491392999958, 28.636048842000037 ], [ -14.025782936999974, 28.643547795000075 ], [ -14.019403494999949, 28.650922939000054 ], [ -14.009620648999942, 28.675013401000058 ], [ -14.013865328999941, 28.684513034000076 ], [ -14.013600139999937, 28.690891371000077 ], [ -14.017706686999929, 28.694590740000024 ], [ -14.016410750999967, 28.714524728000072 ], [ -14.013692573999947, 28.716087892000075 ], [ -14.011453341999982, 28.712304850000066 ], [ -14.007114524999963, 28.711560558000031 ], [ -13.997659848999945, 28.723381921000055 ], [ -13.987456952999935, 28.725133075000031 ], [ -13.978074839999977, 28.733105096000031 ], [ -13.971626422999975, 28.731737219000024 ], [ -13.955604508999954, 28.736505249000061 ], [ -13.942852674999926, 28.744813264000072 ], [ -13.937611698999945, 28.741915984000059 ], [ -13.926594433999981, 28.751118435000024 ], [ -13.909956241999964, 28.746930242000076 ], [ -13.888770098999942, 28.756559517000028 ], [ -13.877670466999973, 28.750834045000033 ], [ -13.872228244999974, 28.74464561800005 ], [ -13.86556853999997, 28.744773629000065 ], [ -13.865486205999957, 28.73373993000007 ], [ -13.852147335999973, 28.727288910000027 ], [ -13.843832850999945, 28.726410693000048 ], [ -13.837401218999958, 28.71374019600006 ], [ -13.837277775999951, 28.706846362000078 ], [ -13.831100506999974, 28.692775193000045 ], [ -13.833192592999978, 28.673354079000035 ], [ -13.830043874999944, 28.638067308000075 ], [ -13.824122411999952, 28.61144943000005 ], [ -13.826684207999961, 28.604615611000042 ], [ -13.823265489999926, 28.591645024000059 ], [ -13.829614607999929, 28.576338104000058 ], [ -13.828708499999948, 28.564534999000045 ] ] ] ] } },
{ "type": "Feature", "properties": { "code": "35015", "name": "Pájara" }, "geometry": { "type": "Polygon", "coordinates": [ [ [ -14.062657499999943, 28.375589999000056 ], [ -14.063946944999941, 28.360546774000056 ], [ -14.058831601999941, 28.352559729000063 ], [ -14.07677145599996, 28.333748317000072 ], [ -14.106888592999951, 28.318204001000026 ], [ -14.113395890999982, 28.309291279000036 ], [ -14.133860453999944, 28.293351151000024 ], [ -14.147585853999942, 28.291785062000031 ], [ -14.159197533999929, 28.286654808000037 ], [ -14.157979122999961, 28.280341229000044 ], [ -14.147569610999938, 28.276029789000063 ], [ -14.138971693999963, 28.261983412000063 ], [ -14.142149143999973, 28.252740840000058 ], [ -14.136709936999978, 28.223830604000057 ], [ -14.139431125999977, 28.211722011000063 ], [ -14.137159804999953, 28.20312515300003 ], [ -14.128529460999971, 28.194437200000039 ], [ -14.127512, 28.188796999000033 ], [ -14.142999452999959, 28.182622958000024 ], [ -14.152060773999949, 28.182260334000034 ], [ -14.158518446999949, 28.176812432000077 ], [ -14.16722404799998, 28.174621724000076 ], [ -14.19863804199997, 28.173476770000036 ], [ -14.208532070999979, 28.166396588000055 ], [ -14.221660851999957, 28.16338845100006 ], [ -14.274168161999967, 28.097716867000031 ], [ -14.302004804999967, 28.073096983000028 ], [ -14.322172150999961, 28.04957642200003 ], [ -14.332107328999939, 28.044345134000025 ], [ -14.367606985999942, 28.053540221000048 ], [ -14.379188587999977, 28.052269136000064 ], [ -14.409768508999946, 28.058657966000055 ], [ -14.452511991999927, 28.073281886000075 ], [ -14.476903746999938, 28.077461483000036 ], [ -14.49965861499993, 28.072655693000058 ], [ -14.506892369999946, 28.066538577000074 ], [ -14.509163765999972, 28.067465196000057 ], [ -14.501315749999947, 28.07976930600006 ], [ -14.493211380999981, 28.08452640400003 ], [ -14.493602416999977, 28.095830162000027 ], [ -14.498391289999972, 28.100989355000024 ], [ -14.491131447999976, 28.109730023000054 ], [ -14.48145717899996, 28.101170068000044 ], [ -14.47413709999995, 28.104038599000035 ], [ -14.461763831999974, 28.102040866000038 ], [ -14.456044280999947, 28.104813060000026 ], [ -14.450468579999949, 28.101230853000061 ], [ -14.441981556999963, 28.101260876000026 ], [ -14.371677797999951, 28.117469080000035 ], [ -14.310633794999944, 28.147142044000077 ], [ -14.298945660999948, 28.158129664000057 ], [ -14.251757673999975, 28.190103746000034 ], [ -14.225058025999942, 28.213171493000061 ], [ -14.215094350999948, 28.227994382000077 ], [ -14.213243743999953, 28.24711551300004 ], [ -14.209227966999947, 28.258017940000059 ], [ -14.212697914999978, 28.288143858000069 ], [ -14.207725769999968, 28.302246981000053 ], [ -14.208548436999934, 28.313413426000068 ], [ -14.20117129199997, 28.33127608500007 ], [ -14.17813591099997, 28.346466028000066 ], [ -14.171109865999938, 28.361710521000077 ], [ -14.164377470999966, 28.367474432000051 ], [ -14.162292028999957, 28.389655468000058 ], [ -14.156466088999935, 28.395280925000066 ], [ -14.155061, 28.405456499000024 ], [ -14.134954028999971, 28.403775108000048 ], [ -14.121816502999934, 28.388459721000061 ], [ -14.103501651999977, 28.387091270000042 ], [ -14.090499044999945, 28.376421985000036 ], [ -14.073425671999928, 28.379731550000031 ], [ -14.062657499999943, 28.375589999000056 ] ] ] } },
{ "type": "Feature", "properties": { "code": "35016", "name": "Palmas de Gran Canaria, Las" }, "geometry": { "type": "Polygon", "coordinates": [ [ [ -15.456529, 28.025131499000054 ], [ -15.451923658999931, 28.030020027000035 ], [ -15.452415482999982, 28.033432169000037 ], [ -15.467075926999939, 28.042032027000062 ], [ -15.477452447999951, 28.055516028000056 ], [ -15.507034, 28.048241499000028 ], [ -15.526116635999927, 28.052854239000055 ], [ -15.518090173999951, 28.067918487000043 ], [ -15.507521779999934, 28.079248141000051 ], [ -15.513378963999969, 28.085273607000033 ], [ -15.504503, 28.100374499000054 ], [ -15.503880281999955, 28.104185424000036 ], [ -15.499798597999927, 28.106197922000035 ], [ -15.495505273999981, 28.120418258000029 ], [ -15.484609499999976, 28.135186999000041 ], [ -15.477365754999937, 28.135498840000025 ], [ -15.467582490999973, 28.126239629000054 ], [ -15.44506454499998, 28.13188681500003 ], [ -15.432203412999968, 28.145804037000062 ], [ -15.43312866499997, 28.156141339000044 ], [ -15.440895065999939, 28.162514334000036 ], [ -15.439197759999956, 28.168512220000025 ], [ -15.421422725999946, 28.18016848700006 ], [ -15.405579409999973, 28.175372924000044 ], [ -15.404775233999942, 28.165300433000027 ], [ -15.41045840299995, 28.151889846000074 ], [ -15.41518842399995, 28.147836470000072 ], [ -15.423571486999947, 28.14616471100004 ], [ -15.428235811999969, 28.138962250000077 ], [ -15.425273948999973, 28.135972953000078 ], [ -15.428741228999968, 28.129560842000046 ], [ -15.415106846999947, 28.111264671000072 ], [ -15.411751045999949, 28.10050516900003 ], [ -15.41871789299995, 28.061831691000066 ], [ -15.413993001999927, 28.052770797000051 ], [ -15.414696953999965, 28.047394647000033 ], [ -15.395407, 28.032357999000055 ], [ -15.405812157999947, 28.028957177000052 ], [ -15.42283776499994, 28.038116683000055 ], [ -15.43969681699997, 28.032957872000054 ], [ -15.448326151999936, 28.025715750000074 ], [ -15.456529, 28.025131499000054 ] ] ] } },
{ "type": "Feature", "properties": { "code": "35017", "name": "Puerto del Rosario" }, "geometry": { "type": "Polygon", "coordinates": [ [ [ -13.850657499999954, 28.420457499000065 ], [ -13.899025836999954, 28.432682991000036 ], [ -13.946735563999937, 28.454225894000047 ], [ -13.969406902999935, 28.450026973000035 ], [ -13.978531834999956, 28.452783006000061 ], [ -14.006692752999982, 28.447246793000033 ], [ -14.017075, 28.449952999000061 ], [ -14.042768311999964, 28.471949040000027 ], [ -14.04096973299994, 28.481607453000038 ], [ -14.043422257999964, 28.488394663000065 ], [ -14.051704821999977, 28.489078343000074 ], [ -14.059936584999946, 28.494202241000039 ], [ -14.074668005999968, 28.491664965000041 ], [ -14.08981, 28.494817999000077 ], [ -14.06933655399996, 28.539970345000029 ], [ -14.064634014999967, 28.544014952000055 ], [ -14.06553205199998, 28.551719587000036 ], [ -14.05937309199993, 28.556073232000074 ], [ -14.056415013999981, 28.564767599000049 ], [ -14.044528, 28.577562499000067 ], [ -14.024745742999926, 28.569482433000076 ], [ -13.998722247999979, 28.56632858100005 ], [ -13.980810718999976, 28.567037144000039 ], [ -13.95319597799994, 28.573044838000044 ], [ -13.936612497999931, 28.570030118000034 ], [ -13.910993933999976, 28.575008586000024 ], [ -13.90712502699995, 28.570874769000056 ], [ -13.899784149999959, 28.569092652000052 ], [ -13.886065489999964, 28.57290951300007 ], [ -13.828708499999948, 28.564534999000045 ], [ -13.826272388999939, 28.55354206800007 ], [ -13.837270733999958, 28.540748876000066 ], [ -13.835291425999969, 28.526649106000036 ], [ -13.842706132999979, 28.512484276000066 ], [ -13.843777011999975, 28.504539559000079 ], [ -13.860983962999967, 28.495171673000073 ], [ -13.867126594999945, 28.481211589000054 ], [ -13.857164186999967, 28.459686824000073 ], [ -13.857411223999975, 28.445738285000061 ], [ -13.861864172999958, 28.43929152100003 ], [ -13.862031182999942, 28.433632302000035 ], [ -13.850657499999954, 28.420457499000065 ] ] ] } },
{ "type": "Feature", "properties": { "code": "35018", "name": "San Bartolomé" }, "geometry": { "type": "Polygon", "coordinates": [ [ [ -13.650531, 29.025165499000025 ], [ -13.642485, 29.027953499000034 ], [ -13.628314499999931, 29.021091499000079 ], [ -13.622018, 29.020339499000045 ], [ -13.609082, 29.021123999000054 ], [ -13.600022, 29.019213999000044 ], [ -13.596868499999971, 29.019288499000027 ], [ -13.587421499999948, 29.008258999000077 ], [ -13.584675, 29.003445999000064 ], [ -13.588948263999953, 29.001486621000026 ], [ -13.584258, 28.951766999000029 ], [ -13.597536504999937, 28.948334229000068 ], [ -13.605279, 28.942058499000041 ], [ -13.641513568999926, 28.98548609900007 ], [ -13.650208064999958, 29.004103741000051 ], [ -13.660009499999944, 29.006934499000067 ], [ -13.650531, 29.025165499000025 ] ] ] } },
{ "type": "Feature", "properties": { "code": "35019", "name": "San Bartolomé de Tirajana" }, "geometry": { "type": "Polygon", "coordinates": [ [ [ -15.663288499999965, 27.91208799900005 ], [ -15.645502782999927, 27.923416836000058 ], [ -15.631197589999942, 27.94005893800005 ], [ -15.629186193999942, 27.947793562000072 ], [ -15.613840316999926, 27.952648478000071 ], [ -15.604495149999934, 27.964553519000049 ], [ -15.601078412999982, 27.964748051000072 ], [ -15.598783486999935, 27.95866899300006 ], [ -15.587729512999942, 27.952502323000033 ], [ -15.571767499999964, 27.962115999000048 ], [ -15.562289838999959, 27.960849729000074 ], [ -15.554276, 27.954221999000026 ], [ -15.543301499999927, 27.950049999000043 ], [ -15.53981639899996, 27.940857635000043 ], [ -15.541312331999961, 27.932290012000067 ], [ -15.556974630999946, 27.923213760000067 ], [ -15.551445316999946, 27.911648680000042 ], [ -15.550937142999942, 27.895869552000079 ], [ -15.531463200999951, 27.877834075000067 ], [ -15.537193283999954, 27.872134360000075 ], [ -15.528319191999969, 27.852812700000072 ], [ -15.517084732999933, 27.851527586000032 ], [ -15.501462987999957, 27.843874844000027 ], [ -15.478772380999942, 27.849713326000028 ], [ -15.473881509999956, 27.848575699000037 ], [ -15.428134, 27.805198999000027 ], [ -15.441969532999963, 27.799912792000043 ], [ -15.490219517999947, 27.792293241000039 ], [ -15.507713132999982, 27.781220960000041 ], [ -15.51981765599993, 27.780616446000067 ], [ -15.534150638999961, 27.770814853000047 ], [ -15.551312080999935, 27.765957357000048 ], [ -15.564497874999972, 27.758415205000063 ], [ -15.569423686999926, 27.739271537000036 ], [ -15.578558974999964, 27.734725077000064 ], [ -15.600362318999942, 27.735436933000074 ], [ -15.618912863999981, 27.747992897000074 ], [ -15.629978292999965, 27.745650252000075 ], [ -15.656928453999967, 27.756316877000074 ], [ -15.66737461699995, 27.755263219000028 ], [ -15.673088915999926, 27.749836680000044 ], [ -15.679747499999962, 27.755678499000055 ], [ -15.672041813999954, 27.761004585000023 ], [ -15.667048737999949, 27.770896829000037 ], [ -15.671719186999951, 27.794424483000057 ], [ -15.664202776999957, 27.815296955000065 ], [ -15.66500466399998, 27.824048810000079 ], [ -15.659343014999934, 27.834589743000038 ], [ -15.662499712999931, 27.859308521000059 ], [ -15.670900672999949, 27.872709010000051 ], [ -15.669839373999935, 27.900624717000028 ], [ -15.663288499999965, 27.91208799900005 ] ] ] } },
{ "type": "Feature", "properties": { "code": "35020", "name": "Aldea de San Nicolás, La" }, "geometry": { "type": "Polygon", "coordinates": [ [ [ -15.772488499999952, 28.03224349900006 ], [ -15.749886328999935, 28.015575686000034 ], [ -15.746811419999972, 28.004335239000056 ], [ -15.749592, 27.988005999000052 ], [ -15.747856807999938, 27.963840107000067 ], [ -15.738876982999955, 27.954137070000058 ], [ -15.734614, 27.939129499000046 ], [ -15.75291322299995, 27.918819519000067 ], [ -15.752798028999962, 27.903424953000069 ], [ -15.767402122999954, 27.889612198000066 ], [ -15.780375308999965, 27.869803692000062 ], [ -15.799146499999949, 27.858966999000074 ], [ -15.817401261999976, 27.892156357000033 ], [ -15.832980779999957, 27.911092936000045 ], [ -15.833923863999928, 27.919219593000037 ], [ -15.82819350099993, 27.94570664400004 ], [ -15.834029285999975, 27.971808233000047 ], [ -15.82320998199998, 27.988949280000043 ], [ -15.818314756999939, 28.003985924000062 ], [ -15.82134376199997, 28.013762261000068 ], [ -15.814107555999954, 28.017166823000025 ], [ -15.797161617999961, 28.017588477000061 ], [ -15.78190895399996, 28.024397798000052 ], [ -15.772488499999952, 28.03224349900006 ] ] ] } },
{ "type": "Feature", "properties": { "code": "35021", "name": "Santa Brígida" }, "geometry": { "type": "Polygon", "coordinates": [ [ [ -15.456529, 28.025131499000054 ], [ -15.483233600999938, 28.022516645000053 ], [ -15.48993179799993, 28.016777233000028 ], [ -15.503015, 28.013473999000041 ], [ -15.509098596999934, 28.013287265000031 ], [ -15.513103499999943, 28.007794999000055 ], [ -15.531527251999933, 28.032207448000065 ], [ -15.539145, 28.038342499000066 ], [ -15.507034, 28.048241499000028 ], [ -15.477452447999951, 28.055516028000056 ], [ -15.467075926999939, 28.042032027000062 ], [ -15.452415482999982, 28.033432169000037 ], [ -15.451923658999931, 28.030020027000035 ], [ -15.456529, 28.025131499000054 ] ] ] } },
{ "type": "Feature", "properties": { "code": "35022", "name": "Santa Lucía de Tirajana" }, "geometry": { "type": "Polygon", "coordinates": [ [ [ -15.428134, 27.805198999000027 ], [ -15.473881509999956, 27.848575699000037 ], [ -15.478772380999942, 27.849713326000028 ], [ -15.501462987999957, 27.843874844000027 ], [ -15.517084732999933, 27.851527586000032 ], [ -15.528319191999969, 27.852812700000072 ], [ -15.537193283999954, 27.872134360000075 ], [ -15.531463200999951, 27.877834075000067 ], [ -15.550937142999942, 27.895869552000079 ], [ -15.551445316999946, 27.911648680000042 ], [ -15.556974630999946, 27.923213760000067 ], [ -15.541312331999961, 27.932290012000067 ], [ -15.53981639899996, 27.940857635000043 ], [ -15.543301499999927, 27.950049999000043 ], [ -15.518779781999967, 27.931658379000055 ], [ -15.519016246999968, 27.906976615000076 ], [ -15.513768244999937, 27.884638251000069 ], [ -15.510302381999963, 27.880114554000045 ], [ -15.49461476099998, 27.873548486000061 ], [ -15.455411033999951, 27.868281144000036 ], [ -15.424567169999932, 27.86077788700004 ], [ -15.411561302999928, 27.853623047000042 ], [ -15.409513499999946, 27.847474499000043 ], [ -15.414455073999932, 27.845015090000061 ], [ -15.421566457999972, 27.831347462000053 ], [ -15.421234262999974, 27.815289286000052 ], [ -15.428134, 27.805198999000027 ] ] ] } },
{ "type": "Feature", "properties": { "code": "35023", "name": "Santa María de Guía de Gran Canaria" }, "geometry": { "type": "Polygon", "coordinates": [ [ [ -15.588684, 28.147064499000066 ], [ -15.590334230999929, 28.118071152000027 ], [ -15.586085456999967, 28.106267684000045 ], [ -15.621522341999935, 28.067244079000034 ], [ -15.624010818999977, 28.052779021000049 ], [ -15.61865, 28.03862699900003 ], [ -15.628350878999981, 28.051030749000063 ], [ -15.630104581999944, 28.059735450000062 ], [ -15.636818775999927, 28.06656487500004 ], [ -15.636640953999972, 28.102401559000043 ], [ -15.632056471999931, 28.110492226000076 ], [ -15.637837143999946, 28.114894631000027 ], [ -15.642777907999971, 28.134297815000025 ], [ -15.635952645999964, 28.138830463000033 ], [ -15.640486497999973, 28.143040391000056 ], [ -15.64105387799998, 28.152112050000028 ], [ -15.648327, 28.164649999000062 ], [ -15.63650656599998, 28.17073005900005 ], [ -15.630371769999954, 28.167824885000073 ], [ -15.612915448999956, 28.147800066000059 ], [ -15.600268916999937, 28.144906956000057 ], [ -15.588684, 28.147064499000066 ] ] ] } },
{ "type": "Feature", "properties": { "code": "35024", "name": "Teguise" }, "geometry": { "type": "MultiPolygon", "coordinates": [ [ [ [ -13.530454499999962, 29.135709499000029 ], [ -13.526952823999977, 29.119378496000024 ], [ -13.506696880999982, 29.11142456400006 ], [ -13.480975638999951, 29.092186747000028 ], [ -13.451899499999968, 29.081239499000048 ], [ -13.465596114999926, 29.055024084000024 ], [ -13.464259655999967, 29.046144169000058 ], [ -13.469017588999975, 29.035130591000041 ], [ -13.464457095999933, 29.025259281000046 ], [ -13.465961103999973, 29.018585307000023 ], [ -13.475577818999966, 29.013875490000032 ], [ -13.477599077999969, 29.005081276000055 ], [ -13.487215142999958, 28.998400856000046 ], [ -13.487865816999943, 28.993105046000039 ], [ -13.495445833999952, 28.992372577000026 ], [ -13.515876, 28.981170499000029 ], [ -13.547810241999969, 28.983914880000043 ], [ -13.553783993999957, 28.994227126000055 ], [ -13.552676088999931, 29.00265199200004 ], [ -13.557161986999972, 29.006240138000067 ], [ -13.584675, 29.003445999000064 ], [ -13.587421499999948, 29.008258999000077 ], [ -13.596868499999971, 29.019288499000027 ], [ -13.600022, 29.019213999000044 ], [ -13.609082, 29.021123999000054 ], [ -13.622018, 29.020339499000045 ], [ -13.628314499999931, 29.021091499000079 ], [ -13.642485, 29.027953499000034 ], [ -13.650531, 29.025165499000025 ], [ -13.646569582999973, 29.031698716000051 ], [ -13.639240518999941, 29.063076998000042 ], [ -13.642277251999928, 29.08966207800006 ], [ -13.652160499999979, 29.122647999000037 ], [ -13.64317955599995, 29.123703110000065 ], [ -13.63934076299995, 29.117377017000024 ], [ -13.633291935999978, 29.116580075000059 ], [ -13.620393426999954, 29.127494711000054 ], [ -13.604171487999963, 29.135193580000077 ], [ -13.597152865999931, 29.135723850000034 ], [ -13.584396403999961, 29.133126440000069 ], [ -13.563138981999941, 29.11779716500007 ], [ -13.557001741999954, 29.116468836000024 ], [ -13.541244035999966, 29.123125858000037 ], [ -13.530454499999962, 29.135709499000029 ] ] ], [ [ [ -13.509226988999956, 29.291677755000023 ], [ -13.494688226999926, 29.280599747000053 ], [ -13.479468375999943, 29.277683508000052 ], [ -13.473203034999926, 29.270531839000057 ], [ -13.472951467999962, 29.264488261000054 ], [ -13.485079876999976, 29.257737185000053 ], [ -13.490226391999954, 29.243759610000041 ], [ -13.505687454999929, 29.225233504000073 ], [ -13.514038815999982, 29.225457741000071 ], [ -13.522415316999968, 29.219154253000056 ], [ -13.529610157999969, 29.219865346000063 ], [ -13.534681259999957, 29.216913474000023 ], [ -13.539077253999949, 29.220397713000068 ], [ -13.54507935099997, 29.220140681000032 ], [ -13.547561437999946, 29.229163799000048 ], [ -13.527527665999969, 29.242568622000078 ], [ -13.52660545599997, 29.250387723000074 ], [ -13.521877311999958, 29.257452584000077 ], [ -13.521981211999957, 29.269553013000063 ], [ -13.516737600999932, 29.276393663000079 ], [ -13.514800695999952, 29.28562375000007 ], [ -13.509226988999956, 29.291677755000023 ] ] ], [ [ [ -13.504895509999926, 29.416587226000047 ], [ -13.496583744999953, 29.412094056000058 ], [ -13.48985246999996, 29.405123366000055 ], [ -13.494260527999927, 29.395362710000029 ], [ -13.507104890999926, 29.385549339000079 ], [ -13.522544764999964, 29.383222160000059 ], [ -13.529535903999943, 29.385955417000048 ], [ -13.531880777999959, 29.397149930000069 ], [ -13.523627945999976, 29.410145448000037 ], [ -13.504895509999926, 29.416587226000047 ] ] ], [ [ [ -13.534935877999942, 29.304618296000058 ], [ -13.530270875999975, 29.305062928000041 ], [ -13.529644708999967, 29.299984090000066 ], [ -13.533068444999969, 29.29061396000003 ], [ -13.539049675999934, 29.289192606000029 ], [ -13.540088320999928, 29.302546707000033 ], [ -13.534935877999942, 29.304618296000058 ] ] ] ] } },
{ "type": "Feature", "properties": { "code": "35025", "name": "Tejeda" }, "geometry": { "type": "Polygon", "coordinates": [ [ [ -15.571767499999964, 27.962115999000048 ], [ -15.587729512999942, 27.952502323000033 ], [ -15.598783486999935, 27.95866899300006 ], [ -15.601078412999982, 27.964748051000072 ], [ -15.604495149999934, 27.964553519000049 ], [ -15.613840316999926, 27.952648478000071 ], [ -15.629186193999942, 27.947793562000072 ], [ -15.631197589999942, 27.94005893800005 ], [ -15.645502782999927, 27.923416836000058 ], [ -15.663288499999965, 27.91208799900005 ], [ -15.672344259999932, 27.916908965000061 ], [ -15.67862785799997, 27.90956994000004 ], [ -15.683835958999964, 27.910587645000078 ], [ -15.68774721799997, 27.923907009000061 ], [ -15.682906724999953, 27.940517041000078 ], [ -15.689952725999945, 27.948516820000066 ], [ -15.711086976999979, 27.945714854000073 ], [ -15.722780169999965, 27.948250463000079 ], [ -15.734614, 27.939129499000046 ], [ -15.738876982999955, 27.954137070000058 ], [ -15.747856807999938, 27.963840107000067 ], [ -15.749592, 27.988005999000052 ], [ -15.726800682999965, 27.980760095000051 ], [ -15.719648308999979, 27.98743147600004 ], [ -15.708303282999964, 27.99241068300006 ], [ -15.700738721999926, 27.992480310000076 ], [ -15.692813242999932, 27.988756464000062 ], [ -15.679455718999975, 27.993858010000054 ], [ -15.669033054999943, 28.004227563000029 ], [ -15.648307646999967, 28.001832966000052 ], [ -15.638836965999928, 28.004139320000036 ], [ -15.622784237999952, 28.016595057000075 ], [ -15.613826, 28.018655999000032 ], [ -15.605135908999955, 28.016832383000065 ], [ -15.600033, 28.011550999000065 ], [ -15.591843177999976, 27.985819203000062 ], [ -15.571767499999964, 27.962115999000048 ] ] ] } },
{ "type": "Feature", "properties": { "code": "35026", "name": "Telde" }, "geometry": { "type": "Polygon", "coordinates": [ [ [ -15.531949, 27.955254999000033 ], [ -15.525967747999971, 27.953933544000051 ], [ -15.496867756999961, 27.965374390000079 ], [ -15.482892414999981, 27.978271051000036 ], [ -15.464730284999973, 27.982767682000031 ], [ -15.459312200999932, 27.992264514000055 ], [ -15.463475185999982, 28.007247817000064 ], [ -15.48386229099998, 28.006952555000055 ], [ -15.492150428999935, 28.013169693000066 ], [ -15.503015, 28.013473999000041 ], [ -15.48993179799993, 28.016777233000028 ], [ -15.483233600999938, 28.022516645000053 ], [ -15.448326151999936, 28.025715750000074 ], [ -15.43969681699997, 28.032957872000054 ], [ -15.42283776499994, 28.038116683000055 ], [ -15.405812157999947, 28.028957177000052 ], [ -15.395407, 28.032357999000055 ], [ -15.388256813999931, 28.028263885000058 ], [ -15.384007923999945, 28.016726824000045 ], [ -15.374385110999981, 28.008709607000071 ], [ -15.374118326999962, 27.998457454000061 ], [ -15.368644489999951, 27.992545512000049 ], [ -15.377144739999949, 27.983752214000049 ], [ -15.376665106999951, 27.978056858000059 ], [ -15.382439692999981, 27.972969059000036 ], [ -15.383076260999928, 27.967497822000041 ], [ -15.379293096999959, 27.963630244000058 ], [ -15.380894582999929, 27.958550155000069 ], [ -15.378126727999927, 27.953866561000041 ], [ -15.379992279999954, 27.949433661000057 ], [ -15.369658016999949, 27.94377576200003 ], [ -15.358753091999972, 27.93262293600003 ], [ -15.362564770999938, 27.929988178000031 ], [ -15.373889967999958, 27.934941165000055 ], [ -15.382511, 27.929456499000025 ], [ -15.382504953999955, 27.932941072000062 ], [ -15.389334955999971, 27.937268881000023 ], [ -15.405584716999954, 27.940924619000043 ], [ -15.424054783999964, 27.937405128000023 ], [ -15.439325309999958, 27.946540861000074 ], [ -15.45402787699993, 27.947288698000079 ], [ -15.462538313999971, 27.951127245000066 ], [ -15.492647901999931, 27.948712428000078 ], [ -15.508409942999947, 27.951935237000043 ], [ -15.525289116999943, 27.95159011100003 ], [ -15.531949, 27.955254999000033 ] ] ] } },
{ "type": "Feature", "properties": { "code": "35027", "name": "Teror" }, "geometry": { "type": "Polygon", "coordinates": [ [ [ -15.54941249999996, 28.084920999000076 ], [ -15.52276586499994, 28.084325663000072 ], [ -15.514921397999956, 28.094652562000078 ], [ -15.504503, 28.100374499000054 ], [ -15.513378963999969, 28.085273607000033 ], [ -15.507521779999934, 28.079248141000051 ], [ -15.518090173999951, 28.067918487000043 ], [ -15.526116635999927, 28.052854239000055 ], [ -15.507034, 28.048241499000028 ], [ -15.539145, 28.038342499000066 ], [ -15.560656810999944, 28.025336670000058 ], [ -15.569174499999974, 28.026143499000057 ], [ -15.563786168999968, 28.040477747000068 ], [ -15.567913311999973, 28.04708062800006 ], [ -15.567790694999928, 28.054055597000058 ], [ -15.55621, 28.078245999000046 ], [ -15.54941249999996, 28.084920999000076 ] ] ] } },
{ "type": "Feature", "properties": { "code": "35028", "name": "Tías" }, "geometry": { "type": "Polygon", "coordinates": [ [ [ -13.605279, 28.942058499000041 ], [ -13.614754085999948, 28.932372771000075 ], [ -13.632776416999945, 28.926668040000038 ], [ -13.642872172999944, 28.919842440000025 ], [ -13.676773698999966, 28.921131630000048 ], [ -13.701047, 28.917730499000072 ], [ -13.70620168499994, 28.962167623000028 ], [ -13.695702, 28.985715499000037 ], [ -13.679130499999928, 28.994790999000031 ], [ -13.660009499999944, 29.006934499000067 ], [ -13.650208064999958, 29.004103741000051 ], [ -13.641513568999926, 28.98548609900007 ], [ -13.605279, 28.942058499000041 ] ] ] } },
{ "type": "Feature", "properties": { "code": "35029", "name": "Tinajo" }, "geometry": { "type": "Polygon", "coordinates": [ [ [ -13.807583, 29.037502499000027 ], [ -13.778620484999976, 29.062666016000037 ], [ -13.762958783999977, 29.067178557000034 ], [ -13.754451295999957, 29.078078332000075 ], [ -13.722883225999965, 29.084581263000075 ], [ -13.707568135999963, 29.080581237000047 ], [ -13.700860938999938, 29.089494467000065 ], [ -13.686388923999971, 29.093145036000067 ], [ -13.679895962999979, 29.102740064000045 ], [ -13.658157590999963, 29.112966881000034 ], [ -13.661978111999929, 29.117546044000051 ], [ -13.659819121999931, 29.12212214300007 ], [ -13.652160499999979, 29.122647999000037 ], [ -13.642277251999928, 29.08966207800006 ], [ -13.639240518999941, 29.063076998000042 ], [ -13.646569582999973, 29.031698716000051 ], [ -13.660009499999944, 29.006934499000067 ], [ -13.679130499999928, 28.994790999000031 ], [ -13.695702, 28.985715499000037 ], [ -13.74540049999996, 28.998742999000058 ], [ -13.807583, 29.037502499000027 ] ] ] } },
{ "type": "Feature", "properties": { "code": "35030", "name": "Tuineje" }, "geometry": { "type": "Polygon", "coordinates": [ [ [ -13.922949, 28.247462999000049 ], [ -13.935724230999938, 28.234700277000059 ], [ -13.948401903999979, 28.228422203000036 ], [ -13.986880037999981, 28.227930847000039 ], [ -13.993938530999969, 28.219778382000072 ], [ -14.01155769099995, 28.208331570000041 ], [ -14.020148462999941, 28.210765985000023 ], [ -14.042942842999935, 28.202536605000034 ], [ -14.073641909999935, 28.200803668000049 ], [ -14.110990782999977, 28.189076536000073 ], [ -14.119396020999943, 28.191329714000062 ], [ -14.127512, 28.188796999000033 ], [ -14.128529460999971, 28.194437200000039 ], [ -14.137159804999953, 28.20312515300003 ], [ -14.139431125999977, 28.211722011000063 ], [ -14.136709936999978, 28.223830604000057 ], [ -14.142149143999973, 28.252740840000058 ], [ -14.138971693999963, 28.261983412000063 ], [ -14.147569610999938, 28.276029789000063 ], [ -14.157979122999961, 28.280341229000044 ], [ -14.159197533999929, 28.286654808000037 ], [ -14.147585853999942, 28.291785062000031 ], [ -14.133860453999944, 28.293351151000024 ], [ -14.113395890999982, 28.309291279000036 ], [ -14.106888592999951, 28.318204001000026 ], [ -14.07677145599996, 28.333748317000072 ], [ -14.058831601999941, 28.352559729000063 ], [ -14.063946944999941, 28.360546774000056 ], [ -14.062657499999943, 28.375589999000056 ], [ -14.059646499999928, 28.377933999000049 ], [ -13.980568, 28.334336999000072 ], [ -13.921807, 28.252670499000033 ], [ -13.922949, 28.247462999000049 ] ] ] } },
{ "type": "Feature", "properties": { "code": "35031", "name": "Valsequillo de Gran Canaria" }, "geometry": { "type": "Polygon", "coordinates": [ [ [ -15.513103499999943, 28.007794999000055 ], [ -15.509098596999934, 28.013287265000031 ], [ -15.503015, 28.013473999000041 ], [ -15.492150428999935, 28.013169693000066 ], [ -15.48386229099998, 28.006952555000055 ], [ -15.463475185999982, 28.007247817000064 ], [ -15.459312200999932, 27.992264514000055 ], [ -15.464730284999973, 27.982767682000031 ], [ -15.482892414999981, 27.978271051000036 ], [ -15.496867756999961, 27.965374390000079 ], [ -15.525967747999971, 27.953933544000051 ], [ -15.531949, 27.955254999000033 ], [ -15.540590870999949, 27.955902255000069 ], [ -15.544107127999951, 27.953042603000029 ], [ -15.543301499999927, 27.950049999000043 ], [ -15.554276, 27.954221999000026 ], [ -15.549138268999968, 27.964919633000079 ], [ -15.54773954999996, 27.990161126000032 ], [ -15.536650210999937, 27.998038589000032 ], [ -15.517879925999978, 28.002522702000078 ], [ -15.513103499999943, 28.007794999000055 ] ] ] } },
{ "type": "Feature", "properties": { "code": "35032", "name": "Valleseco" }, "geometry": { "type": "Polygon", "coordinates": [ [ [ -15.55621, 28.078245999000046 ], [ -15.567790694999928, 28.054055597000058 ], [ -15.567913311999973, 28.04708062800006 ], [ -15.563786168999968, 28.040477747000068 ], [ -15.569174499999974, 28.026143499000057 ], [ -15.585147202999963, 28.015376695000043 ], [ -15.600033, 28.011550999000065 ], [ -15.605135908999955, 28.016832383000065 ], [ -15.613826, 28.018655999000032 ], [ -15.599907766999934, 28.040217177000045 ], [ -15.588711820999947, 28.069086732000073 ], [ -15.577106, 28.077881999000056 ], [ -15.55621, 28.078245999000046 ] ] ] } },
{ "type": "Feature", "properties": { "code": "35033", "name": "Vega de San Mateo" }, "geometry": { "type": "Polygon", "coordinates": [ [ [ -15.554276, 27.954221999000026 ], [ -15.562289838999959, 27.960849729000074 ], [ -15.571767499999964, 27.962115999000048 ], [ -15.591843177999976, 27.985819203000062 ], [ -15.600033, 28.011550999000065 ], [ -15.585147202999963, 28.015376695000043 ], [ -15.569174499999974, 28.026143499000057 ], [ -15.560656810999944, 28.025336670000058 ], [ -15.539145, 28.038342499000066 ], [ -15.531527251999933, 28.032207448000065 ], [ -15.513103499999943, 28.007794999000055 ], [ -15.517879925999978, 28.002522702000078 ], [ -15.536650210999937, 27.998038589000032 ], [ -15.54773954999996, 27.990161126000032 ], [ -15.549138268999968, 27.964919633000079 ], [ -15.554276, 27.954221999000026 ] ] ] } },
{ "type": "Feature", "properties": { "code": "35034", "name": "Yaiza" }, "geometry": { "type": "Polygon", "coordinates": [ [ [ -13.701047, 28.917730499000072 ], [ -13.73889812699997, 28.904369086000031 ], [ -13.750224539999977, 28.875265987000034 ], [ -13.759569936999981, 28.868747158000076 ], [ -13.77097071299994, 28.857041731000038 ], [ -13.775780491999967, 28.847879243000079 ], [ -13.786569611999937, 28.839856535000024 ], [ -13.791972872999963, 28.85164085100007 ], [ -13.801426566999965, 28.858631753000054 ], [ -13.81100122099997, 28.855943597000078 ], [ -13.826324773999943, 28.86267345400006 ], [ -13.839099847999933, 28.856930198000043 ], [ -13.852276544999938, 28.861861736000037 ], [ -13.862680027999943, 28.860489747000031 ], [ -13.871284800999945, 28.855802777000065 ], [ -13.875156195999978, 28.858086030000038 ], [ -13.875395629999957, 28.875929770000027 ], [ -13.881068682999967, 28.886859406000042 ], [ -13.872713697999927, 28.894087769000066 ], [ -13.859072180999931, 28.897002539000027 ], [ -13.848638428999948, 28.913814484000056 ], [ -13.830129357999965, 28.929038424000055 ], [ -13.833857026999965, 28.953487422000023 ], [ -13.831667161999974, 28.960210351000057 ], [ -13.833707312999934, 28.969846721000067 ], [ -13.829953114999967, 28.976984731000073 ], [ -13.833131299999934, 28.991612056000065 ], [ -13.828264622999939, 29.010213420000071 ], [ -13.815925227999969, 29.032192279000071 ], [ -13.807583, 29.037502499000027 ], [ -13.74540049999996, 28.998742999000058 ], [ -13.695702, 28.985715499000037 ], [ -13.70620168499994, 28.962167623000028 ], [ -13.701047, 28.917730499000072 ] ] ] } }
]
}
