{
"type": "FeatureCollection",
"crs": { "type": "name", "properties": { "name": "urn:ogc:def:crs:OGC:1.3:CRS84" } },
"features": [
{ "type": "Feature", "properties": { "code": "38049", "name": "Valle Gran Rey" }, "geometry": { "type": "Polygon", "coordinates": [ [ [ -17.342226, 28.154846999000029 ], [ -17.319851553999968, 28.144597976000057 ], [ -17.306078465999974, 28.150630430000035 ], [ -17.294382192999933, 28.149110618000066 ], [ -17.287269747999972, 28.144929168000033 ], [ -17.27359092699993, 28.129364443000043 ], [ -17.282809110999949, 28.125931725000044 ], [ -17.291855209999937, 28.117247085000031 ], [ -17.318138574999978, 28.100685627000075 ], [ -17.33082, 28.082155499000066 ], [ -17.33914481599993, 28.086278564000054 ], [ -17.348402778999969, 28.099943766000024 ], [ -17.347675117999927, 28.119013558000063 ], [ -17.342145380999966, 28.131164342000034 ], [ -17.346416943999941, 28.147302928000045 ], [ -17.342226, 28.154846999000029 ] ] ] } },
{ "type": "Feature", "properties": { "code": "38050", "name": "Vallehermoso" }, "geometry": { "type": "Polygon", "coordinates": [ [ [ -17.282809110999949, 28.064528945000063 ], [ -17.290571992999958, 28.057701079000026 ], [ -17.296682499999974, 28.047513999000046 ], [ -17.311185844999954, 28.052905387000067 ], [ -17.319301348999943, 28.059834653000053 ], [ -17.321384246999969, 28.075931295000032 ], [ -17.33082, 28.082155499000066 ], [ -17.318138574999978, 28.100685627000075 ], [ -17.291855209999937, 28.117247085000031 ], [ -17.282809110999949, 28.125931725000044 ], [ -17.27359092699993, 28.129364443000043 ], [ -17.287269747999972, 28.144929168000033 ], [ -17.294382192999933, 28.149110618000066 ], [ -17.306078465999974, 28.150630430000035 ], [ -17.319851553999968, 28.144597976000057 ], [ -17.342226, 28.154846999000029 ], [ -17.335573164999971, 28.163982277000059 ], [ -17.335701337999978, 28.175298652000038 ], [ -17.322346443999947, 28.192154163000055 ], [ -17.321409005999953, 28.199149465000062 ], [ -17.317049019999956, 28.204402774000073 ], [ -17.30728953199997, 28.203897960000063 ], [ -17.282809110999949, 28.21173561300003 ], [ -17.275879110999938, 28.217134421000026 ], [ -17.264732089999939, 28.217785942000035 ], [ -17.249194891999934, 28.20456512800007 ], [ -17.242478160999951, 28.202423433000035 ], [ -17.234815499999968, 28.204004499000064 ], [ -17.236378973999933, 28.198013317000061 ], [ -17.230343646999927, 28.19036271300007 ], [ -17.229781890999959, 28.18540394200005 ], [ -17.241190959999926, 28.171990508000079 ], [ -17.245129352999982, 28.158382936000066 ], [ -17.252311005999957, 28.153117623000071 ], [ -17.256129162999969, 28.130416948000061 ], [ -17.243503, 28.115154999000026 ], [ -17.244853499999977, 28.111042499000064 ], [ -17.248336127999949, 28.10872633300005 ], [ -17.248777134999955, 28.099465114000054 ], [ -17.256663559999936, 28.087525339000024 ], [ -17.282809110999949, 28.064528945000063 ] ] ] } },
{ "type": "Feature", "properties": { "code": "38051", "name": "Victoria de Acentejo, La" }, "geometry": { "type": "Polygon", "coordinates": [ [ [ -16.474799499999961, 28.44323349900003 ], [ -16.440285652999933, 28.428750272000059 ], [ -16.425922032999949, 28.425657859000069 ], [ -16.418285932999936, 28.417681999000024 ], [ -16.41933, 28.409380499000065 ], [ -16.425709162999965, 28.396856169000046 ], [ -16.442739, 28.390732999000079 ], [ -16.457600054999943, 28.407441636000044 ], [ -16.463013630999967, 28.420286997000062 ], [ -16.471070416999964, 28.426263467000069 ], [ -16.481066269999928, 28.428167445000042 ], [ -16.487697499999967, 28.437740499000029 ], [ -16.474799499999961, 28.44323349900003 ] ] ] } },
{ "type": "Feature", "properties": { "code": "38052", "name": "Vilaflor de Chasna" }, "geometry": { "type": "Polygon", "coordinates": [ [ [ -16.684641, 28.120642499000041 ], [ -16.687913426999955, 28.137244048000071 ], [ -16.668010440999979, 28.176103203000025 ], [ -16.660418499999935, 28.201298999000073 ], [ -16.637531630999945, 28.199989372000061 ], [ -16.623431534999952, 28.206309292000071 ], [ -16.618532499999958, 28.213731499000062 ], [ -16.619294185999934, 28.201778912000066 ], [ -16.614386645999957, 28.193467815000076 ], [ -16.611894971999959, 28.171133013000031 ], [ -16.615760658999932, 28.160134956000036 ], [ -16.613483057999929, 28.15177049600004 ], [ -16.621090739999943, 28.142256541000052 ], [ -16.62007049999994, 28.134189999000057 ], [ -16.622959231999971, 28.128361105000067 ], [ -16.640586309999946, 28.116015510000068 ], [ -16.641813, 28.104543999000043 ], [ -16.659872176999954, 28.112465943000075 ], [ -16.673375345999943, 28.112910317000058 ], [ -16.684641, 28.120642499000041 ] ] ] } },
{ "type": "Feature", "properties": { "code": "38053", "name": "Villa de Mazo" }, "geometry": { "type": "Polygon", "coordinates": [ [ [ -17.753311, 28.630847999000025 ], [ -17.750397332999967, 28.620929843000056 ], [ -17.75546471499996, 28.61194566100005 ], [ -17.754956732999972, 28.592546894000066 ], [ -17.760563907999938, 28.580612052000049 ], [ -17.760666201999982, 28.570154673000047 ], [ -17.787064071999964, 28.542440525000075 ], [ -17.796724499999982, 28.518139499000029 ], [ -17.807411546999958, 28.526635558000066 ], [ -17.839460422999935, 28.536900440000068 ], [ -17.839158402999942, 28.551646004000077 ], [ -17.834946395999964, 28.555561269000066 ], [ -17.836801499999979, 28.560830999000075 ], [ -17.838214041999947, 28.591850606000037 ], [ -17.840582, 28.596572999000045 ], [ -17.831562692999967, 28.599113684000031 ], [ -17.823125147999974, 28.608024713000077 ], [ -17.779759871999943, 28.631699939000043 ], [ -17.753311, 28.630847999000025 ] ] ] } },
{ "type": "Feature", "properties": { "code": "38901", "name": "Pinar de El Hierro, El" }, "geometry": { "type": "Polygon", "coordinates": [ [ [ -18.15835949999996, 27.712901499000054 ], [ -18.115830997999979, 27.716513168000063 ], [ -18.067019910999932, 27.725782983000045 ], [ -18.054050282999981, 27.725200556000061 ], [ -18.044338993999929, 27.729087776000028 ], [ -18.004067582999937, 27.725688851000029 ], [ -17.974940445999948, 27.73127514600003 ], [ -17.960365499999966, 27.692123499000047 ], [ -17.962600042999952, 27.69178241000003 ], [ -17.96451250299998, 27.689729948000036 ], [ -17.966812985999979, 27.685017650000077 ], [ -17.967557885999952, 27.678855103000046 ], [ -17.972307840999974, 27.672114076000071 ], [ -17.971135813999979, 27.648068103000071 ], [ -17.97424652199993, 27.64539454800007 ], [ -17.976742885999954, 27.641009475000033 ], [ -17.98817235599995, 27.638142294000033 ], [ -17.995587780999927, 27.640909348000037 ], [ -17.996931233999931, 27.644517731000064 ], [ -17.999025740999969, 27.646328377000032 ], [ -18.010288885999955, 27.64988579900006 ], [ -18.019661510999981, 27.660308801000042 ], [ -18.021672179999939, 27.667392706000044 ], [ -18.028568314999973, 27.672039597000037 ], [ -18.028189011999928, 27.676401967000061 ], [ -18.029302976999929, 27.678646967000077 ], [ -18.032061577999968, 27.679843204000065 ], [ -18.038138441999934, 27.685999429000049 ], [ -18.050313729999971, 27.692510321000043 ], [ -18.072196108999947, 27.696849314000076 ], [ -18.083827698999983, 27.696833704000028 ], [ -18.099499302999959, 27.700963515000069 ], [ -18.107463745999951, 27.700622519000035 ], [ -18.124074697999959, 27.704752991000078 ], [ -18.137269319999973, 27.703177907000054 ], [ -18.145378769999979, 27.703668795000056 ], [ -18.154998294999928, 27.709485967000035 ], [ -18.15835949999996, 27.712901499000054 ] ] ] } },
{ "type": "Feature", "properties": { "code": "38001", "name": "Adeje" }, "geometry": { "type": "Polygon", "coordinates": [ [ [ -16.684641, 28.120642499000041 ], [ -16.691882654999972, 28.095241419000047 ], [ -16.697958931999949, 28.08647129700006 ], [ -16.721403106999958, 28.067321385000071 ], [ -16.733352499999967, 28.066169499000068 ], [ -16.738645609999935, 28.087770980000073 ], [ -16.757888213999934, 28.101186916000074 ], [ -16.762524009999936, 28.109610849000035 ], [ -16.76858982899995, 28.110592369000074 ], [ -16.778657063999958, 28.120389330000023 ], [ -16.802011499999935, 28.156514999000024 ], [ -16.779614238999955, 28.163279507000027 ], [ -16.748186096999973, 28.167691073000071 ], [ -16.721104194999953, 28.179143340000053 ], [ -16.680699, 28.212784499000065 ], [ -16.660418499999935, 28.201298999000073 ], [ -16.668010440999979, 28.176103203000025 ], [ -16.687913426999955, 28.137244048000071 ], [ -16.684641, 28.120642499000041 ] ] ] } },
{ "type": "Feature", "properties": { "code": "38002", "name": "Agulo" }, "geometry": { "type": "Polygon", "coordinates": [ [ [ -17.243503, 28.115154999000026 ], [ -17.256129162999969, 28.130416948000061 ], [ -17.252311005999957, 28.153117623000071 ], [ -17.245129352999982, 28.158382936000066 ], [ -17.241190959999926, 28.171990508000079 ], [ -17.229781890999959, 28.18540394200005 ], [ -17.230343646999927, 28.19036271300007 ], [ -17.236378973999933, 28.198013317000061 ], [ -17.234815499999968, 28.204004499000064 ], [ -17.231582085999946, 28.201537922000057 ], [ -17.210665726999935, 28.201302146000046 ], [ -17.20631018399996, 28.197983699000076 ], [ -17.195571507999944, 28.198557180000023 ], [ -17.185625460999972, 28.187428029000046 ], [ -17.184331, 28.18144249900007 ], [ -17.191737817999979, 28.181450713000061 ], [ -17.21564494699993, 28.164827052000078 ], [ -17.235875145999955, 28.141047590000028 ], [ -17.243503, 28.115154999000026 ] ] ] } },
{ "type": "Feature", "properties": { "code": "38003", "name": "Alajeró" }, "geometry": { "type": "Polygon", "coordinates": [ [ [ -17.282809110999949, 28.037539909000031 ], [ -17.289594460999979, 28.038908238000033 ], [ -17.292504968999935, 28.045914485000026 ], [ -17.296682499999974, 28.047513999000046 ], [ -17.290571992999958, 28.057701079000026 ], [ -17.256663559999936, 28.087525339000024 ], [ -17.248777134999955, 28.099465114000054 ], [ -17.248336127999949, 28.10872633300005 ], [ -17.244853499999977, 28.111042499000064 ], [ -17.238278499999979, 28.106354999000075 ], [ -17.230699768999955, 28.087118632000056 ], [ -17.209091920999981, 28.050197438000055 ], [ -17.194000788999972, 28.030774170000029 ], [ -17.194839499999944, 28.028695999000035 ], [ -17.201097705999928, 28.024008579000053 ], [ -17.214144460999933, 28.026877164000041 ], [ -17.229471039999964, 28.02616474000007 ], [ -17.245831365999948, 28.020533902000068 ], [ -17.255114993999939, 28.026045335000049 ], [ -17.271248742999944, 28.026343821000069 ], [ -17.275058873999967, 28.035977002000038 ], [ -17.282809110999949, 28.037539909000031 ] ] ] } },
{ "type": "Feature", "properties": { "code": "38004", "name": "Arafo" }, "geometry": { "type": "Polygon", "coordinates": [ [ [ -16.366399499999943, 28.339669999000023 ], [ -16.362953499999946, 28.330201999000053 ], [ -16.375822, 28.327581999000074 ], [ -16.395368499999961, 28.329466999000033 ], [ -16.404522499999928, 28.333570499000075 ], [ -16.408235499999932, 28.334354499000028 ], [ -16.436258499999951, 28.332292499000062 ], [ -16.452701499999932, 28.336070999000071 ], [ -16.467088499999932, 28.334914999000034 ], [ -16.484178499999928, 28.335037499000066 ], [ -16.481001531999937, 28.34787244100005 ], [ -16.467446327999937, 28.355785654000044 ], [ -16.463476, 28.37207999900005 ], [ -16.45729039899993, 28.382228766000026 ], [ -16.445489, 28.390614499000037 ], [ -16.446303414999932, 28.38384336200005 ], [ -16.417635651999944, 28.362598041000069 ], [ -16.407597689999932, 28.351719956000068 ], [ -16.38456231999993, 28.340063475000079 ], [ -16.366399499999943, 28.339669999000023 ] ] ] } },
{ "type": "Feature", "properties": { "code": "38005", "name": "Arico" }, "geometry": { "type": "Polygon", "coordinates": [ [ [ -16.423439, 28.193652999000051 ], [ -16.427652574999968, 28.188132172000053 ], [ -16.42933559599993, 28.175559605000046 ], [ -16.425918176999971, 28.166874409000059 ], [ -16.431659863999982, 28.163432156000056 ], [ -16.433844907999969, 28.157611010000039 ], [ -16.42688437399994, 28.151719843000024 ], [ -16.426759962999938, 28.148529445000065 ], [ -16.433022299999948, 28.142504013000064 ], [ -16.440092799999945, 28.142009100000053 ], [ -16.44349920999997, 28.135549429000037 ], [ -16.448571569999956, 28.133998346000055 ], [ -16.450888257999964, 28.128204907000054 ], [ -16.462523876999967, 28.120208090000062 ], [ -16.463452294999968, 28.113059214000032 ], [ -16.471093607999933, 28.108911934000048 ], [ -16.48082, 28.096536499000024 ], [ -16.505462586999954, 28.126284893000047 ], [ -16.519585829999983, 28.131497384000056 ], [ -16.535484607999933, 28.155643711000039 ], [ -16.558933266999929, 28.173129538000069 ], [ -16.576458644999946, 28.199190003000069 ], [ -16.589092553999933, 28.204246441000066 ], [ -16.599883499999976, 28.218183999000075 ], [ -16.591260293999937, 28.221977881000043 ], [ -16.577976355999965, 28.235752757000057 ], [ -16.552927527999941, 28.250713451000024 ], [ -16.54511440899995, 28.268022023000071 ], [ -16.545451417999971, 28.281651155000077 ], [ -16.537654499999974, 28.287111499000048 ], [ -16.484427450999931, 28.246185478000029 ], [ -16.458460807999927, 28.219661553000037 ], [ -16.445571297999948, 28.214707253000029 ], [ -16.440191293999931, 28.20574274300003 ], [ -16.423439, 28.193652999000051 ] ] ] } },
{ "type": "Feature", "properties": { "code": "38006", "name": "Arona" }, "geometry": { "type": "Polygon", "coordinates": [ [ [ -16.638414499999953, 28.008960499000068 ], [ -16.644826185999932, 28.003956674000051 ], [ -16.66343311299994, 28.008427651000034 ], [ -16.681670853999947, 27.998269625000034 ], [ -16.702875635999931, 28.005479550000075 ], [ -16.707210482999926, 28.010657422000065 ], [ -16.70578207899996, 28.027678090000052 ], [ -16.712397420999935, 28.046271319000027 ], [ -16.736242345999926, 28.054569945000026 ], [ -16.733352499999967, 28.066169499000068 ], [ -16.721403106999958, 28.067321385000071 ], [ -16.697958931999949, 28.08647129700006 ], [ -16.691882654999972, 28.095241419000047 ], [ -16.684641, 28.120642499000041 ], [ -16.673375345999943, 28.112910317000058 ], [ -16.659872176999954, 28.112465943000075 ], [ -16.641813, 28.104543999000043 ], [ -16.641245651999952, 28.071316413000034 ], [ -16.637965232999932, 28.059411755000042 ], [ -16.638414499999953, 28.008960499000068 ] ] ] } },
{ "type": "Feature", "properties": { "code": "38007", "name": "Barlovento" }, "geometry": { "type": "Polygon", "coordinates": [ [ [ -17.770519, 28.818944999000053 ], [ -17.791429491999963, 28.804026758000077 ], [ -17.808263925999938, 28.80055988600003 ], [ -17.814430511999944, 28.793572372000028 ], [ -17.822620628999971, 28.790100105000079 ], [ -17.853441499999974, 28.754327999000054 ], [ -17.863649499999951, 28.760814499000048 ], [ -17.858173729999976, 28.768492537000043 ], [ -17.861118774999966, 28.772061923000024 ], [ -17.860910866999973, 28.787112175000061 ], [ -17.850708348999945, 28.810068088000037 ], [ -17.848127499999975, 28.83517099900007 ], [ -17.807418394999956, 28.842796358000044 ], [ -17.789370231999953, 28.843445399000075 ], [ -17.778166972999941, 28.838758595000058 ], [ -17.770519, 28.818944999000053 ] ] ] } },
{ "type": "Feature", "properties": { "code": "38008", "name": "Breña Alta" }, "geometry": { "type": "Polygon", "coordinates": [ [ [ -17.833681, 28.688102999000023 ], [ -17.823121413999957, 28.687272803000042 ], [ -17.796959992999973, 28.676288916000033 ], [ -17.774488266999981, 28.68692992900003 ], [ -17.770570653999982, 28.684889174000034 ], [ -17.773053390999962, 28.677954505000059 ], [ -17.770277, 28.67603899900007 ], [ -17.769735499999967, 28.671439999000029 ], [ -17.766281, 28.664520499000048 ], [ -17.781192415999953, 28.645538182000053 ], [ -17.795914591999974, 28.636596152000038 ], [ -17.806536595999944, 28.625103679000063 ], [ -17.834621499999969, 28.614738499000055 ], [ -17.825022417999946, 28.641164627000023 ], [ -17.827466684999933, 28.670206163000046 ], [ -17.833681, 28.688102999000023 ] ] ] } },
{ "type": "Feature", "properties": { "code": "38009", "name": "Breña Baja" }, "geometry": { "type": "Polygon", "coordinates": [ [ [ -17.840582, 28.596572999000045 ], [ -17.840234661999943, 28.604127688000062 ], [ -17.834621499999969, 28.614738499000055 ], [ -17.806536595999944, 28.625103679000063 ], [ -17.795914591999974, 28.636596152000038 ], [ -17.781192415999953, 28.645538182000053 ], [ -17.766281, 28.664520499000048 ], [ -17.756883149999965, 28.649252464000028 ], [ -17.753311, 28.630847999000025 ], [ -17.779759871999943, 28.631699939000043 ], [ -17.823125147999974, 28.608024713000077 ], [ -17.831562692999967, 28.599113684000031 ], [ -17.840582, 28.596572999000045 ] ] ] } },
{ "type": "Feature", "properties": { "code": "38010", "name": "Buenavista del Norte" }, "geometry": { "type": "Polygon", "coordinates": [ [ [ -16.852604, 28.273147499000061 ], [ -16.859491268999932, 28.275546444000042 ], [ -16.862522962999947, 28.287516852000067 ], [ -16.871900642999947, 28.29876951500006 ], [ -16.879663353999945, 28.302995926000051 ], [ -16.88190177499996, 28.313240610000037 ], [ -16.893947041999979, 28.322440678000078 ], [ -16.897982180999975, 28.331893353000055 ], [ -16.905793288999973, 28.337943041000074 ], [ -16.92078614899998, 28.343600914000035 ], [ -16.92365555899994, 28.352000278000048 ], [ -16.916194447999942, 28.361308104000045 ], [ -16.881061127999942, 28.36829233800006 ], [ -16.868679697999937, 28.375677837000069 ], [ -16.861170490999939, 28.376561823000031 ], [ -16.849265878999972, 28.387120762000052 ], [ -16.829803499999969, 28.392339999000058 ], [ -16.834465134999959, 28.368345608000027 ], [ -16.834097890999942, 28.337100836000047 ], [ -16.825883268999974, 28.318679563000046 ], [ -16.818799, 28.314470999000036 ], [ -16.825979982999968, 28.307263658000068 ], [ -16.822152893999942, 28.293642668000075 ], [ -16.845865996999976, 28.282895456000062 ], [ -16.852604, 28.273147499000061 ] ] ] } },
{ "type": "Feature", "properties": { "code": "38011", "name": "Candelaria" }, "geometry": { "type": "Polygon", "coordinates": [ [ [ -16.445489, 28.390614499000037 ], [ -16.442739, 28.390732999000079 ], [ -16.425709162999965, 28.396856169000046 ], [ -16.41933, 28.409380499000065 ], [ -16.417348673999982, 28.409581650000064 ], [ -16.408890499999927, 28.414171999000075 ], [ -16.406904499999939, 28.414532999000073 ], [ -16.396442954999941, 28.411781272000042 ], [ -16.380859618999978, 28.41379795000006 ], [ -16.369177197999932, 28.409463404000064 ], [ -16.357927213999972, 28.401259440000047 ], [ -16.337434499999972, 28.396285999000042 ], [ -16.359872544999973, 28.378663935000077 ], [ -16.369351708999943, 28.353482575000044 ], [ -16.366399499999943, 28.339669999000023 ], [ -16.38456231999993, 28.340063475000079 ], [ -16.407597689999932, 28.351719956000068 ], [ -16.417635651999944, 28.362598041000069 ], [ -16.446303414999932, 28.38384336200005 ], [ -16.445489, 28.390614499000037 ] ] ] } },
{ "type": "Feature", "properties": { "code": "38012", "name": "Fasnia" }, "geometry": { "type": "Polygon", "coordinates": [ [ [ -16.407495499999982, 28.233909499000049 ], [ -16.40993825299995, 28.224947572000076 ], [ -16.423985972999958, 28.205395658000043 ], [ -16.423439, 28.193652999000051 ], [ -16.440191293999931, 28.20574274300003 ], [ -16.445571297999948, 28.214707253000029 ], [ -16.458460807999927, 28.219661553000037 ], [ -16.484427450999931, 28.246185478000029 ], [ -16.537654499999974, 28.287111499000048 ], [ -16.521626262999973, 28.302300673000047 ], [ -16.51672440599998, 28.303386370000055 ], [ -16.512211, 28.300155499000027 ], [ -16.503053431999945, 28.284993585000052 ], [ -16.462992195999959, 28.268355057000065 ], [ -16.446587868999927, 28.252142108000044 ], [ -16.427183028999934, 28.245075731000043 ], [ -16.407495499999982, 28.233909499000049 ] ] ] } },
{ "type": "Feature", "properties": { "code": "38013", "name": "Frontera" }, "geometry": { "type": "Polygon", "coordinates": [ [ [ -17.993190499999969, 27.822177999000075 ], [ -17.988854440999944, 27.819887993000066 ], [ -17.984501554999952, 27.814712740000061 ], [ -17.979908654999974, 27.805390990000035 ], [ -17.979024740999932, 27.793613606000065 ], [ -17.987373636999962, 27.773794096000074 ], [ -17.98297243899998, 27.768544157000065 ], [ -17.979849076999926, 27.75775757200006 ], [ -17.993466658999978, 27.739875880000056 ], [ -18.013758429999939, 27.728778688000034 ], [ -18.024845, 27.727503499000079 ], [ -18.044338993999929, 27.729087776000028 ], [ -18.054050282999981, 27.725200556000061 ], [ -18.067019910999932, 27.725782983000045 ], [ -18.115830997999979, 27.716513168000063 ], [ -18.15835949999996, 27.712901499000054 ], [ -18.159987206999972, 27.724959553000076 ], [ -18.152603244999966, 27.732573925000054 ], [ -18.151734616999931, 27.74616102400006 ], [ -18.154524013999946, 27.752001807000056 ], [ -18.150602412999945, 27.760143279000033 ], [ -18.129743017999942, 27.771123200000034 ], [ -18.122302005999927, 27.768988001000025 ], [ -18.117917839999961, 27.76240202200006 ], [ -18.107572214999948, 27.757851737000067 ], [ -18.081090984999946, 27.753391673000067 ], [ -18.069176278999976, 27.753634483000042 ], [ -18.037333136999962, 27.762517626000033 ], [ -18.019925953999973, 27.775120222000055 ], [ -18.012649469999928, 27.784171053000023 ], [ -17.997313731999952, 27.791759830000046 ], [ -17.990103811999973, 27.798804849000078 ], [ -17.987116811999954, 27.809984784000051 ], [ -17.993190499999969, 27.822177999000075 ] ] ] } },
{ "type": "Feature", "properties": { "code": "38014", "name": "Fuencaliente de la Palma" }, "geometry": { "type": "Polygon", "coordinates": [ [ [ -17.889523, 28.551852999000062 ], [ -17.874748, 28.554881999000031 ], [ -17.852709, 28.554002999000033 ], [ -17.838964499999975, 28.555410499000061 ], [ -17.836801499999979, 28.560830999000075 ], [ -17.834946395999964, 28.555561269000066 ], [ -17.839158402999942, 28.551646004000077 ], [ -17.839460422999935, 28.536900440000068 ], [ -17.807411546999958, 28.526635558000066 ], [ -17.796724499999982, 28.518139499000029 ], [ -17.817784608999943, 28.494287868000072 ], [ -17.833254050999926, 28.457594067000059 ], [ -17.842123151999942, 28.45345887700006 ], [ -17.855831490999947, 28.459673429000077 ], [ -17.867539780999948, 28.472078264000061 ], [ -17.877005274999931, 28.502109698000027 ], [ -17.87523364599997, 28.513410639000028 ], [ -17.880366078999941, 28.538947192000023 ], [ -17.889523, 28.551852999000062 ] ] ] } },
{ "type": "Feature", "properties": { "code": "38015", "name": "Garachico" }, "geometry": { "type": "MultiPolygon", "coordinates": [ [ [ [ -16.738733499999967, 28.380410999000048 ], [ -16.73938217999995, 28.353885524000077 ], [ -16.74401464999994, 28.343911997000077 ], [ -16.733581269999945, 28.307729103000042 ], [ -16.72247710299996, 28.290137329000061 ], [ -16.700718499999937, 28.271437999000057 ], [ -16.724869, 28.280689499000061 ], [ -16.733925499999941, 28.285885999000072 ], [ -16.743676499999935, 28.287980999000069 ], [ -16.757354454999927, 28.302805282000065 ], [ -16.764339162999931, 28.317315581000059 ], [ -16.767716308999979, 28.33183748600004 ], [ -16.765069960999938, 28.352474392000033 ], [ -16.766686128999936, 28.367080494000049 ], [ -16.776773754999965, 28.368529534000061 ], [ -16.782515180999951, 28.361948175000066 ], [ -16.787996799999974, 28.360270410000055 ], [ -16.795739, 28.365680499000064 ], [ -16.796428142999957, 28.371332123000059 ], [ -16.793016499999965, 28.374843499000065 ], [ -16.762078875999975, 28.37539612300003 ], [ -16.751421578999953, 28.371633630000076 ], [ -16.738733499999967, 28.380410999000048 ] ] ], [ [ [ -16.759950400999969, 28.37698477400005 ], [ -16.764520138999956, 28.377508455000054 ], [ -16.765016851999974, 28.381528828000057 ], [ -16.760969761999945, 28.382288017000064 ], [ -16.759950400999969, 28.37698477400005 ] ] ] ] } },
{ "type": "Feature", "properties": { "code": "38016", "name": "Garafía" }, "geometry": { "type": "Polygon", "coordinates": [ [ [ -17.848127499999975, 28.83517099900007 ], [ -17.850708348999945, 28.810068088000037 ], [ -17.860910866999973, 28.787112175000061 ], [ -17.861118774999966, 28.772061923000024 ], [ -17.858173729999976, 28.768492537000043 ], [ -17.863649499999951, 28.760814499000048 ], [ -17.87691334799996, 28.761708480000038 ], [ -17.890268499999934, 28.750531999000032 ], [ -17.898168732999977, 28.754200124000079 ], [ -17.918440069999974, 28.752530516000036 ], [ -17.936415145999945, 28.765535183000054 ], [ -17.95188418999993, 28.767774716000076 ], [ -17.962183593999953, 28.773151484000039 ], [ -17.988542499999937, 28.796106499000075 ], [ -17.980306192999933, 28.803357852000033 ], [ -17.978494824999927, 28.811021620000076 ], [ -17.971865403999971, 28.815418517000069 ], [ -17.967236683999943, 28.826884354000072 ], [ -17.956452418999959, 28.830732801000067 ], [ -17.946522767999966, 28.842157196000073 ], [ -17.938056320999976, 28.841898764000064 ], [ -17.929870097999981, 28.845309576000034 ], [ -17.920432924999943, 28.856360127000073 ], [ -17.912792123999964, 28.857507598000041 ], [ -17.906683351999959, 28.854769347000058 ], [ -17.904066945999944, 28.848189940000054 ], [ -17.892734766999979, 28.841687542000045 ], [ -17.885871416999976, 28.842534267000076 ], [ -17.88185634499996, 28.839112963000048 ], [ -17.857186420999938, 28.833212702000026 ], [ -17.848127499999975, 28.83517099900007 ] ] ] } },
{ "type": "Feature", "properties": { "code": "38017", "name": "Granadilla de Abona" }, "geometry": { "type": "Polygon", "coordinates": [ [ [ -16.618532499999958, 28.213731499000062 ], [ -16.608354499999962, 28.217099999000027 ], [ -16.599883499999976, 28.218183999000075 ], [ -16.589092553999933, 28.204246441000066 ], [ -16.576458644999946, 28.199190003000069 ], [ -16.558933266999929, 28.173129538000069 ], [ -16.535484607999933, 28.155643711000039 ], [ -16.519585829999983, 28.131497384000056 ], [ -16.505462586999954, 28.126284893000047 ], [ -16.48082, 28.096536499000024 ], [ -16.489691863999951, 28.089940462000072 ], [ -16.493394071999944, 28.07926816500003 ], [ -16.503701619999958, 28.076070468000069 ], [ -16.507966898999939, 28.067472492000036 ], [ -16.520712731999936, 28.058682136000073 ], [ -16.524311234999971, 28.052062357000068 ], [ -16.54105489799997, 28.041630018000035 ], [ -16.540777710999976, 28.031020879000039 ], [ -16.54527700899996, 28.025993717000063 ], [ -16.54944919999997, 28.025679039000067 ], [ -16.558499723999944, 28.031161926000038 ], [ -16.59762749999993, 28.027753999000026 ], [ -16.60033305099995, 28.038017560000071 ], [ -16.60617057199994, 28.046381259000043 ], [ -16.60555551799996, 28.060830489000068 ], [ -16.602448212999946, 28.067524819000027 ], [ -16.601276258999974, 28.100873534000073 ], [ -16.610861057999955, 28.114037774000053 ], [ -16.613252389999957, 28.126696189000029 ], [ -16.62007049999994, 28.134189999000057 ], [ -16.621090739999943, 28.142256541000052 ], [ -16.613483057999929, 28.15177049600004 ], [ -16.615760658999932, 28.160134956000036 ], [ -16.611894971999959, 28.171133013000031 ], [ -16.614386645999957, 28.193467815000076 ], [ -16.619294185999934, 28.201778912000066 ], [ -16.618532499999958, 28.213731499000062 ] ] ] } },
{ "type": "Feature", "properties": { "code": "38018", "name": "Guancha, La" }, "geometry": { "type": "Polygon", "coordinates": [ [ [ -16.6525, 28.395688999000072 ], [ -16.654368323999961, 28.38847899700005 ], [ -16.64811014199995, 28.372274829000048 ], [ -16.636558070999968, 28.358515693000072 ], [ -16.629218413999979, 28.340305920000048 ], [ -16.608225, 28.306836999000041 ], [ -16.640730499999961, 28.299884999000028 ], [ -16.633792317999962, 28.306540303000077 ], [ -16.634275547999948, 28.316264349000051 ], [ -16.645592032999957, 28.337119742000027 ], [ -16.655608079999979, 28.345754280000051 ], [ -16.662934339999936, 28.364992333000032 ], [ -16.671953532999964, 28.373141947000079 ], [ -16.684181499999966, 28.391301999000063 ], [ -16.677841929999943, 28.39306724100004 ], [ -16.674409614999945, 28.400153753000041 ], [ -16.660289774999967, 28.400188821000029 ], [ -16.6525, 28.395688999000072 ] ] ] } },
{ "type": "Feature", "properties": { "code": "38019", "name": "Guía de Isora" }, "geometry": { "type": "Polygon", "coordinates": [ [ [ -16.802011499999935, 28.156514999000024 ], [ -16.808574964999934, 28.175582883000061 ], [ -16.819609478999951, 28.181984666000062 ], [ -16.828847657999972, 28.19998514200006 ], [ -16.836160769999935, 28.207439624000074 ], [ -16.840164, 28.226936499000033 ], [ -16.809034499999939, 28.256006499000023 ], [ -16.788200499999959, 28.265152499000067 ], [ -16.771499499999948, 28.27107249900007 ], [ -16.747974499999941, 28.273641499000064 ], [ -16.704395499999976, 28.268451499000037 ], [ -16.67733, 28.268871999000055 ], [ -16.687252, 28.254264499000044 ], [ -16.680699, 28.212784499000065 ], [ -16.721104194999953, 28.179143340000053 ], [ -16.748186096999973, 28.167691073000071 ], [ -16.779614238999955, 28.163279507000027 ], [ -16.802011499999935, 28.156514999000024 ] ] ] } },
{ "type": "Feature", "properties": { "code": "38020", "name": "Güímar" }, "geometry": { "type": "Polygon", "coordinates": [ [ [ -16.407495499999982, 28.233909499000049 ], [ -16.427183028999934, 28.245075731000043 ], [ -16.446587868999927, 28.252142108000044 ], [ -16.462992195999959, 28.268355057000065 ], [ -16.503053431999945, 28.284993585000052 ], [ -16.512211, 28.300155499000027 ], [ -16.49991435499993, 28.30949696700003 ], [ -16.484178499999928, 28.335037499000066 ], [ -16.467088499999932, 28.334914999000034 ], [ -16.452701499999932, 28.336070999000071 ], [ -16.436258499999951, 28.332292499000062 ], [ -16.408235499999932, 28.334354499000028 ], [ -16.404522499999928, 28.333570499000075 ], [ -16.395368499999961, 28.329466999000033 ], [ -16.375822, 28.327581999000074 ], [ -16.362953499999946, 28.330201999000053 ], [ -16.359997550999935, 28.318624263000061 ], [ -16.362545845999932, 28.304735323000045 ], [ -16.383135710999966, 28.284818439000048 ], [ -16.388158960999931, 28.263867986000037 ], [ -16.407495499999982, 28.233909499000049 ] ] ] } },
{ "type": "Feature", "properties": { "code": "38021", "name": "Hermigua" }, "geometry": { "type": "Polygon", "coordinates": [ [ [ -17.184331, 28.18144249900007 ], [ -17.176988469999969, 28.177924436000069 ], [ -17.16777996199994, 28.179477924000025 ], [ -17.16417187899998, 28.17260052000006 ], [ -17.156420036999975, 28.172366745000033 ], [ -17.154771379999943, 28.166380394000043 ], [ -17.138479, 28.159848999000076 ], [ -17.152116878999948, 28.148039481000069 ], [ -17.168636485999968, 28.147784630000046 ], [ -17.178965348999952, 28.143237377000048 ], [ -17.181851923999943, 28.137163929000053 ], [ -17.197356909999939, 28.126636761000043 ], [ -17.215487105999955, 28.121709833000068 ], [ -17.220804567999949, 28.108881708000069 ], [ -17.238278499999979, 28.106354999000075 ], [ -17.244853499999977, 28.111042499000064 ], [ -17.235875145999955, 28.141047590000028 ], [ -17.21564494699993, 28.164827052000078 ], [ -17.191737817999979, 28.181450713000061 ], [ -17.184331, 28.18144249900007 ] ] ] } },
{ "type": "Feature", "properties": { "code": "38022", "name": "Icod de los Vinos" }, "geometry": { "type": "Polygon", "coordinates": [ [ [ -16.640730499999961, 28.299884999000028 ], [ -16.669332, 28.292678999000032 ], [ -16.674643, 28.271088999000028 ], [ -16.67733, 28.268871999000055 ], [ -16.700718499999937, 28.271437999000057 ], [ -16.72247710299996, 28.290137329000061 ], [ -16.733581269999945, 28.307729103000042 ], [ -16.74401464999994, 28.343911997000077 ], [ -16.73938217999995, 28.353885524000077 ], [ -16.738733499999967, 28.380410999000048 ], [ -16.732903218999979, 28.381455422000045 ], [ -16.727663962999941, 28.377040847000046 ], [ -16.718769488999953, 28.38700745400007 ], [ -16.703926800999966, 28.383880635000025 ], [ -16.696145178999927, 28.387722997000026 ], [ -16.694475630999932, 28.393621770000038 ], [ -16.684181499999966, 28.391301999000063 ], [ -16.671953532999964, 28.373141947000079 ], [ -16.662934339999936, 28.364992333000032 ], [ -16.655608079999979, 28.345754280000051 ], [ -16.645592032999957, 28.337119742000027 ], [ -16.634275547999948, 28.316264349000051 ], [ -16.633792317999962, 28.306540303000077 ], [ -16.640730499999961, 28.299884999000028 ] ] ] } },
{ "type": "Feature", "properties": { "code": "38023", "name": "San Cristóbal de La Laguna" }, "geometry": { "type": "Polygon", "coordinates": [ [ [ -16.274479, 28.572269499000072 ], [ -16.267972203999932, 28.542772296000066 ], [ -16.270137614999953, 28.536604910000051 ], [ -16.278775012999972, 28.531973794000066 ], [ -16.285916235999935, 28.514181585000074 ], [ -16.283779467999977, 28.509714250000059 ], [ -16.272692567999968, 28.501952522000067 ], [ -16.270834749999949, 28.496784988000059 ], [ -16.28183127799997, 28.467144476000044 ], [ -16.289899067999954, 28.458995363000042 ], [ -16.294512542999939, 28.432946170000037 ], [ -16.299047912999981, 28.435816733000024 ], [ -16.301830307999978, 28.445737545000043 ], [ -16.326338343999964, 28.450893529000041 ], [ -16.330541, 28.454678999000066 ], [ -16.346762167999941, 28.463894742000036 ], [ -16.367963418999977, 28.468558567000059 ], [ -16.382557, 28.450615999000036 ], [ -16.37765496399993, 28.468807535000053 ], [ -16.372871766999936, 28.473593594000079 ], [ -16.374886741999944, 28.489911646000053 ], [ -16.398997527999938, 28.508909309000046 ], [ -16.410894499999927, 28.527410499000041 ], [ -16.384616731999927, 28.545988382000075 ], [ -16.365265711999939, 28.546315803000027 ], [ -16.344594383999947, 28.556142388000069 ], [ -16.335479533999944, 28.557236226000043 ], [ -16.332137617999933, 28.572163051000075 ], [ -16.325574768999957, 28.577518014000077 ], [ -16.320076813999947, 28.577697487000023 ], [ -16.314810932999933, 28.57169370400004 ], [ -16.306963292999967, 28.573283615000037 ], [ -16.298722778999945, 28.569741638000039 ], [ -16.289741767999942, 28.571416249000038 ], [ -16.284589856999958, 28.57576920200006 ], [ -16.274479, 28.572269499000072 ] ], [ [ -16.373483778999969, 28.50189103200006 ], [ -16.361071539999955, 28.491812568000057 ], [ -16.354388274999963, 28.491007728000056 ], [ -16.325164924999967, 28.51060755900005 ], [ -16.318835166999975, 28.508890132000033 ], [ -16.306879424999977, 28.51261248000003 ], [ -16.299623022999981, 28.519752113000038 ], [ -16.292831323999962, 28.533840694000048 ], [ -16.329935639999974, 28.545314144000031 ], [ -16.340430924999964, 28.545351094000068 ], [ -16.352851829999963, 28.52884160900004 ], [ -16.371589441999959, 28.51761379800007 ], [ -16.373483778999969, 28.50189103200006 ] ] ] } },
{ "type": "Feature", "properties": { "code": "38024", "name": "Llanos de Aridane, Los" }, "geometry": { "type": "Polygon", "coordinates": [ [ [ -17.937989, 28.662832499000046 ], [ -17.931337063999933, 28.671990163000032 ], [ -17.92449, 28.675380499000028 ], [ -17.92462026499993, 28.670743542000025 ], [ -17.910918989999971, 28.671429181000065 ], [ -17.893777134999937, 28.660435276000044 ], [ -17.903174093999951, 28.653708471000073 ], [ -17.885481969999944, 28.624349801000051 ], [ -17.874748, 28.554881999000031 ], [ -17.889523, 28.551852999000062 ], [ -17.900471593999953, 28.571515538000028 ], [ -17.906011773999978, 28.57472032000004 ], [ -17.911022268999943, 28.585985231000052 ], [ -17.918575499999974, 28.592235499000026 ], [ -17.905861582999933, 28.594166081000026 ], [ -17.913703384999963, 28.628054766000048 ], [ -17.923252723999951, 28.638189929000077 ], [ -17.925339950999955, 28.647452446000045 ], [ -17.939498501999935, 28.650563006000027 ], [ -17.935489114999939, 28.657592236000028 ], [ -17.937989, 28.662832499000046 ] ] ] } },
{ "type": "Feature", "properties": { "code": "38025", "name": "Matanza de Acentejo, La" }, "geometry": { "type": "Polygon", "coordinates": [ [ [ -16.41933, 28.409380499000065 ], [ -16.418285932999936, 28.417681999000024 ], [ -16.425922032999949, 28.425657859000069 ], [ -16.440285652999933, 28.428750272000059 ], [ -16.474799499999961, 28.44323349900003 ], [ -16.471226771999966, 28.448324304000039 ], [ -16.473082312999964, 28.454628006000064 ], [ -16.465545921999933, 28.459099809000065 ], [ -16.458052927999972, 28.459462379000058 ], [ -16.455549499999961, 28.466029999000057 ], [ -16.42981281699997, 28.448067368000068 ], [ -16.416996531999928, 28.432411634000061 ], [ -16.408890499999927, 28.414171999000075 ], [ -16.417348673999982, 28.409581650000064 ], [ -16.41933, 28.409380499000065 ] ] ] } },
{ "type": "Feature", "properties": { "code": "38026", "name": "Orotava, La" }, "geometry": { "type": "Polygon", "coordinates": [ [ [ -16.557436, 28.391591499000072 ], [ -16.55352398399998, 28.397242679000044 ], [ -16.539021558999934, 28.397252907000052 ], [ -16.531644744999937, 28.405400971000063 ], [ -16.52145969999998, 28.407928478000031 ], [ -16.523208499999953, 28.417600499000059 ], [ -16.503174, 28.42514249900006 ], [ -16.507965234999972, 28.415794676000075 ], [ -16.507378083999981, 28.409349358000043 ], [ -16.477309221999974, 28.388049981000052 ], [ -16.463476, 28.37207999900005 ], [ -16.467446327999937, 28.355785654000044 ], [ -16.481001531999937, 28.34787244100005 ], [ -16.484178499999928, 28.335037499000066 ], [ -16.49991435499993, 28.30949696700003 ], [ -16.512211, 28.300155499000027 ], [ -16.51672440599998, 28.303386370000055 ], [ -16.521626262999973, 28.302300673000047 ], [ -16.537654499999974, 28.287111499000048 ], [ -16.545451417999971, 28.281651155000077 ], [ -16.54511440899995, 28.268022023000071 ], [ -16.552927527999941, 28.250713451000024 ], [ -16.577976355999965, 28.235752757000057 ], [ -16.591260293999937, 28.221977881000043 ], [ -16.599883499999976, 28.218183999000075 ], [ -16.608354499999962, 28.217099999000027 ], [ -16.618532499999958, 28.213731499000062 ], [ -16.623431534999952, 28.206309292000071 ], [ -16.637531630999945, 28.199989372000061 ], [ -16.660418499999935, 28.201298999000073 ], [ -16.680699, 28.212784499000065 ], [ -16.687252, 28.254264499000044 ], [ -16.67733, 28.268871999000055 ], [ -16.674643, 28.271088999000028 ], [ -16.669332, 28.292678999000032 ], [ -16.640730499999961, 28.299884999000028 ], [ -16.608225, 28.306836999000041 ], [ -16.592265, 28.314660999000068 ], [ -16.587527308999938, 28.293443384000057 ], [ -16.566269838999972, 28.298170854000034 ], [ -16.558736891999956, 28.309251410000059 ], [ -16.555452178999928, 28.344155235000073 ], [ -16.56198404099996, 28.380448022000053 ], [ -16.557436, 28.391591499000072 ] ] ] } },
{ "type": "Feature", "properties": { "code": "38027", "name": "Paso, El" }, "geometry": { "type": "Polygon", "coordinates": [ [ [ -17.838344499999948, 28.743759499000078 ], [ -17.835584, 28.734675999000046 ], [ -17.838154290999967, 28.718304002000025 ], [ -17.845468619999963, 28.705331922000028 ], [ -17.833681, 28.688102999000023 ], [ -17.827466684999933, 28.670206163000046 ], [ -17.825022417999946, 28.641164627000023 ], [ -17.834621499999969, 28.614738499000055 ], [ -17.840234661999943, 28.604127688000062 ], [ -17.840582, 28.596572999000045 ], [ -17.838214041999947, 28.591850606000037 ], [ -17.836801499999979, 28.560830999000075 ], [ -17.838964499999975, 28.555410499000061 ], [ -17.852709, 28.554002999000033 ], [ -17.874748, 28.554881999000031 ], [ -17.885481969999944, 28.624349801000051 ], [ -17.903174093999951, 28.653708471000073 ], [ -17.893777134999937, 28.660435276000044 ], [ -17.910918989999971, 28.671429181000065 ], [ -17.92462026499993, 28.670743542000025 ], [ -17.92449, 28.675380499000028 ], [ -17.921126433999973, 28.682642952000037 ], [ -17.922997639999949, 28.694678102000069 ], [ -17.90988409299996, 28.713298818000055 ], [ -17.899474979999979, 28.737415530000078 ], [ -17.900285499999939, 28.740774499000054 ], [ -17.890268499999934, 28.750531999000032 ], [ -17.87691334799996, 28.761708480000038 ], [ -17.863649499999951, 28.760814499000048 ], [ -17.838344499999948, 28.743759499000078 ] ] ] } },
{ "type": "Feature", "properties": { "code": "38028", "name": "Puerto de la Cruz" }, "geometry": { "type": "Polygon", "coordinates": [ [ [ -16.557436, 28.391591499000072 ], [ -16.565467146999936, 28.396162149000077 ], [ -16.570713, 28.408298499000068 ], [ -16.553830480999977, 28.41841260700005 ], [ -16.523208499999953, 28.417600499000059 ], [ -16.52145969999998, 28.407928478000031 ], [ -16.531644744999937, 28.405400971000063 ], [ -16.539021558999934, 28.397252907000052 ], [ -16.55352398399998, 28.397242679000044 ], [ -16.557436, 28.391591499000072 ] ] ] } },
{ "type": "Feature", "properties": { "code": "38029", "name": "Puntagorda" }, "geometry": { "type": "Polygon", "coordinates": [ [ [ -17.890268499999934, 28.750531999000032 ], [ -17.900285499999939, 28.740774499000054 ], [ -17.95010667899993, 28.746945711000023 ], [ -17.956294785999944, 28.750139839000042 ], [ -17.987248404999946, 28.744579765000026 ], [ -17.992857, 28.740197999000031 ], [ -18.006257418999951, 28.755883479000033 ], [ -18.006909976999964, 28.77571391400005 ], [ -18.003720641999962, 28.785660863000032 ], [ -17.997835061999979, 28.789399900000035 ], [ -17.99502044999997, 28.795176200000071 ], [ -17.988542499999937, 28.796106499000075 ], [ -17.962183593999953, 28.773151484000039 ], [ -17.95188418999993, 28.767774716000076 ], [ -17.936415145999945, 28.765535183000054 ], [ -17.918440069999974, 28.752530516000036 ], [ -17.898168732999977, 28.754200124000079 ], [ -17.890268499999934, 28.750531999000032 ] ] ] } },
{ "type": "Feature", "properties": { "code": "38030", "name": "Puntallana" }, "geometry": { "type": "Polygon", "coordinates": [ [ [ -17.752268, 28.705136999000047 ], [ -17.765230216999953, 28.723248348000027 ], [ -17.783975794999947, 28.731978303000062 ], [ -17.815148772999976, 28.738852673000054 ], [ -17.822583279999947, 28.735316817000069 ], [ -17.835584, 28.734675999000046 ], [ -17.838344499999948, 28.743759499000078 ], [ -17.830669390999958, 28.746742834000031 ], [ -17.812027427999965, 28.746013384000037 ], [ -17.795271937999928, 28.752260546000059 ], [ -17.787098433999972, 28.752167821000057 ], [ -17.777678008999942, 28.762940417000038 ], [ -17.761489720999975, 28.77096810200004 ], [ -17.753526499999964, 28.782750999000029 ], [ -17.749170106999941, 28.771042216000069 ], [ -17.735113976999969, 28.756989264000026 ], [ -17.725453666999954, 28.740387019000025 ], [ -17.734725837999974, 28.719356857000037 ], [ -17.752268, 28.705136999000047 ] ] ] } },
{ "type": "Feature", "properties": { "code": "38031", "name": "Realejos, Los" }, "geometry": { "type": "Polygon", "coordinates": [ [ [ -16.557436, 28.391591499000072 ], [ -16.56198404099996, 28.380448022000053 ], [ -16.555452178999928, 28.344155235000073 ], [ -16.558736891999956, 28.309251410000059 ], [ -16.566269838999972, 28.298170854000034 ], [ -16.587527308999938, 28.293443384000057 ], [ -16.592265, 28.314660999000068 ], [ -16.619090510999968, 28.357750764000059 ], [ -16.62565645199993, 28.381562731000031 ], [ -16.624347499999942, 28.39609899900006 ], [ -16.603273532999935, 28.394699995000053 ], [ -16.597640345999935, 28.399716477000027 ], [ -16.58822872199994, 28.39870088300006 ], [ -16.570713, 28.408298499000068 ], [ -16.565467146999936, 28.396162149000077 ], [ -16.557436, 28.391591499000072 ] ] ] } },
{ "type": "Feature", "properties": { "code": "38032", "name": "Rosario, El" }, "geometry": { "type": "Polygon", "coordinates": [ [ [ -16.396402499999965, 28.430321999000057 ], [ -16.382557, 28.450615999000036 ], [ -16.367963418999977, 28.468558567000059 ], [ -16.346762167999941, 28.463894742000036 ], [ -16.330541, 28.454678999000066 ], [ -16.331472122999969, 28.446795638000026 ], [ -16.344003240999939, 28.428161075000048 ], [ -16.335419368999965, 28.419501981000053 ], [ -16.327370188999964, 28.416998746000047 ], [ -16.319020019999982, 28.419740509000064 ], [ -16.307642, 28.409877499000061 ], [ -16.320834305999938, 28.401795006000043 ], [ -16.331794313999978, 28.401251340000044 ], [ -16.337434499999972, 28.396285999000042 ], [ -16.357927213999972, 28.401259440000047 ], [ -16.369177197999932, 28.409463404000064 ], [ -16.380859618999978, 28.41379795000006 ], [ -16.396442954999941, 28.411781272000042 ], [ -16.406904499999939, 28.414532999000073 ], [ -16.404630183999927, 28.422959977000062 ], [ -16.396402499999965, 28.430321999000057 ] ] ] } },
{ "type": "Feature", "properties": { "code": "38033", "name": "San Andrés y Sauces" }, "geometry": { "type": "Polygon", "coordinates": [ [ [ -17.753526499999964, 28.782750999000029 ], [ -17.761489720999975, 28.77096810200004 ], [ -17.777678008999942, 28.762940417000038 ], [ -17.787098433999972, 28.752167821000057 ], [ -17.795271937999928, 28.752260546000059 ], [ -17.812027427999965, 28.746013384000037 ], [ -17.830669390999958, 28.746742834000031 ], [ -17.838344499999948, 28.743759499000078 ], [ -17.853441499999974, 28.754327999000054 ], [ -17.822620628999971, 28.790100105000079 ], [ -17.814430511999944, 28.793572372000028 ], [ -17.808263925999938, 28.80055988600003 ], [ -17.791429491999963, 28.804026758000077 ], [ -17.770519, 28.818944999000053 ], [ -17.76069817399997, 28.805742545000044 ], [ -17.757849710999949, 28.788243305000037 ], [ -17.753526499999964, 28.782750999000029 ] ] ] } },
{ "type": "Feature", "properties": { "code": "38034", "name": "San Juan de la Rambla" }, "geometry": { "type": "Polygon", "coordinates": [ [ [ -16.6525, 28.395688999000072 ], [ -16.643583240999931, 28.397950664000064 ], [ -16.636432305999961, 28.395051225000032 ], [ -16.624347499999942, 28.39609899900006 ], [ -16.62565645199993, 28.381562731000031 ], [ -16.619090510999968, 28.357750764000059 ], [ -16.592265, 28.314660999000068 ], [ -16.608225, 28.306836999000041 ], [ -16.629218413999979, 28.340305920000048 ], [ -16.636558070999968, 28.358515693000072 ], [ -16.64811014199995, 28.372274829000048 ], [ -16.654368323999961, 28.38847899700005 ], [ -16.6525, 28.395688999000072 ] ] ] } },
{ "type": "Feature", "properties": { "code": "38035", "name": "San Miguel de Abona" }, "geometry": { "type": "Polygon", "coordinates": [ [ [ -16.62007049999994, 28.134189999000057 ], [ -16.613252389999957, 28.126696189000029 ], [ -16.610861057999955, 28.114037774000053 ], [ -16.601276258999974, 28.100873534000073 ], [ -16.602448212999946, 28.067524819000027 ], [ -16.60555551799996, 28.060830489000068 ], [ -16.60617057199994, 28.046381259000043 ], [ -16.60033305099995, 28.038017560000071 ], [ -16.59762749999993, 28.027753999000026 ], [ -16.624994268999956, 28.01785303500003 ], [ -16.632538400999977, 28.009972411000035 ], [ -16.638414499999953, 28.008960499000068 ], [ -16.637965232999932, 28.059411755000042 ], [ -16.641245651999952, 28.071316413000034 ], [ -16.641813, 28.104543999000043 ], [ -16.640586309999946, 28.116015510000068 ], [ -16.622959231999971, 28.128361105000067 ], [ -16.62007049999994, 28.134189999000057 ] ] ] } },
{ "type": "Feature", "properties": { "code": "38036", "name": "San Sebastián de la Gomera" }, "geometry": { "type": "Polygon", "coordinates": [ [ [ -17.194839499999944, 28.028695999000035 ], [ -17.194000788999972, 28.030774170000029 ], [ -17.209091920999981, 28.050197438000055 ], [ -17.230699768999955, 28.087118632000056 ], [ -17.238278499999979, 28.106354999000075 ], [ -17.220804567999949, 28.108881708000069 ], [ -17.215487105999955, 28.121709833000068 ], [ -17.197356909999939, 28.126636761000043 ], [ -17.181851923999943, 28.137163929000053 ], [ -17.178965348999952, 28.143237377000048 ], [ -17.168636485999968, 28.147784630000046 ], [ -17.152116878999948, 28.148039481000069 ], [ -17.138479, 28.159848999000076 ], [ -17.128868958999931, 28.153097209000066 ], [ -17.119229956999959, 28.151414555000031 ], [ -17.116629212999953, 28.145158314000071 ], [ -17.111745473999974, 28.142032731000029 ], [ -17.112433160999956, 28.133351333000064 ], [ -17.10399694299997, 28.127760253000076 ], [ -17.104343879999931, 28.105797879000079 ], [ -17.099765580999929, 28.094632372000035 ], [ -17.111927614999956, 28.086561300000028 ], [ -17.119616503999964, 28.074001968000061 ], [ -17.129208907999953, 28.071698129000026 ], [ -17.139540110999974, 28.064968494000027 ], [ -17.145499136999945, 28.054364698000029 ], [ -17.15323747399998, 28.053301856000076 ], [ -17.167844935999938, 28.040933447000043 ], [ -17.169443446999935, 28.035658846000047 ], [ -17.178065389999972, 28.037986019000073 ], [ -17.186935853999955, 28.029588397000055 ], [ -17.194839499999944, 28.028695999000035 ] ] ] } },
{ "type": "Feature", "properties": { "code": "38037", "name": "Santa Cruz de la Palma" }, "geometry": { "type": "Polygon", "coordinates": [ [ [ -17.835584, 28.734675999000046 ], [ -17.822583279999947, 28.735316817000069 ], [ -17.815148772999976, 28.738852673000054 ], [ -17.783975794999947, 28.731978303000062 ], [ -17.765230216999953, 28.723248348000027 ], [ -17.752268, 28.705136999000047 ], [ -17.758469869999942, 28.697245303000045 ], [ -17.765315584999939, 28.675552392000043 ], [ -17.767351486999928, 28.679249177000031 ], [ -17.770277, 28.67603899900007 ], [ -17.773053390999962, 28.677954505000059 ], [ -17.770570653999982, 28.684889174000034 ], [ -17.774488266999981, 28.68692992900003 ], [ -17.796959992999973, 28.676288916000033 ], [ -17.823121413999957, 28.687272803000042 ], [ -17.833681, 28.688102999000023 ], [ -17.845468619999963, 28.705331922000028 ], [ -17.838154290999967, 28.718304002000025 ], [ -17.835584, 28.734675999000046 ] ] ] } },
{ "type": "Feature", "properties": { "code": "38038", "name": "Santa Cruz de Tenerife" }, "geometry": { "type": "MultiPolygon", "coordinates": [ [ [ [ -16.274479, 28.572269499000072 ], [ -16.271677753999938, 28.577063384000041 ], [ -16.257393719999982, 28.570667128000025 ], [ -16.242999848999943, 28.571193762000064 ], [ -16.224562061999961, 28.56572318800005 ], [ -16.192977551999945, 28.573829654000065 ], [ -16.157902758999967, 28.588072804000035 ], [ -16.133929690999935, 28.580995522000023 ], [ -16.134049047999952, 28.575476375000051 ], [ -16.127312506999942, 28.57029142500005 ], [ -16.120483047999926, 28.554625215000044 ], [ -16.127336445999958, 28.546360521000054 ], [ -16.129157960999976, 28.537133272000062 ], [ -16.126732976999961, 28.532813193000038 ], [ -16.135355298999968, 28.533795390000023 ], [ -16.145313956999928, 28.521980518000078 ], [ -16.155238271999963, 28.522624460000031 ], [ -16.167084465999949, 28.518553648000079 ], [ -16.179198106999934, 28.510526055000071 ], [ -16.186188788999971, 28.509369381000056 ], [ -16.19659953799993, 28.498971331000064 ], [ -16.235622755999941, 28.485392972000056 ], [ -16.24520877599997, 28.473452611000027 ], [ -16.242786154999976, 28.465711628000065 ], [ -16.246741712999949, 28.456196936000026 ], [ -16.268797534999976, 28.448125394000044 ], [ -16.279695642999968, 28.434837241000025 ], [ -16.307642, 28.409877499000061 ], [ -16.319020019999982, 28.419740509000064 ], [ -16.327370188999964, 28.416998746000047 ], [ -16.335419368999965, 28.419501981000053 ], [ -16.344003240999939, 28.428161075000048 ], [ -16.331472122999969, 28.446795638000026 ], [ -16.330541, 28.454678999000066 ], [ -16.326338343999964, 28.450893529000041 ], [ -16.301830307999978, 28.445737545000043 ], [ -16.299047912999981, 28.435816733000024 ], [ -16.294512542999939, 28.432946170000037 ], [ -16.289899067999954, 28.458995363000042 ], [ -16.28183127799997, 28.467144476000044 ], [ -16.270834749999949, 28.496784988000059 ], [ -16.272692567999968, 28.501952522000067 ], [ -16.283779467999977, 28.509714250000059 ], [ -16.285916235999935, 28.514181585000074 ], [ -16.278775012999972, 28.531973794000066 ], [ -16.270137614999953, 28.536604910000051 ], [ -16.267972203999932, 28.542772296000066 ], [ -16.274479, 28.572269499000072 ] ] ], [ [ [ -16.153881470999977, 28.60379516200004 ], [ -16.159259439999971, 28.599032175000048 ], [ -16.156927996999968, 28.606593148000059 ], [ -16.153971148999972, 28.607419419000053 ], [ -16.153881470999977, 28.60379516200004 ] ] ], [ [ [ -16.157726534999938, 28.595617901000026 ], [ -16.158339285999944, 28.589572799000052 ], [ -16.162740493999934, 28.591591768000058 ], [ -16.161871879999978, 28.594783416000041 ], [ -16.157726534999938, 28.595617901000026 ] ] ] ] } },
{ "type": "Feature", "properties": { "code": "38039", "name": "Santa Úrsula" }, "geometry": { "type": "Polygon", "coordinates": [ [ [ -16.445489, 28.390614499000037 ], [ -16.45729039899993, 28.382228766000026 ], [ -16.463476, 28.37207999900005 ], [ -16.477309221999974, 28.388049981000052 ], [ -16.507378083999981, 28.409349358000043 ], [ -16.507965234999972, 28.415794676000075 ], [ -16.495933251999929, 28.439024753000069 ], [ -16.487697499999967, 28.437740499000029 ], [ -16.481066269999928, 28.428167445000042 ], [ -16.471070416999964, 28.426263467000069 ], [ -16.463013630999967, 28.420286997000062 ], [ -16.457600054999943, 28.407441636000044 ], [ -16.442739, 28.390732999000079 ], [ -16.445489, 28.390614499000037 ] ] ] } },
{ "type": "Feature", "properties": { "code": "38040", "name": "Santiago del Teide" }, "geometry": { "type": "Polygon", "coordinates": [ [ [ -16.818799, 28.314470999000036 ], [ -16.813157313999966, 28.311746386000038 ], [ -16.803265, 28.314875999000037 ], [ -16.793412, 28.311728999000024 ], [ -16.788789, 28.308486499000026 ], [ -16.774514499999952, 28.302355999000042 ], [ -16.765670499999942, 28.297344499000076 ], [ -16.756229, 28.294288499000061 ], [ -16.743676499999935, 28.287980999000069 ], [ -16.733925499999941, 28.285885999000072 ], [ -16.724869, 28.280689499000061 ], [ -16.706756499999926, 28.273558999000045 ], [ -16.700718499999937, 28.271437999000057 ], [ -16.67733, 28.268871999000055 ], [ -16.704395499999976, 28.268451499000037 ], [ -16.747974499999941, 28.273641499000064 ], [ -16.771499499999948, 28.27107249900007 ], [ -16.788200499999959, 28.265152499000067 ], [ -16.809034499999939, 28.256006499000023 ], [ -16.840164, 28.226936499000033 ], [ -16.84494872199997, 28.239284839000049 ], [ -16.83852062699998, 28.257309164000048 ], [ -16.841098504999934, 28.263206077000063 ], [ -16.849526265999941, 28.268050259000063 ], [ -16.852604, 28.273147499000061 ], [ -16.845865996999976, 28.282895456000062 ], [ -16.822152893999942, 28.293642668000075 ], [ -16.825979982999968, 28.307263658000068 ], [ -16.818799, 28.314470999000036 ] ] ] } },
{ "type": "Feature", "properties": { "code": "38041", "name": "Sauzal, El" }, "geometry": { "type": "Polygon", "coordinates": [ [ [ -16.430587499999945, 28.487357999000039 ], [ -16.419264811999938, 28.477512091000051 ], [ -16.411049514999945, 28.465241119000041 ], [ -16.396402499999965, 28.430321999000057 ], [ -16.404630183999927, 28.422959977000062 ], [ -16.406904499999939, 28.414532999000073 ], [ -16.408890499999927, 28.414171999000075 ], [ -16.416996531999928, 28.432411634000061 ], [ -16.42981281699997, 28.448067368000068 ], [ -16.455549499999961, 28.466029999000057 ], [ -16.455496447999963, 28.469120224000051 ], [ -16.445072381999978, 28.475475417000041 ], [ -16.443171941999935, 28.480346285000053 ], [ -16.430587499999945, 28.487357999000039 ] ] ] } },
{ "type": "Feature", "properties": { "code": "38042", "name": "Silos, Los" }, "geometry": { "type": "Polygon", "coordinates": [ [ [ -16.793016499999965, 28.374843499000065 ], [ -16.796428142999957, 28.371332123000059 ], [ -16.793942512999934, 28.352667927000027 ], [ -16.808330923999961, 28.322055062000061 ], [ -16.807256499999937, 28.313535999000067 ], [ -16.813157313999966, 28.311746386000038 ], [ -16.825883268999974, 28.318679563000046 ], [ -16.834097890999942, 28.337100836000047 ], [ -16.834465134999959, 28.368345608000027 ], [ -16.829803499999969, 28.392339999000058 ], [ -16.810437350999962, 28.377705786000035 ], [ -16.797856181999975, 28.377632229000028 ], [ -16.793016499999965, 28.374843499000065 ] ] ] } },
{ "type": "Feature", "properties": { "code": "38043", "name": "Tacoronte" }, "geometry": { "type": "Polygon", "coordinates": [ [ [ -16.382557, 28.450615999000036 ], [ -16.396402499999965, 28.430321999000057 ], [ -16.411049514999945, 28.465241119000041 ], [ -16.419264811999938, 28.477512091000051 ], [ -16.430587499999945, 28.487357999000039 ], [ -16.420369163999965, 28.517671751000023 ], [ -16.410894499999927, 28.527410499000041 ], [ -16.398997527999938, 28.508909309000046 ], [ -16.374886741999944, 28.489911646000053 ], [ -16.372871766999936, 28.473593594000079 ], [ -16.37765496399993, 28.468807535000053 ], [ -16.382557, 28.450615999000036 ] ] ] } },
{ "type": "Feature", "properties": { "code": "38044", "name": "Tanque, El" }, "geometry": { "type": "Polygon", "coordinates": [ [ [ -16.795739, 28.365680499000064 ], [ -16.787996799999974, 28.360270410000055 ], [ -16.782515180999951, 28.361948175000066 ], [ -16.776773754999965, 28.368529534000061 ], [ -16.766686128999936, 28.367080494000049 ], [ -16.765069960999938, 28.352474392000033 ], [ -16.767716308999979, 28.33183748600004 ], [ -16.764339162999931, 28.317315581000059 ], [ -16.757354454999927, 28.302805282000065 ], [ -16.743676499999935, 28.287980999000069 ], [ -16.756229, 28.294288499000061 ], [ -16.765670499999942, 28.297344499000076 ], [ -16.774514499999952, 28.302355999000042 ], [ -16.788789, 28.308486499000026 ], [ -16.793412, 28.311728999000024 ], [ -16.803265, 28.314875999000037 ], [ -16.807256499999937, 28.313535999000067 ], [ -16.808330923999961, 28.322055062000061 ], [ -16.793942512999934, 28.352667927000027 ], [ -16.795739, 28.365680499000064 ] ] ] } },
{ "type": "Feature", "properties": { "code": "38045", "name": "Tazacorte" }, "geometry": { "type": "Polygon", "coordinates": [ [ [ -17.950125, 28.652536499000064 ], [ -17.937989, 28.662832499000046 ], [ -17.935489114999939, 28.657592236000028 ], [ -17.939498501999935, 28.650563006000027 ], [ -17.925339950999955, 28.647452446000045 ], [ -17.923252723999951, 28.638189929000077 ], [ -17.913703384999963, 28.628054766000048 ], [ -17.905861582999933, 28.594166081000026 ], [ -17.918575499999974, 28.592235499000026 ], [ -17.925152538999953, 28.596301986000071 ], [ -17.923364098999969, 28.607138634000023 ], [ -17.926000875999932, 28.61621776100003 ], [ -17.940408806999926, 28.642372307000073 ], [ -17.950125, 28.652536499000064 ] ] ] } },
{ "type": "Feature", "properties": { "code": "38046", "name": "Tegueste" }, "geometry": { "type": "Polygon", "coordinates": [ [ [ -16.373483778999969, 28.50189103200006 ], [ -16.371589441999959, 28.51761379800007 ], [ -16.352851829999963, 28.52884160900004 ], [ -16.340430924999964, 28.545351094000068 ], [ -16.329935639999974, 28.545314144000031 ], [ -16.292831323999962, 28.533840694000048 ], [ -16.299623022999981, 28.519752113000038 ], [ -16.306879424999977, 28.51261248000003 ], [ -16.318835166999975, 28.508890132000033 ], [ -16.325164924999967, 28.51060755900005 ], [ -16.354388274999963, 28.491007728000056 ], [ -16.361071539999955, 28.491812568000057 ], [ -16.373483778999969, 28.50189103200006 ] ] ] } },
{ "type": "Feature", "properties": { "code": "38047", "name": "Tijarafe" }, "geometry": { "type": "Polygon", "coordinates": [ [ [ -17.950125, 28.652536499000064 ], [ -17.963274039999931, 28.667479736000075 ], [ -17.965563026999973, 28.684673667000027 ], [ -17.974974309999936, 28.710479390000046 ], [ -17.980472412999973, 28.71794355000003 ], [ -17.981830887999934, 28.726963041000033 ], [ -17.992857, 28.740197999000031 ], [ -17.987248404999946, 28.744579765000026 ], [ -17.956294785999944, 28.750139839000042 ], [ -17.95010667899993, 28.746945711000023 ], [ -17.900285499999939, 28.740774499000054 ], [ -17.899474979999979, 28.737415530000078 ], [ -17.90988409299996, 28.713298818000055 ], [ -17.922997639999949, 28.694678102000069 ], [ -17.921126433999973, 28.682642952000037 ], [ -17.92449, 28.675380499000028 ], [ -17.931337063999933, 28.671990163000032 ], [ -17.937989, 28.662832499000046 ], [ -17.950125, 28.652536499000064 ] ] ] } },
{ "type": "Feature", "properties": { "code": "38048", "name": "Valverde" }, "geometry": { "type": "Polygon", "coordinates": [ [ [ -17.960365499999966, 27.692123499000047 ], [ -17.974940445999948, 27.73127514600003 ], [ -18.004067582999937, 27.725688851000029 ], [ -18.024845, 27.727503499000079 ], [ -18.013758429999939, 27.728778688000034 ], [ -17.993466658999978, 27.739875880000056 ], [ -17.979849076999926, 27.75775757200006 ], [ -17.98297243899998, 27.768544157000065 ], [ -17.987373636999962, 27.773794096000074 ], [ -17.979024740999932, 27.793613606000065 ], [ -17.979908654999974, 27.805390990000035 ], [ -17.984501554999952, 27.814712740000061 ], [ -17.988854440999944, 27.819887993000066 ], [ -17.993190499999969, 27.822177999000075 ], [ -17.973621349999974, 27.82720977300005 ], [ -17.958325082999977, 27.841075893000038 ], [ -17.947394307999957, 27.840942486000074 ], [ -17.936268070999972, 27.848062488000039 ], [ -17.922777430999929, 27.849191522000069 ], [ -17.907551112999954, 27.843032944000072 ], [ -17.895405754999956, 27.832067562000077 ], [ -17.892901593999966, 27.822959787000059 ], [ -17.88396402799998, 27.812545490000048 ], [ -17.885131456999943, 27.801821062000045 ], [ -17.903208477999954, 27.78493270000007 ], [ -17.913362437999979, 27.770711833000064 ], [ -17.911917484999947, 27.764876308000055 ], [ -17.925145096999927, 27.743948848000059 ], [ -17.928197583999975, 27.732109930000036 ], [ -17.933865723999929, 27.728461287000073 ], [ -17.948270095999931, 27.72860518300007 ], [ -17.95706512299995, 27.720011812000052 ], [ -17.960365499999966, 27.692123499000047 ] ] ] } }
]
}
