{
"type": "FeatureCollection",
"crs": { "type": "name", "properties": { "name": "urn:ogc:def:crs:OGC:1.3:CRS84" } },
"features": [
{ "type": "Feature", "properties": { "code": "51001", "name": "Ceuta" }, "geometry": { "type": "MultiPolygon", "coordinates": [ [ [ [ -4.297319235999964, 35.172953889000041 ], [ -4.293826132999925, 35.17123917400005 ], [ -4.293528249999952, 35.168371562000061 ], [ -4.304912806999937, 35.173996834000036 ], [ -4.297319235999964, 35.172953889000041 ] ] ], [ [ [ -5.363703438999949, 35.916340486000024 ], [ -5.34850087999996, 35.907444273000067 ], [ -5.336507726999969, 35.895329632000028 ], [ -5.32505208699996, 35.899723154000071 ], [ -5.315384282999958, 35.89009761300008 ], [ -5.30216084999995, 35.893764629000032 ], [ -5.297827677999976, 35.901073907000068 ], [ -5.288303151999969, 35.905692751000061 ], [ -5.279255788999933, 35.897812247000047 ], [ -5.289155704999928, 35.890366327000038 ], [ -5.304580619999967, 35.885401221000052 ], [ -5.31930443899995, 35.886469920000025 ], [ -5.344450551999955, 35.872034530000064 ], [ -5.354956524999977, 35.873613403000036 ], [ -5.372453542999949, 35.884211905000029 ], [ -5.380634581999971, 35.911999612000045 ], [ -5.376442746999942, 35.915989446000026 ], [ -5.363703438999949, 35.916340486000024 ] ] ], [ [ [ -5.414837388999956, 35.911800868000057 ], [ -5.420144652999966, 35.911422988000027 ], [ -5.420139476999964, 35.915937236000048 ], [ -5.417312657999958, 35.916823567000051 ], [ -5.414837388999956, 35.911800868000057 ] ] ] ] } }
]
}
