{
"type": "FeatureCollection",
"crs": { "type": "name", "properties": { "name": "urn:ogc:def:crs:OGC:1.3:CRS84" } },
"features": [
{ "type": "Feature", "properties": { "code": "52001", "name": "Melilla" }, "geometry": { "type": "MultiPolygon", "coordinates": [ [ [ [ -2.419353615999967, 35.179441359000066 ], [ -2.419120352999926, 35.176780182000073 ], [ -2.423715021999953, 35.178985286000056 ], [ -2.425265976999981, 35.185388796000041 ], [ -2.419353615999967, 35.179441359000066 ] ] ], [ [ [ -2.427589725999951, 35.179513230000055 ], [ -2.430870734999928, 35.179959342000075 ], [ -2.432515825999928, 35.184540906000052 ], [ -2.426176616999953, 35.183359195000037 ], [ -2.427589725999951, 35.179513230000055 ] ] ], [ [ [ -2.441061915999967, 35.184289278000051 ], [ -2.438156318999972, 35.178532974000063 ], [ -2.441769993999969, 35.176577745000031 ], [ -2.444635744999971, 35.179142465000041 ], [ -2.441061915999967, 35.184289278000051 ] ] ], [ [ [ -2.935035955999979, 35.296214479000071 ], [ -2.925572120999959, 35.292478070000072 ], [ -2.931820965999975, 35.291733278000038 ], [ -2.936813082999947, 35.285384192000038 ], [ -2.935233213999936, 35.278923728000052 ], [ -2.928529681999976, 35.273477828000068 ], [ -2.936319088999937, 35.268397585000059 ], [ -2.950103450999961, 35.266184892000069 ], [ -2.967675884999949, 35.282447449000074 ], [ -2.966473163999979, 35.287887892000072 ], [ -2.970112837999977, 35.291181827000059 ], [ -2.967520247999971, 35.301602414000058 ], [ -2.960642980999978, 35.31499774200006 ], [ -2.954812537999942, 35.318849382000053 ], [ -2.946398439999939, 35.314918718000058 ], [ -2.945798259999947, 35.308166783000047 ], [ -2.935035955999979, 35.296214479000071 ] ] ], [ [ [ -3.88512871599994, 35.211624485000073 ], [ -3.890596692999964, 35.211429085000077 ], [ -3.89362724199998, 35.213301215000058 ], [ -3.887970487999951, 35.215658651000069 ], [ -3.88512871599994, 35.211624485000073 ] ] ], [ [ [ -3.901541782999971, 35.213345896000078 ], [ -3.904567429999929, 35.212097548000031 ], [ -3.90588904699996, 35.214641953000068 ], [ -3.901081452999961, 35.217974109000068 ], [ -3.899102977999974, 35.215526461000024 ], [ -3.901541782999971, 35.213345896000078 ] ] ] ] } }
]
}
